{"type":"FeatureCollection","features":[
{"type":"Feature","geometry":{"type":"Point","coordinates":[29.3574835,-3.3837913]},"properties":{"shop":"supermarket"}},
{"type":"Feature","geometry":{"type":"Point","coordinates":[29.3699474,-3.3861839]},"properties":{"amenity":"marketplace","name":"Chez Natalie"}},
{"type":"Feature","geometry":{"type":"Point","coordinates":[29.3714243,-3.386998]},"properties":{"amenity":"marketplace","name":"Burundi Garden (Jewlery)"}},
{"type":"Feature","geometry":{"type":"Point","coordinates":[29.3609911,-3.3844947]},"properties":{"name":"bakery","shop":"bakery"}},
{"type":"Feature","geometry":{"type":"Point","coordinates":[29.3637256,-3.3891938]},"properties":{"name":"La Baguette Magique","note":"Great bakery!","shop":"bakery"}},
{"type":"Feature","geometry":{"type":"Point","coordinates":[29.364478,-3.3725118]},"properties":{"name":"Boulangerie & Patisserie","shop":"bakery","source":"Open Source Society Bur"}},
{"type":"Feature","geometry":{"type":"Point","coordinates":[29.6907823,-3.7658679]},"properties":{"amenity":"marketplace","name":"Souk de Matana","name:de":"Markt von Matana","name:en":"Matana Market","name:fr":"Souk de Matana","name:rn":"Isoko Matana"}},
{"type":"Feature","geometry":{"type":"Point","coordinates":[29.6835759,-3.7666351]},"properties":{"shop":"convenience"}},
{"type":"Feature","geometry":{"type":"Point","coordinates":[29.6969163,-3.7736911]},"properties":{"amenity":"marketplace","name":"Marché des Vaches","name:de":"Kuhmarkt","name:en":"Cattle Market","name:fr":"Marché des Vaches"}},
{"type":"Feature","geometry":{"type":"Point","coordinates":[29.3715745,-3.4165429]},"properties":{"amenity":"marketplace","name":"Marché Musaga"}},
{"type":"Feature","geometry":{"type":"Point","coordinates":[29.3723971,-3.3511475]},"properties":{"amenity":"marketplace","name":"Marché Ngagara","source":"pen source society"}},
{"type":"Feature","geometry":{"type":"Point","coordinates":[29.3820044,-3.3334601]},"properties":{"amenity":"marketplace","name":"Marché Kinama"}},
{"type":"Feature","geometry":{"type":"Point","coordinates":[29.3734243,-3.3413095]},"properties":{"amenity":"marketplace","name":"Marché Cibitoke"}},
{"type":"Feature","geometry":{"type":"Point","coordinates":[29.3686678,-3.3698052]},"properties":{"name":"Mutoyi","name:en":"Mutoyi Supermarket (Old)","shop":"supermarket"}},
{"type":"Feature","geometry":{"type":"Point","coordinates":[29.3757252,-3.3585709]},"properties":{"alt_name":"BTC","name":"Burundi Trade Centre","opening_hours":"24/7","shop":"supermarket"}},
{"type":"Feature","geometry":{"type":"Point","coordinates":[29.3735281,-3.387796]},"properties":{"name":"Escale du bien","shop":"supermarket"}},
{"type":"Feature","geometry":{"type":"Point","coordinates":[29.3680699,-3.3833879]},"properties":{"name":"Nouvelle Boucherie Charcuterie IMMO","note":"greek butcher, best in town","shop":"butcher"}},
{"type":"Feature","geometry":{"type":"Point","coordinates":[29.8198523,-2.9126172]},"properties":{"shop":"convenience"}},
{"type":"Feature","geometry":{"type":"Point","coordinates":[29.8313009,-2.906879]},"properties":{"amenity":"marketplace"}},
{"type":"Feature","geometry":{"type":"Point","coordinates":[30.0893207,-2.5873784]},"properties":{"amenity":"marketplace","name":"Isoko","operator":"public"}},
{"type":"Feature","geometry":{"type":"Point","coordinates":[30.0950168,-2.5854393]},"properties":{"name":"Source d'amour","shop":"convenience"}},
{"type":"Feature","geometry":{"type":"Point","coordinates":[30.5498251,-3.2170318]},"properties":{"amenity":"marketplace"}},
{"type":"Feature","geometry":{"type":"Point","coordinates":[30.7722143,-3.200135]},"properties":{"amenity":"marketplace"}},
{"type":"Feature","geometry":{"type":"Point","coordinates":[29.3609447,-3.3843531]},"properties":{"name":"OM Supermarket","shop":"supermarket"}},
{"type":"Feature","geometry":{"type":"Point","coordinates":[29.3612279,-3.3841109]},"properties":{"shop":"supermarket"}},
{"type":"Feature","geometry":{"type":"Point","coordinates":[29.4410508,-3.9778122]},"properties":{"amenity":"marketplace","building":"yes","name":"Marché Central de Rumonge","name:fr":"Marché Central de Rumonge"}},
{"type":"Feature","geometry":{"type":"Point","coordinates":[29.6252224,-3.9495664]},"properties":{"amenity":"marketplace"}},
{"type":"Feature","geometry":{"type":"Point","coordinates":[29.4010576,-3.9010219]},"properties":{"amenity":"marketplace"}},
{"type":"Feature","geometry":{"type":"Point","coordinates":[29.3607158,-3.3895534]},"properties":{"name":"Harmony","shop":"convenience","source":"survey"}},
{"type":"Feature","geometry":{"type":"Point","coordinates":[29.3334911,-3.3268157]},"properties":{"amenity":"marketplace","project:eurosha_2012":"yes","source":"survey","source:date":"2012/11/20"}},
{"type":"Feature","geometry":{"type":"Point","coordinates":[29.3671296,-3.380899]},"properties":{"description":"large chinese supermarket, poor quality goods","name":"T2000","shop":"supermarket","source":"local_knowledge"}},
{"type":"Feature","geometry":{"type":"Point","coordinates":[29.3857582,-3.3669016]},"properties":{"addr:street":"Avenue Kirika, Kigobe, Bujumbura","name":"Mutoyi","opening_hours":"Mo-Fr 08:00-20:00; Sa 11:00-20:00; Su off","shop":"supermarket","source":"survey","source:date":"2012-11-21"}},
{"type":"Feature","geometry":{"type":"Point","coordinates":[29.3866145,-3.3658709]},"properties":{"addr:street":"Boulevard du 28 Novembre, Kigobe, Bujumbura","project:eurosha_2012":"yes","shop":"supermarket"}},
{"type":"Feature","geometry":{"type":"Point","coordinates":[29.3841458,-3.3469407]},"properties":{"amenity":"marketplace","name":"Marché de Kamenge"}},
{"type":"Feature","geometry":{"type":"Point","coordinates":[29.3745487,-3.3889341]},"properties":{"name":"Fée du Logis","project:eurosha_2012":"yes","shop":"supermarket","source":"Bing","source:date":"2010"}},
{"type":"Feature","geometry":{"type":"Point","coordinates":[29.3756105,-3.3889025]},"properties":{"name":"Fidodido","project:eurosha_2012":"yes","shop":"supermarket","source":"Survey","source:date":"2012-10-31"}},
{"type":"Feature","geometry":{"type":"Point","coordinates":[29.3492337,-3.3358243]},"properties":{"amenity":"marketplace","name":"Marché de Buterere I","project:eurosha_2012":"yes","source":"Survey","source:date":"2013-01-30"}},
{"type":"Feature","geometry":{"type":"Point","coordinates":[29.3508728,-3.3367035]},"properties":{"name":"Boucherie Ntwengaho","project:eurosha_2012":"yes","shop":"butcher","source":"Survey","source:date":"2013-01-30"}},
{"type":"Feature","geometry":{"type":"Point","coordinates":[29.3542784,-3.3368921]},"properties":{"addr:street":"9è Avenue","name":"Boulangerie","shop":"bakery","source":"Enquête","source:date":"30/01/2013"}},
{"type":"Feature","geometry":{"type":"Point","coordinates":[29.3702405,-3.3934429]},"properties":{"name":"Le Petit Schengen","project:eurosha_2012":"yes","shop":"supermarket","source":"survey","source:date":"2013-02-02"}},
{"type":"Feature","geometry":{"type":"Point","coordinates":[29.3713918,-3.3939005]},"properties":{"name":"Au Bon Prix","opening_hours":"Mo-Fr 08:00-21:00;Sa 08:30-21:00;Su 08:30-14:30","phone":"+257 22224585","shop":"supermarket","source":"Survey"}},
{"type":"Feature","geometry":{"type":"Point","coordinates":[29.3547494,-3.336515]},"properties":{"name":"Boulangerie","shop":"bakery","source":"Survey","source:date":"2013-01-31"}},
{"type":"Feature","geometry":{"type":"Point","coordinates":[29.3547724,-3.336403]},"properties":{"name":"Boutique Nazareti","project:eurosha_2012":"yes","shop":"convenience","source":"Survey","source:date":"2013-01-31"}},
{"type":"Feature","geometry":{"type":"Point","coordinates":[29.3547294,-3.3369012]},"properties":{"name":"Boutique","project:eurosha_2012":"yes","shop":"convenience","source":"Survey","source:date":"2013-01-31"}},
{"type":"Feature","geometry":{"type":"Point","coordinates":[29.3552198,-3.3337603]},"properties":{"name":"Boutique","project:eurosha_2012":"yes","shop":"convenience","source":"Survey","source:date":"2013-01-31"}},
{"type":"Feature","geometry":{"type":"Point","coordinates":[29.3551381,-3.3351461]},"properties":{"name":"Boutique","project:eurosha_2012":"yes","shop":"convenience","source":"Survey","source:date":"2013-01-31"}},
{"type":"Feature","geometry":{"type":"Point","coordinates":[29.3550048,-3.3356797]},"properties":{"name":"Boutique","project:eurosha_2012":"yes","shop":"convenience","source":"Survey","source:date":"2013-01-31"}},
{"type":"Feature","geometry":{"type":"Point","coordinates":[29.3548115,-3.3358806]},"properties":{"name":"Boutique","project:eurosha_2012":"yes","shop":"convenience","source":"Survey","source:date":"2013-01-31"}},
{"type":"Feature","geometry":{"type":"Point","coordinates":[29.3561164,-3.3370126]},"properties":{"amenity":"marketplace","name":"Marché de Buterere II","project:eurosha_2012":"yes","source":"survey","source:date":"2013-01-31"}},
{"type":"Feature","geometry":{"type":"Point","coordinates":[29.3552644,-3.3324694]},"properties":{"name":"Boutique","project:eurosha_2012":"yes","shop":"convenience","source":"Survey","source:date":"2013-01-31"}},
{"type":"Feature","geometry":{"type":"Point","coordinates":[29.355359,-3.3324865]},"properties":{"name":"Boutique","project:eurosha_2012":"yes","shop":"convenience","source":"Survey","source:date":"2013-01-31"}},
{"type":"Feature","geometry":{"type":"Point","coordinates":[29.3552449,-3.3327173]},"properties":{"name":"Boutique","project:eurosha_2012":"yes","shop":"convenience","source":"Survey","source:date":"2013-01-31"}},
{"type":"Feature","geometry":{"type":"Point","coordinates":[29.9774968,-3.518055]},"properties":{"shop":"convenience"}},
{"type":"Feature","geometry":{"type":"Point","coordinates":[29.3553818,-3.3310647]},"properties":{"name":"Boutique","project:eurosha_2012":"yes","shop":"convenience","source":"Survey","source:date":"2013-01-31"}},
{"type":"Feature","geometry":{"type":"Point","coordinates":[29.3580141,-3.3315887]},"properties":{"project:eurosha_2012":"yes","shop":"convenience","source":"Survey","source:date":"2013-01-31"}},
{"type":"Feature","geometry":{"type":"Point","coordinates":[29.3546819,-3.3369132]},"properties":{"name":"Boutique Ntazimba","project:eurosha_2012":"yes","shop":"convenience","source":"Survey","source:date":"2013-02-01"}},
{"type":"Feature","geometry":{"type":"Point","coordinates":[29.3548643,-3.3369073]},"properties":{"name":"Boutique","project:eurosha_2012":"yes","shop":"convenience","source":"Survey","source:date":"2013-02-01"}},
{"type":"Feature","geometry":{"type":"Point","coordinates":[29.3547169,-3.3370491]},"properties":{"name":"Boutique","project:eurosha_2012":"yes","shop":"convenience","source":"Survey","source:date":"2013-02-01"}},
{"type":"Feature","geometry":{"type":"Point","coordinates":[29.3547451,-3.3370498]},"properties":{"name":"Boutique","project:eurosha_2012":"yes","shop":"convenience","source":"Survey","source:date":"2013-02-01"}},
{"type":"Feature","geometry":{"type":"Point","coordinates":[29.3557405,-3.336876]},"properties":{"name":"Boucherie Allah Akbar","project:eurosha_2012":"yes","shop":"butcher","source":"Survey","source:date":"2013-02-01"}},
{"type":"Feature","geometry":{"type":"Point","coordinates":[29.3559544,-3.336884]},"properties":{"name":"Boutique East African Community - Chez Mwalimz","project:eurosha_2012":"yes","shop":"convenience","source":"Survey","source:date":"2013-02-01"}},
{"type":"Feature","geometry":{"type":"Point","coordinates":[29.3569121,-3.3369096]},"properties":{"name":"Boutique Waka Waka","project:eurosha_2012":"yes","shop":"convenience","source":"Survey","source:date":"2013-02-01"}},
{"type":"Feature","geometry":{"type":"Point","coordinates":[29.3560776,-3.3368871]},"properties":{"name":"Boutique","project:eurosha_2012":"yes","shop":"convenience","source":"Survey","source:date":"2013-02-01"}},
{"type":"Feature","geometry":{"type":"Point","coordinates":[29.3575699,-3.3369268]},"properties":{"name":"Boutique Take Away","project:eurosha_2012":"yes","shop":"convenience","source":"Survey","source:date":"2013-02-01"}},
{"type":"Feature","geometry":{"type":"Point","coordinates":[29.358399,-3.3369814]},"properties":{"name":"Boutique","project:eurosha_2012":"yes","shop":"convenience","source":"Survey","source:date":"2013-02-01"}},
{"type":"Feature","geometry":{"type":"Point","coordinates":[29.3585021,-3.3369829]},"properties":{"name":"Boutique Sosumo","project:eurosha_2012":"yes","shop":"convenience","source":"Survey","source:date":"2013-02-01"}},
{"type":"Feature","geometry":{"type":"Point","coordinates":[29.358076,-3.3370663]},"properties":{"name":"Boutique","project:eurosha_2012":"yes","shop":"convenience","source":"Survey","source:date":"2013-02-01"}},
{"type":"Feature","geometry":{"type":"Point","coordinates":[29.3586923,-3.3371106]},"properties":{"name":"Boutique","project:eurosha_2012":"yes","shop":"convenience","source":"Survey","source:date":"2013-02-01"}},
{"type":"Feature","geometry":{"type":"Point","coordinates":[29.3588329,-3.3371177]},"properties":{"name":"Boutique","project:eurosha_2012":"yes","shop":"convenience","source":"Survey","source:date":"2013-02-01"}},
{"type":"Feature","geometry":{"type":"Point","coordinates":[29.3588789,-3.3371194]},"properties":{"name":"Boutique","project:eurosha_2012":"yes","shop":"convenience","source":"Survey","source:date":"2013-02-01"}},
{"type":"Feature","geometry":{"type":"Point","coordinates":[29.3560037,-3.3370427]},"properties":{"name":"Boutique","project:eurosha_2012":"yes","shop":"convenience","source":"Survey","source:date":"2013-02-01"}},
{"type":"Feature","geometry":{"type":"Point","coordinates":[29.3562633,-3.3370612]},"properties":{"name":"Boutique","project:eurosha_2012":"yes","shop":"convenience","source":"Survey","source:date":"2013-02-01"}},
{"type":"Feature","geometry":{"type":"Point","coordinates":[29.3819399,-3.3878749]},"properties":{"description":"imported goods, rather expensive","name":"Belladone","shop":"supermarket","source":"Bing 2010"}},
{"type":"Feature","geometry":{"type":"Point","coordinates":[29.388582,-3.3682629]},"properties":{"contact:phone":"+257 79323649","name":"Bon Gout","shop":"butcher","source":"survey","source:data":"2013-02-26"}},
{"type":"Feature","geometry":{"type":"Point","coordinates":[29.3888022,-3.3682322]},"properties":{"contact:phone":"+257 78215732","shop":"convenience","source":"survey","source:data":"2013-02-26"}},
{"type":"Feature","geometry":{"type":"Point","coordinates":[29.3923305,-3.3652546]},"properties":{"addr:street":"Avenue de Saint Esprit","name":"Mini Shop","project:eurosha_2012":"yes","shop":"convenience","source":"survey","source:date":"2013-02-26"}},
{"type":"Feature","geometry":{"type":"Point","coordinates":[29.39408,-3.363933]},"properties":{"addr:street":"Avenue de Saint Esprit","project:eurosha_2012":"yes","shop":"convenience","source":"survey","source:date":"2013-02-26"}},
{"type":"Feature","geometry":{"type":"Point","coordinates":[29.3937085,-3.3643442]},"properties":{"addr:street":"Avenue de Saint Esprit","project:eurosha_2012":"yes","shop":"convenience","source":"survey","source:date":"2013-02-26"}},
{"type":"Feature","geometry":{"type":"Point","coordinates":[29.3936401,-3.3646125]},"properties":{"addr:street":"Avenue de Saint Esprit","project:eurosha_2012":"yes","shop":"convenience","source":"survey","source:date":"2013-02-26"}},
{"type":"Feature","geometry":{"type":"Point","coordinates":[29.3929244,-3.3650158]},"properties":{"addr:street":"Avenue de Saint Esprit","project:eurosha_2012":"yes","shop":"convenience","source":"survey","source:date":"2013-02-26"}},
{"type":"Feature","geometry":{"type":"Point","coordinates":[29.3637975,-3.3826348999999999]},"properties":{"name":"Boucherie","project:eurosha_2012":"yes","shop":"butcher","source":"Survey","source:date":"2013-03-12"}},
{"type":"Feature","geometry":{"type":"Point","coordinates":[29.261806,-3.3354863]},"properties":{"amenity":"marketplace","name":"Marché de Ruzizi","project:eurosha_2012":"yes","source":"survey","source:date":"2013- 03-07"}},
{"type":"Feature","geometry":{"type":"Point","coordinates":[30.2070671,-2.8789812]},"properties":{"name":"Four a pain","note":"AGRs des Refugies Financee par CPED","opening_hours":"07:00-18:00","shop":"bakery","source":"Survey","source:date":"2013-03-21"}},
{"type":"Feature","geometry":{"type":"Point","coordinates":[29.3537793,-3.4117296]},"properties":{"name":"Kinal","project:eurosha_2012":"yes","shop":"supermarket","source":"EUROSHA-UNHCR Survey","source:date":"2013-03-18"}},
{"type":"Feature","geometry":{"type":"Point","coordinates":[29.3543201,-3.3368912]},"properties":{"name":"Boutique","project:eurosha_2012":"yes","shop":"convenience","source":"Survey","source:date":"2013-02-01"}},
{"type":"Feature","geometry":{"type":"Point","coordinates":[30.1642968,-3.3917017]},"properties":{"shop":"butcher"}},
{"type":"Feature","geometry":{"type":"Point","coordinates":[30.1644851,-3.3911592]},"properties":{"shop":"bakery"}},
{"type":"Feature","geometry":{"type":"Point","coordinates":[29.3639701,-3.3820849]},"properties":{"designation":"Vente produit médical","name":"ALCHEM","shop":"supermarket","source":"Open Source Society Burundi"}},
{"type":"Feature","geometry":{"type":"Point","coordinates":[29.3681037,-3.3830071]},"properties":{"addr:city":"ROHERO","addr:housename":"Le cercle","addr:street":"Avenue de la RDC","name":"Le cercle","shop":"supermarket","source":"open source society Burunbi"}},
{"type":"Feature","geometry":{"type":"Point","coordinates":[29.3685191,-3.3903373]},"properties":{"addr:city":"Rohero","addr:street":"Avenue de la JRR","name":"Supermarket Le Carrefour","shop":"supermarket","source":"Open Source Society Burundi"}},
{"type":"Feature","geometry":{"type":"Point","coordinates":[29.9262149,-3.4277188]},"properties":{"name":"Supermarché chez Karim","name:fr":"Supermarché chez Karim","shop":"supermarket","source":"Open Source Society Burundi"}},
{"type":"Feature","geometry":{"type":"Point","coordinates":[29.3498947,-3.4067647]},"properties":{"amenity":"marketplace","name":"Marché de Kinindo","opening_hours":"Mo-Fr 08:00-17:30; Sa 10:00-17:30","source":"Open Source Society Burundi"}},
{"type":"Feature","geometry":{"type":"Point","coordinates":[29.3653726,-3.3609206]},"properties":{"amenity":"marketplace","name":"Maché Sion","source":"Open source"}},
{"type":"Feature","geometry":{"type":"Point","coordinates":[29.3665948,-3.3604998]},"properties":{"amenity":"marketplace","name":"Marché COTEBU","source":"Open source society"}},
{"type":"Feature","geometry":{"type":"Point","coordinates":[29.3714255,-3.3711289]},"properties":{"amenity":"marketplace","name":"Marché Jabe","source":"Opensource"}},
{"type":"Feature","geometry":{"type":"Point","coordinates":[29.3841998,-3.3471042]},"properties":{"amenity":"marketplace","name":"Marché Kamenge","source":"Opensource Society"}},
{"type":"Feature","geometry":{"type":"Point","coordinates":[29.0791615,-2.8147096]},"properties":{"amenity":"marketplace"}},
{"type":"Feature","geometry":{"type":"Point","coordinates":[30.3161393,-3.6247481]},"properties":{"amenity":"marketplace"}},
{"type":"Feature","geometry":{"type":"Point","coordinates":[30.3532591,-3.4001646]},"properties":{"amenity":"marketplace"}},
{"type":"Feature","geometry":{"type":"Point","coordinates":[29.7402454,-4.0093027]},"properties":{"amenity":"marketplace"}},
{"type":"Feature","geometry":{"type":"Point","coordinates":[30.3132939,-2.5111728]},"properties":{"amenity":"marketplace"}},
{"type":"Feature","geometry":{"type":"Point","coordinates":[29.7740877,-4.2754545]},"properties":{"name:en":"Boulangerie Samvura","shop":"bakery"}},
{"type":"Feature","geometry":{"type":"Point","coordinates":[29.3603348,-3.4065499]},"properties":{"name:en":"Kinindo Supermarket","shop":"supermarket"}},
{"type":"Feature","geometry":{"type":"Point","coordinates":[29.3820361,-3.3878686]},"properties":{"name:en":"Kiriri Simba Shop","shop":"supermarket"}},
{"type":"Feature","geometry":{"type":"Point","coordinates":[29.3648143,-3.3711947]},"properties":{"name":"Supermarket king star","shop":"supermarket"}},
{"type":"Feature","geometry":{"type":"Point","coordinates":[29.3719581,-3.3707356]},"properties":{"addr:housenumber":"37","addr:street":"Avenue de la Jeunesse","name":"Kirumara Shop","shop":"convenience"}},
{"type":"Feature","geometry":{"type":"Point","coordinates":[29.3621399,-3.3819866]},"properties":{"name":"WH","shop":"supermarket"}},
{"type":"Feature","geometry":{"type":"Point","coordinates":[29.6322249,-3.4403569]},"properties":{"amenity":"marketplace","name":"Isoko Rusaka"}},
{"type":"Feature","geometry":{"type":"Point","coordinates":[29.8776523,-3.6810239]},"properties":{"amenity":"marketplace","name":"Marché de Ntita"}},
{"type":"Feature","geometry":{"type":"Point","coordinates":[29.3626557,-3.3840741]},"properties":{"shop":"supermarket"}},
{"type":"Feature","geometry":{"type":"Point","coordinates":[29.3657457,-3.384872]},"properties":{"addr:city":"Bujumbura","addr:housenumber":"Bujumbura","addr:street":"Rue du Marché","amenity":"marketplace","building":"yes","name":"Ancien Marche centrale de Bujumbura","opening_hours":"Mo-Su 09:00-18:00","operator":"Gouvernement"}},
{"type":"Feature","geometry":{"type":"Point","coordinates":[29.250635,-3.3333746]},"properties":{"amenity":"marketplace","name":"Marché de Gatumba"}},
{"type":"Feature","geometry":{"type":"Point","coordinates":[30.4134592,-3.5484527]},"properties":{"amenity":"marketplace"}},
{"type":"Feature","geometry":{"type":"Point","coordinates":[30.5844684,-3.111547]},"properties":{"amenity":"marketplace"}},
{"type":"Feature","geometry":{"type":"Point","coordinates":[30.362589,-3.4861857]},"properties":{"amenity":"marketplace"}},
{"type":"Feature","geometry":{"type":"Point","coordinates":[30.4709848,-3.3241996]},"properties":{"amenity":"marketplace"}},
{"type":"Feature","geometry":{"type":"Point","coordinates":[29.8712499,-3.4855425]},"properties":{"amenity":"marketplace"}},
{"type":"Feature","geometry":{"type":"Point","coordinates":[30.1143641,-3.2646933]},"properties":{"amenity":"marketplace"}},
{"type":"Feature","geometry":{"type":"Point","coordinates":[29.3898079,-3.0808]},"properties":{"amenity":"marketplace","name":"Isoko","name:fr":"Marchè de Bubanza"}},
{"type":"Feature","geometry":{"type":"Point","coordinates":[30.066879,-3.0925107]},"properties":{"amenity":"marketplace","name":"Isoko","name:fr":"Marchè de Bugenyuzi"}},
{"type":"Feature","geometry":{"type":"Point","coordinates":[30.1709756,-3.0253118]},"properties":{"amenity":"marketplace","name":"Isoko","name:fr":"Marchè de Buhiga"}},
{"type":"Feature","geometry":{"type":"Point","coordinates":[29.5423925,-3.8147649]},"properties":{"addr:city":"Buyengero","addr:street":"MUYAMA","amenity":"marketplace","building":"commercial","name":"Isoko ya MUYAMA","opening_hours":"Tous les Mercredi"}},
{"type":"Feature","geometry":{"type":"Point","coordinates":[29.6239045,-3.8443775]},"properties":{"amenity":"marketplace","name":"Isoko"}},
{"type":"Feature","geometry":{"type":"Point","coordinates":[30.112271,-3.4718558]},"properties":{"amenity":"marketplace","name":"Isoko"}},
{"type":"Feature","geometry":{"type":"Point","coordinates":[30.0030834,-3.1244694]},"properties":{"amenity":"marketplace"}},
{"type":"Feature","geometry":{"type":"Point","coordinates":[30.2519435,-3.6333684]},"properties":{"amenity":"marketplace"}},
{"type":"Feature","geometry":{"type":"Point","coordinates":[29.9139664,-4.2998641]},"properties":{"amenity":"marketplace"}},
{"type":"Feature","geometry":{"type":"Point","coordinates":[29.4587337,-3.0675391]},"properties":{"amenity":"marketplace"}},
{"type":"Feature","geometry":{"type":"Point","coordinates":[30.1181263,-3.8099201]},"properties":{"amenity":"marketplace"}},
{"type":"Feature","geometry":{"type":"Point","coordinates":[30.275701,-3.5390268]},"properties":{"amenity":"marketplace"}},
{"type":"Feature","geometry":{"type":"Point","coordinates":[30.3364238,-3.2731143]},"properties":{"amenity":"marketplace"}},
{"type":"Feature","geometry":{"type":"Point","coordinates":[30.0905971,-3.3917338]},"properties":{"amenity":"marketplace"}},
{"type":"Feature","geometry":{"type":"Point","coordinates":[29.866992,-3.1441284]},"properties":{"amenity":"marketplace","name":"Isoko"}},
{"type":"Feature","geometry":{"type":"Point","coordinates":[30.7741537,-3.246407]},"properties":{"amenity":"marketplace"}},
{"type":"Feature","geometry":{"type":"Point","coordinates":[30.5420889,-3.0670884]},"properties":{"amenity":"marketplace"}},
{"type":"Feature","geometry":{"type":"Point","coordinates":[30.0224582,-3.6171604]},"properties":{"amenity":"marketplace"}},
{"type":"Feature","geometry":{"type":"Point","coordinates":[30.6506198,-3.3994733]},"properties":{"amenity":"marketplace"}},
{"type":"Feature","geometry":{"type":"Point","coordinates":[30.4985548,-3.458804]},"properties":{"amenity":"marketplace"}},
{"type":"Feature","geometry":{"type":"Point","coordinates":[30.4001355,-2.728382]},"properties":{"amenity":"marketplace"}},
{"type":"Feature","geometry":{"type":"Point","coordinates":[30.613697,-3.0003497]},"properties":{"amenity":"marketplace"}},
{"type":"Feature","geometry":{"type":"Point","coordinates":[29.3683989,-3.3844534]},"properties":{"name":"Le Café Gourmand","shop":"bakery"}},
{"type":"Feature","geometry":{"type":"Point","coordinates":[30.2662452,-3.3619056]},"properties":{"amenity":"marketplace"}},
{"type":"Feature","geometry":{"type":"Point","coordinates":[29.6850743,-4.3074465]},"properties":{"amenity":"marketplace","name":"Isoko"}},
{"type":"Feature","geometry":{"type":"Point","coordinates":[29.345478,-3.7987856]},"properties":{"addr:city":"MINAGO","addr:street":"MINAGO","amenity":"marketplace","name":"Marché de MINAGO","operator":"Public"}},
{"type":"Feature","geometry":{"type":"Point","coordinates":[30.2479616,-3.478867]},"properties":{"amenity":"marketplace","healthcare":"hospital","name":"Marché de Ruyigi","name:fr":"Marché de Ruyigi"}},
{"type":"Feature","geometry":{"type":"Point","coordinates":[30.1019483,-2.6884743]},"properties":{"amenity":"marketplace"}},
{"type":"Feature","geometry":{"type":"Point","coordinates":[29.8095083,-3.4705746]},"properties":{"amenity":"marketplace","name":"Isoko"}},
{"type":"Feature","geometry":{"type":"Point","coordinates":[30.1397647,-3.5677898]},"properties":{"addr:street":"RN 13","name":"marché de Muriza","shop":"supermarket"}},
{"type":"Feature","geometry":{"type":"Point","coordinates":[29.2038802,-2.8868183]},"properties":{"amenity":"marketplace"}},
{"type":"Feature","geometry":{"type":"Point","coordinates":[29.1938403,-2.9639401]},"properties":{"amenity":"marketplace"}},
{"type":"Feature","geometry":{"type":"Point","coordinates":[30.0924254,-3.7285003]},"properties":{"amenity":"marketplace"}},
{"type":"Feature","geometry":{"type":"Point","coordinates":[30.2898628,-3.1308648]},"properties":{"amenity":"marketplace"}},
{"type":"Feature","geometry":{"type":"Point","coordinates":[30.6689431,-3.065183]},"properties":{"amenity":"marketplace"}},
{"type":"Feature","geometry":{"type":"Point","coordinates":[30.0107411,-2.3601921]},"properties":{"amenity":"marketplace"}},
{"type":"Feature","geometry":{"type":"Point","coordinates":[29.7525342,-3.3054812]},"properties":{"amenity":"marketplace"}},
{"type":"Feature","geometry":{"type":"Point","coordinates":[29.7310115,-3.3910664]},"properties":{"amenity":"marketplace","name":"Isoko"}},
{"type":"Feature","geometry":{"type":"Point","coordinates":[29.5590743,-3.9445681]},"properties":{"amenity":"marketplace"}},
{"type":"Feature","geometry":{"type":"Point","coordinates":[29.1074677,-2.7522795]},"properties":{"amenity":"marketplace"}},
{"type":"Feature","geometry":{"type":"Point","coordinates":[29.8069669,-3.2940042]},"properties":{"amenity":"marketplace"}},
{"type":"Feature","geometry":{"type":"Point","coordinates":[30.0316728,-2.9576794]},"properties":{"amenity":"marketplace"}},
{"type":"Feature","geometry":{"type":"Point","coordinates":[29.9698256,-2.9164924]},"properties":{"amenity":"marketplace"}},
{"type":"Feature","geometry":{"type":"Point","coordinates":[30.141299,-2.8219079]},"properties":{"amenity":"marketplace","name":"Isoku"}},
{"type":"Feature","geometry":{"type":"Point","coordinates":[30.0343159,-2.4358648]},"properties":{"amenity":"marketplace","name":"Isoko"}},
{"type":"Feature","geometry":{"type":"Point","coordinates":[29.9048888,-3.7489474]},"properties":{"amenity":"marketplace"}},
{"type":"Feature","geometry":{"type":"Point","coordinates":[30.0995742,-3.6349431]},"properties":{"amenity":"marketplace"}},
{"type":"Feature","geometry":{"type":"Point","coordinates":[30.2961174,-3.5758151]},"properties":{"amenity":"marketplace"}},
{"type":"Feature","geometry":{"type":"Point","coordinates":[30.0797824,-3.6323362]},"properties":{"amenity":"marketplace"}},
{"type":"Feature","geometry":{"type":"Point","coordinates":[30.1929726,-3.6516122]},"properties":{"amenity":"marketplace"}},
{"type":"Feature","geometry":{"type":"Point","coordinates":[30.5945732,-3.3523694]},"properties":{"amenity":"marketplace"}},
{"type":"Feature","geometry":{"type":"Point","coordinates":[30.0524771,-2.7813799]},"properties":{"amenity":"marketplace"}},
{"type":"Feature","geometry":{"type":"Point","coordinates":[29.7725335,-3.6428076]},"properties":{"amenity":"marketplace"}},
{"type":"Feature","geometry":{"type":"Point","coordinates":[30.5541672,-3.3307302]},"properties":{"amenity":"marketplace"}},
{"type":"Feature","geometry":{"type":"Point","coordinates":[30.1094913,-4.083832]},"properties":{"amenity":"marketplace"}},
{"type":"Feature","geometry":{"type":"Point","coordinates":[29.988131,-3.9926467]},"properties":{"amenity":"marketplace"}},
{"type":"Feature","geometry":{"type":"Point","coordinates":[29.1192927,-2.8850236]},"properties":{"shop":"supermarket"}},
{"type":"Feature","geometry":{"type":"Point","coordinates":[30.4066262,-2.6534645]},"properties":{"name":"Isoko","shop":"supermarket"}},
{"type":"Feature","geometry":{"type":"Point","coordinates":[30.1550127,-3.3919352]},"properties":{"amenity":"marketplace"}},
{"type":"Feature","geometry":{"type":"Point","coordinates":[30.2202242,-3.1607386]},"properties":{"amenity":"marketplace","name":"Isoko"}},
{"type":"Feature","geometry":{"type":"Point","coordinates":[30.2256463,-3.1970857]},"properties":{"amenity":"marketplace","name":"Isoko"}},
{"type":"Feature","geometry":{"type":"Point","coordinates":[30.0783254,-3.3011127]},"properties":{"amenity":"marketplace"}},
{"type":"Feature","geometry":{"type":"Point","coordinates":[29.860647,-3.3549291]},"properties":{"amenity":"marketplace"}},
{"type":"Feature","geometry":{"type":"Point","coordinates":[29.4249823,-3.5340525]},"properties":{"amenity":"marketplace"}},
{"type":"Feature","geometry":{"type":"Point","coordinates":[29.9820848,-2.8175805]},"properties":{"amenity":"marketplace","name":"Isoko"}},
{"type":"Feature","geometry":{"type":"Point","coordinates":[29.7957618,-4.0838327]},"properties":{"amenity":"marketplace"}},
{"type":"Feature","geometry":{"type":"Point","coordinates":[29.8683966,-3.726998]},"properties":{"amenity":"marketplace"}},
{"type":"Feature","geometry":{"type":"Point","coordinates":[30.066034,-3.8126168]},"properties":{"amenity":"marketplace"}},
{"type":"Feature","geometry":{"type":"Point","coordinates":[30.2352632,-3.7802887]},"properties":{"amenity":"marketplace"}},
{"type":"Feature","geometry":{"type":"Point","coordinates":[30.427943,-2.7676171]},"properties":{"amenity":"marketplace"}},
{"type":"Feature","geometry":{"type":"LineString","coordinates":[[29.3539259,-3.3729254],[29.3549738,-3.3728181],[29.3559291,-3.3727279],[29.3559697,-3.3731013],[29.3551678,-3.373171],[29.3551927,-3.3733901],[29.353971,-3.3735566],[29.3539499,-3.373315],[29.3539259,-3.3729254]]},"properties":{"amenity":"marketplace","building":"commercial","name":"Marché de Buyenzi","source":"Open Source Society Bur"}},
{"type":"Feature","geometry":{"type":"LineString","coordinates":[[29.7023046,-3.2821067],[29.7021711,-3.281693],[29.7020599,-3.2812627],[29.7019765,-3.2809213],[29.7017568,-3.2809463],[29.7016623,-3.2813793],[29.7015177,-3.2819762],[29.7014815,-3.2821677],[29.7016734,-3.2821594],[29.7018792,-3.2821539],[29.7021155,-3.28214],[29.7023046,-3.2821067]]},"properties":{"amenity":"marketplace"}},
{"type":"Feature","geometry":{"type":"LineString","coordinates":[[30.3378136,-2.8460272],[30.3388037,-2.8453258],[30.3392903,-2.846011],[30.3383001,-2.8467124],[30.3378136,-2.8460272]]},"properties":{"access":"permissive","amenity":"marketplace","barrier":"wall","name":"Marché Central MUYINGA","project:eurosha_2012":"yes","source":"Enquête"}},
{"type":"Feature","geometry":{"type":"LineString","coordinates":[[29.9241584,-3.4308123],[29.924158,-3.430861],[29.9241683,-3.4309021],[29.9241881,-3.4309501],[29.9242006,-3.4309863],[29.9242833,-3.431225],[29.9243111,-3.4313051],[29.9244485,-3.4317016],[29.9244592,-3.4317323],[29.9244707,-3.4317654],[29.9244839,-3.4318036],[29.9245204,-3.4318354],[29.9245627,-3.4318602],[29.9246139,-3.4318534],[29.9246315,-3.4318491],[29.9246663,-3.4318406],[29.9246747,-3.4318375],[29.9247031,-3.4318272],[29.9247785,-3.4317997],[29.9249381,-3.4317414999999999],[29.9249567,-3.4317347],[29.9251196,-3.4316753],[29.925133,-3.4316704],[29.9251801,-3.4316555],[29.9255282,-3.4315301],[29.9255415,-3.4315253],[29.9255843,-3.4315099],[29.9256417,-3.4314892],[29.9256743,-3.4314643],[29.9256915,-3.4314292],[29.9256979,-3.4313851],[29.925379,-3.4304778],[29.9253532,-3.4304444],[29.9253189,-3.4304256],[29.925257,-3.4304204],[29.9251628,-3.4304313],[29.9247067,-3.4305396],[29.9242472,-3.4306777],[29.9242115,-3.4307306],[29.9241987,-3.4307532],[29.9241584,-3.4308123]]},"properties":{"amenity":"marketplace","name":"Marché Central de Gitega","name:fr":"Marché Centrale de Gitega","source":"Enquête"}},
{"type":"Feature","geometry":{"type":"LineString","coordinates":[[29.9250154,-3.4318715],[29.9252195,-3.4317739],[29.9254278,-3.4316961],[29.9256956,-3.4316183],[29.9257552,-3.4316254],[29.9257991,-3.4316607],[29.9259139,-3.4319705],[29.9259833,-3.4321756],[29.9259748,-3.4322039],[29.9259365,-3.4322407],[29.9255624,-3.4323737],[29.9252308,-3.4324996],[29.9251911,-3.4324416],[29.9251401,-3.4322945],[29.9250792,-3.4321389],[29.9250296,-3.432013],[29.9250154,-3.4318715]]},"properties":{"amenity":"marketplace","name":"Marché de Gitega","name:fr":"Marché de Gitega","opening_hours":"07:00-18:00","source":"Enquête"}},
{"type":"Feature","geometry":{"type":"LineString","coordinates":[[29.3540768,-3.4234933],[29.3539319,-3.4236004],[29.3539078,-3.423678],[29.3540017,-3.4237905],[29.3541465,-3.4239003],[29.3542664,-3.4238712],[29.3543898,-3.4237025],[29.3544407,-3.423657],[29.3545837,-3.4237128],[29.3546419,-3.4237159],[29.3546669,-3.4236165],[29.3545676,-3.4235174],[29.3544201,-3.4234772],[29.3543174,-3.4234401],[29.3540768,-3.4234933]]},"properties":{"amenity":"marketplace","name":"GISYO MARKET","source":"OPEN SOURCE SOCIETY BURUNDI"}},
{"type":"Feature","geometry":{"type":"LineString","coordinates":[[29.3605998,-3.4307303],[29.3605461,-3.4307919],[29.360353,-3.4317103],[29.360294,-3.4320101],[29.3606615,-3.4322859],[29.3612455,-3.4315393],[29.3613535,-3.4313917],[29.3605998,-3.4307303]]},"properties":{"amenity":"marketplace","name":"KANYOSHA MARKET","source":"OPEN SOURCE SOCIETY BURUNDI"}},
{"type":"Feature","geometry":{"type":"LineString","coordinates":[[29.8703278,-3.9590984],[29.8703859,-3.959266],[29.8702652,-3.9593113],[29.8699951,-3.9593358],[29.8697629,-3.9593871],[29.8695403,-3.9594445],[29.8695161,-3.9593666],[29.8698622,-3.9592592],[29.8699718,-3.9592184],[29.8703278,-3.9590984]]},"properties":{"amenity":"marketplace"}},
{"type":"Feature","geometry":{"type":"LineString","coordinates":[[29.3665479,-3.360123],[29.3665948,-3.3604998],[29.3657792,-3.3606011],[29.3657322,-3.3602242],[29.3658182,-3.3602136],[29.3665479,-3.360123]]},"properties":{"amenity":"marketplace"}},
{"type":"Feature","geometry":{"type":"LineString","coordinates":[[29.36676,-3.3605431],[29.3668082,-3.3609126],[29.3670496,-3.3608858],[29.3670349,-3.3608537],[29.3673527,-3.3607787],[29.3673232,-3.3604681],[29.36676,-3.3605431]]},"properties":{"amenity":"marketplace"}},
{"type":"Feature","geometry":{"type":"LineString","coordinates":[[29.6263436,-3.8326312],[29.6264203,-3.8326185],[29.6264586,-3.832746],[29.6263905,-3.83278],[29.6263436,-3.8326312]]},"properties":{"addr:city":"Rumeza","building":"yes","name":"Magasin","operator":"Les Soeurs","shop":"yes"}},
{"type":"Feature","geometry":{"type":"LineString","coordinates":[[29.6026141,-4.336545],[29.603244,-4.3366157],[29.603075,-4.3376656],[29.6025842,-4.3375997],[29.6024939,-4.3375523],[29.6024836,-4.3375505],[29.6026141,-4.336545]]},"properties":{"amenity":"marketplace"}},
{"type":"Feature","geometry":{"type":"MultiPolygon","coordinates":[[[[29.3539259,-3.3729254],[29.3539499,-3.373315],[29.353971,-3.3735566],[29.3551927,-3.3733901],[29.3551678,-3.373171],[29.3559697,-3.3731013],[29.3559291,-3.3727279],[29.3549738,-3.3728181],[29.3539259,-3.3729254]]]]},"properties":{"amenity":"marketplace","building":"commercial","name":"Marché de Buyenzi","source":"Open Source Society Bur"}},
{"type":"Feature","geometry":{"type":"MultiPolygon","coordinates":[[[[29.7014815,-3.2821677],[29.7016734,-3.2821594],[29.7018792,-3.2821539],[29.7021155,-3.28214],[29.7023046,-3.2821067],[29.7021711,-3.281693],[29.7020599,-3.2812627],[29.7019765,-3.2809213],[29.7017568,-3.2809463],[29.7016623,-3.2813793],[29.7015177,-3.2819762],[29.7014815,-3.2821677]]]]},"properties":{"amenity":"marketplace"}},
{"type":"Feature","geometry":{"type":"MultiPolygon","coordinates":[[[[30.3378136,-2.8460272],[30.3383001,-2.8467124],[30.3392903,-2.846011],[30.3388037,-2.8453258],[30.3378136,-2.8460272]]]]},"properties":{"access":"permissive","amenity":"marketplace","barrier":"wall","name":"Marché Central MUYINGA","project:eurosha_2012":"yes","source":"Enquête"}},
{"type":"Feature","geometry":{"type":"MultiPolygon","coordinates":[[[[29.924158,-3.430861],[29.9241683,-3.4309021],[29.9241881,-3.4309501],[29.9242006,-3.4309863],[29.9242833,-3.431225],[29.9243111,-3.4313051],[29.9244485,-3.4317016],[29.9244592,-3.4317323],[29.9244707,-3.4317654],[29.9244839,-3.4318036],[29.9245204,-3.4318354],[29.9245627,-3.4318602],[29.9246139,-3.4318534],[29.9246315,-3.4318491],[29.9246663,-3.4318406],[29.9246747,-3.4318375],[29.9247031,-3.4318272],[29.9247785,-3.4317997],[29.9249381,-3.4317414999999999],[29.9249567,-3.4317347],[29.9251196,-3.4316753],[29.925133,-3.4316704],[29.9251801,-3.4316555],[29.9255282,-3.4315301],[29.9255415,-3.4315253],[29.9255843,-3.4315099],[29.9256417,-3.4314892],[29.9256743,-3.4314643],[29.9256915,-3.4314292],[29.9256979,-3.4313851],[29.925379,-3.4304778],[29.9253532,-3.4304444],[29.9253189,-3.4304256],[29.925257,-3.4304204],[29.9251628,-3.4304313],[29.9247067,-3.4305396],[29.9242472,-3.4306777],[29.9242115,-3.4307306],[29.9241987,-3.4307532],[29.9241584,-3.4308123],[29.924158,-3.430861]]]]},"properties":{"amenity":"marketplace","name":"Marché Central de Gitega","name:fr":"Marché Centrale de Gitega","source":"Enquête"}},
{"type":"Feature","geometry":{"type":"MultiPolygon","coordinates":[[[[29.9250154,-3.4318715],[29.9250296,-3.432013],[29.9250792,-3.4321389],[29.9251401,-3.4322945],[29.9251911,-3.4324416],[29.9252308,-3.4324996],[29.9255624,-3.4323737],[29.9259365,-3.4322407],[29.9259748,-3.4322039],[29.9259833,-3.4321756],[29.9259139,-3.4319705],[29.9257991,-3.4316607],[29.9257552,-3.4316254],[29.9256956,-3.4316183],[29.9254278,-3.4316961],[29.9252195,-3.4317739],[29.9250154,-3.4318715]]]]},"properties":{"amenity":"marketplace","name":"Marché de Gitega","name:fr":"Marché de Gitega","opening_hours":"07:00-18:00","source":"Enquête"}},
{"type":"Feature","geometry":{"type":"MultiPolygon","coordinates":[[[[29.3539078,-3.423678],[29.3540017,-3.4237905],[29.3541465,-3.4239003],[29.3542664,-3.4238712],[29.3543898,-3.4237025],[29.3544407,-3.423657],[29.3545837,-3.4237128],[29.3546419,-3.4237159],[29.3546669,-3.4236165],[29.3545676,-3.4235174],[29.3544201,-3.4234772],[29.3543174,-3.4234401],[29.3540768,-3.4234933],[29.3539319,-3.4236004],[29.3539078,-3.423678]]]]},"properties":{"amenity":"marketplace","name":"GISYO MARKET","source":"OPEN SOURCE SOCIETY BURUNDI"}},
{"type":"Feature","geometry":{"type":"MultiPolygon","coordinates":[[[[29.360294,-3.4320101],[29.3606615,-3.4322859],[29.3612455,-3.4315393],[29.3613535,-3.4313917],[29.3605998,-3.4307303],[29.3605461,-3.4307919],[29.360353,-3.4317103],[29.360294,-3.4320101]]]]},"properties":{"amenity":"marketplace","name":"KANYOSHA MARKET","source":"OPEN SOURCE SOCIETY BURUNDI"}},
{"type":"Feature","geometry":{"type":"MultiPolygon","coordinates":[[[[29.8695161,-3.9593666],[29.8695403,-3.9594445],[29.8697629,-3.9593871],[29.8699951,-3.9593358],[29.8702652,-3.9593113],[29.8703859,-3.959266],[29.8703278,-3.9590984],[29.8699718,-3.9592184],[29.8698622,-3.9592592],[29.8695161,-3.9593666]]]]},"properties":{"amenity":"marketplace"}},
{"type":"Feature","geometry":{"type":"MultiPolygon","coordinates":[[[[29.3657322,-3.3602242],[29.3657792,-3.3606011],[29.3665948,-3.3604998],[29.3665479,-3.360123],[29.3658182,-3.3602136],[29.3657322,-3.3602242]]]]},"properties":{"amenity":"marketplace"}},
{"type":"Feature","geometry":{"type":"MultiPolygon","coordinates":[[[[29.36676,-3.3605431],[29.3668082,-3.3609126],[29.3670496,-3.3608858],[29.3670349,-3.3608537],[29.3673527,-3.3607787],[29.3673232,-3.3604681],[29.36676,-3.3605431]]]]},"properties":{"amenity":"marketplace"}},
{"type":"Feature","geometry":{"type":"MultiPolygon","coordinates":[[[[29.6262674,-3.8326346],[29.6262846,-3.8327348],[29.6263247,-3.8328263],[29.626362,-3.8328492],[29.6264366,-3.8328206],[29.6265456,-3.8328235],[29.6267291,-3.8327662],[29.6267389,-3.8327896],[29.6269705,-3.8327249],[29.6270429,-3.8326782],[29.6270548,-3.8326915],[29.6270786,-3.8326821],[29.6271089,-3.832653],[29.6272138,-3.8325974],[29.6273519,-3.8325394],[29.627411,-3.8324816],[29.6274244,-3.8324417],[29.6273924,-3.8323748],[29.6272826,-3.8323027],[29.6271909,-3.8322826],[29.627036,-3.8321911],[29.6267004,-3.8323055],[29.6265456,-3.8323456],[29.6263907,-3.8324343],[29.6263276,-3.8325173],[29.6262674,-3.8326346]],[[29.6263436,-3.8326312],[29.6264203,-3.8326185],[29.6264586,-3.832746],[29.6263905,-3.83278],[29.6263436,-3.8326312]]]]},"properties":{"addr:city":"Rumeza","amenity":"marketplace","name":"Home des Soeurs"}},
{"type":"Feature","geometry":{"type":"MultiPolygon","coordinates":[[[[29.6263436,-3.8326312],[29.6263905,-3.83278],[29.6264586,-3.832746],[29.6264203,-3.8326185],[29.6263436,-3.8326312]]]]},"properties":{"addr:city":"Rumeza","building":"yes","name":"Magasin","operator":"Les Soeurs","shop":"yes"}},
{"type":"Feature","geometry":{"type":"MultiPolygon","coordinates":[[[[29.6024836,-4.3375505],[29.6024939,-4.3375523],[29.6025842,-4.3375997],[29.603075,-4.3376656],[29.603244,-4.3366157],[29.6026141,-4.336545],[29.6024836,-4.3375505]]]]},"properties":{"amenity":"marketplace"}}
]}
