{"type":"FeatureCollection","features":[
{"type":"Feature","geometry":{"type":"Point","coordinates":[26.1813089,-20.2101984]},"properties":{"amenity":"toilets"}},
{"type":"Feature","geometry":{"type":"Point","coordinates":[21.6488578,-21.6946964]},"properties":{"shop":"supermarket"}},
{"type":"Feature","geometry":{"type":"Point","coordinates":[21.654395,-21.737601]},"properties":{"name":"Thakadu Farm Stall","shop":"butcher"}},
{"type":"Feature","geometry":{"type":"Point","coordinates":[25.9061775,-24.6748568]},"properties":{"name":"Jumbo","name:en":"Jumbo","shop":"supermarket"}},
{"type":"Feature","geometry":{"type":"Point","coordinates":[26.8336716,-23.1133621]},"properties":{"name":"Spar","shop":"supermarket"}},
{"type":"Feature","geometry":{"type":"Point","coordinates":[25.6833787,-25.2290883]},"properties":{"name":"Supermarket","shop":"convenience"}},
{"type":"Feature","geometry":{"type":"Point","coordinates":[25.2662407,-20.1900627]},"properties":{"name":"Small Shop","shop":"supermarket"}},
{"type":"Feature","geometry":{"type":"Point","coordinates":[25.2582704,-20.2071005]},"properties":{"name":"Saverite","shop":"supermarket"}},
{"type":"Feature","geometry":{"type":"Point","coordinates":[25.5792689,-21.4121509]},"properties":{"name":"Choppies","shop":"supermarket"}},
{"type":"Feature","geometry":{"type":"Point","coordinates":[25.8856064,-24.6438176]},"properties":{"name":"Pick n Pay","shop":"supermarket"}},
{"type":"Feature","geometry":{"type":"Point","coordinates":[25.8936774,-24.6375346]},"properties":{"name":"Choppies Hyper Supermarket","shop":"supermarket"}},
{"type":"Feature","geometry":{"type":"Point","coordinates":[25.513997,-24.4078721]},"properties":{"name":"Supermarkt","shop":"supermarket"}},
{"type":"Feature","geometry":{"type":"Point","coordinates":[21.8458293,-18.3674606]},"properties":{"addr:city":"Shakawe","name":"Choppies","operator":"Choppies","shop":"supermarket"}},
{"type":"Feature","geometry":{"type":"Point","coordinates":[25.1476427,-17.8049945]},"properties":{"name":"Choppies","shop":"supermarket"}},
{"type":"Feature","geometry":{"type":"Point","coordinates":[22.4006229,-26.0246258]},"properties":{"shop":"convenience"}},
{"type":"Feature","geometry":{"type":"Point","coordinates":[23.4177005,-19.987567]},"properties":{"name":"Delta Store","shop":"supermarket"}},
{"type":"Feature","geometry":{"type":"Point","coordinates":[21.368947,-26.2840632]},"properties":{"name":"Co-op","shop":"convenience"}},
{"type":"Feature","geometry":{"type":"Point","coordinates":[27.5290608,-21.1823956]},"properties":{"brand":"Choppies","brand:wikidata":"Q5104860","name":"Choppies","opening_hours":"Sa-Su 08:00-20:00","shop":"supermarket"}},
{"type":"Feature","geometry":{"type":"Point","coordinates":[25.9011215,-24.6052076]},"properties":{"name":"Zebra Mall","shop":"supermarket"}},
{"type":"Feature","geometry":{"type":"Point","coordinates":[24.4051724,-21.03245]},"properties":{"designation":"General Dealer","name":"D.D. Complex/General Dealer","shop":"convenience"}},
{"type":"Feature","geometry":{"type":"Point","coordinates":[24.4098636,-21.0370988]},"properties":{"designation":"General Dealer","name":"Nengu Complex","shop":"convenience"}},
{"type":"Feature","geometry":{"type":"Point","coordinates":[24.4115694,-21.038731]},"properties":{"designation":"General Dealer and Restaurant","name":"GOBE Investments","shop":"convenience"}},
{"type":"Feature","geometry":{"type":"Point","coordinates":[24.4065912,-21.035434]},"properties":{"designation":"General Dealer","name":"R.A. Bailey","shop":"convenience"}},
{"type":"Feature","geometry":{"type":"Point","coordinates":[24.4022836,-21.030407]},"properties":{"name":"Engliton Investment","shop":"butcher"}},
{"type":"Feature","geometry":{"type":"Point","coordinates":[24.41121,-21.0445664]},"properties":{"name":"Tsienyane Bakery","shop":"bakery"}},
{"type":"Feature","geometry":{"type":"Point","coordinates":[24.4115801,-21.0387836]},"properties":{"name":"GOBE Investments","shop":"butcher"}},
{"type":"Feature","geometry":{"type":"Point","coordinates":[24.4051562,-21.0324073]},"properties":{"name":"D.D. General Dealer (butchery)","shop":"butcher"}},
{"type":"Feature","geometry":{"type":"Point","coordinates":[24.4020556,-21.030427]},"properties":{"name":"Engliton Investment General Dealer & Fresh Produce","shop":"convenience"}},
{"type":"Feature","geometry":{"type":"Point","coordinates":[21.8436946,-18.3610183]},"properties":{"addr:city":"Shakawe","name":"Legae Supermarket","shop":"convenience"}},
{"type":"Feature","geometry":{"type":"Point","coordinates":[25.5394676,-24.6796327]},"properties":{"name":"Sefalana","shop":"supermarket"}},
{"type":"Feature","geometry":{"type":"Point","coordinates":[25.5411681,-24.6797911]},"properties":{"name":"Choppies Supermarket","shop":"supermarket"}},
{"type":"Feature","geometry":{"type":"Point","coordinates":[25.5463555,-24.6718772]},"properties":{"name":"Bagahgatla Market","shop":"convenience"}},
{"type":"Feature","geometry":{"type":"Point","coordinates":[25.8621306,-24.8654368]},"properties":{"brand":"Choppies","brand:wikidata":"Q5104860","name":"Choppies","opening_hours":"8:30 - 20:00","shop":"supermarket"}},
{"type":"Feature","geometry":{"type":"Point","coordinates":[27.4455506,-20.6265834]},"properties":{"name":"Choppies","shop":"supermarket"}},
{"type":"Feature","geometry":{"type":"Point","coordinates":[23.4317999,-19.9775985]},"properties":{"brand":"Woolworths","name":"Woolworths","opening_hours":"Mo-Fr 09:00-18:00; Sa 08:00-17:00; Su 08:00-15:00","shop":"supermarket"}},
{"type":"Feature","geometry":{"type":"Point","coordinates":[25.1633735,-24.6626462]},"properties":{"name":"Ralekgetho General Store","name:tn":"Bentlele","shop":"convenience"}},
{"type":"Feature","geometry":{"type":"Point","coordinates":[27.4884058,-23.1882324]},"properties":{"name":"Len's Shop General Dealer","shop":"supermarket"}},
{"type":"Feature","geometry":{"type":"Point","coordinates":[27.9613905,-22.1861337]},"properties":{"name":"Save-Rite","shop":"supermarket"}},
{"type":"Feature","geometry":{"type":"Point","coordinates":[21.6497379,-21.6937883]},"properties":{"name":"Shoppers Supermarket","shop":"supermarket"}},
{"type":"Feature","geometry":{"type":"Point","coordinates":[25.1478138,-17.8048291]},"properties":{"name":"Butchery","shop":"butcher"}},
{"type":"Feature","geometry":{"type":"Point","coordinates":[25.1523857,-17.7961745]},"properties":{"name":"Woolworth","shop":"supermarket"}},
{"type":"Feature","geometry":{"type":"Point","coordinates":[25.8873473,-24.659338]},"properties":{"name":"Choppies supermarket","shop":"supermarket"}},
{"type":"Feature","geometry":{"type":"Point","coordinates":[25.9317995,-24.6620952]},"properties":{"shop":"convenience"}},
{"type":"Feature","geometry":{"type":"Point","coordinates":[25.8801531,-24.6405534]},"properties":{"name":"Choppies","name:en":"Choppies","shop":"supermarket"}},
{"type":"Feature","geometry":{"type":"Point","coordinates":[26.74547,-22.4210606]},"properties":{"name":"Spar","shop":"supermarket"}},
{"type":"Feature","geometry":{"type":"Point","coordinates":[21.7985102,-23.9986517]},"properties":{"name":"Sefalana","shop":"supermarket"}},
{"type":"Feature","geometry":{"type":"Point","coordinates":[27.8698953,-21.9602753]},"properties":{"name":"Mmajoe's Shop 1","shop":"supermarket"}},
{"type":"Feature","geometry":{"type":"Point","coordinates":[25.0296988,-24.1011038]},"properties":{"addr:street":"Letlhakeng","name":"Choppies Superstore","opening_hours":"Mo-Su 08:00-22:00","shop":"supermarket"}},
{"type":"Feature","geometry":{"type":"Point","coordinates":[25.9108674,-24.6829007]},"properties":{"addr:street":"Samora Machel Drive","brand":"Choppies","brand:wikidata":"Q5104860","name":"Choppies","shop":"supermarket"}},
{"type":"Feature","geometry":{"type":"Point","coordinates":[25.9041141,-24.6750057]},"properties":{"addr:street":"Haile Selassie Road","name":"Shield Electrical suppliers","shop":"convenience"}},
{"type":"Feature","geometry":{"type":"Point","coordinates":[27.0959391,-22.5303028]},"properties":{"name":"safalana","shop":"supermarket"}},
{"type":"Feature","geometry":{"type":"Point","coordinates":[27.0882343,-22.5430591]},"properties":{"brand":"Spar","brand:wikidata":"Q610492","brand:wikipedia":"en:Spar (retailer)","name":"Spar","shop":"supermarket"}},
{"type":"Feature","geometry":{"type":"Point","coordinates":[26.7029138,-22.3902465]},"properties":{"brand":"Shoprite","brand:wikidata":"Q1857639","brand:wikipedia":"en:Shoprite (South Africa)","name":"Shoprite","shop":"supermarket"}},
{"type":"Feature","geometry":{"type":"Point","coordinates":[26.7042219,-22.388121]},"properties":{"name":"Choppies","shop":"supermarket"}},
{"type":"Feature","geometry":{"type":"Point","coordinates":[26.7037172,-22.3884017]},"properties":{"brand":"Spar","brand:wikidata":"Q610492","brand:wikipedia":"en:Spar (retailer)","name":"Spar","shop":"supermarket"}},
{"type":"Feature","geometry":{"type":"Point","coordinates":[25.9212629,-24.6660171]},"properties":{"name":"Pop-Inn","shop":"supermarket"}},
{"type":"Feature","geometry":{"type":"Point","coordinates":[25.9820828,-24.6639124]},"properties":{"name":"Border Gate Mall","operator":"Choppies","shop":"supermarket"}},
{"type":"Feature","geometry":{"type":"Point","coordinates":[26.1456096,-24.3914911]},"properties":{"name":"Shoppers","shop":"supermarket"}},
{"type":"Feature","geometry":{"type":"Point","coordinates":[26.1412904,-24.3932021]},"properties":{"addr:street":"kgafela rd","name":"choppies","shop":"supermarket"}},
{"type":"Feature","geometry":{"type":"Point","coordinates":[25.4972358,-24.4084338]},"properties":{"name":"Choppies","shop":"supermarket"}},
{"type":"Feature","geometry":{"type":"Point","coordinates":[25.8839642,-24.6827689]},"properties":{"addr:housenumber":"15065","addr:street":"Mokukumelo Road","email":"admin@galenia.co.bw","internet_access":"wlan","name":"Galenia Investments","name:en":"Galenia Investments","opening_hours":"Mo-Fr 08:00-05:00","operator":"Mr A Ford","phone":"3930799","shop":"convenience","website":"http://www.galenia.co.bw"}},
{"type":"Feature","geometry":{"type":"Point","coordinates":[27.4718576,-21.2857214]},"properties":{"name":"Tati Siding Supermarket","shop":"convenience"}},
{"type":"Feature","geometry":{"type":"Point","coordinates":[23.4316151,-19.9770941]},"properties":{"email":"schalkpretorius@gmail.com","name":"Beef Boys","opening_hours":"Mo-Fr 09:00-18:00; Sa 09:00-15:00","shop":"butcher"}},
{"type":"Feature","geometry":{"type":"Point","coordinates":[26.20043,-20.2213982]},"properties":{"name":"A Confectionery","name:en":"A Confectionery","shop":"bakery"}},
{"type":"Feature","geometry":{"type":"Point","coordinates":[27.5109936,-21.1703902]},"properties":{"brand":"Spar","brand:wikidata":"Q610492","brand:wikipedia":"en:Spar (retailer)","name":"Spar","name:en":"Spar","operator":"Tsetseng Group","shop":"supermarket"}},
{"type":"Feature","geometry":{"type":"Point","coordinates":[27.5086391,-21.1631496]},"properties":{"brand":"Choppies","brand:wikidata":"Q5104860","name":"Choppies","name:en":"Choppies","shop":"supermarket"}},
{"type":"Feature","geometry":{"type":"Point","coordinates":[27.5092821,-21.162159]},"properties":{"shop":"convenience"}},
{"type":"Feature","geometry":{"type":"Point","coordinates":[27.5122611,-21.1685167]},"properties":{"brand":"Choppies","brand:wikidata":"Q5104860","name":"Choppies","name:en":"Choppie","shop":"supermarket"}},
{"type":"Feature","geometry":{"type":"Point","coordinates":[27.5318681,-21.1814294]},"properties":{"name":"Sefalana","name:en":"Sefalana","shop":"supermarket"}},
{"type":"Feature","geometry":{"type":"Point","coordinates":[27.5379475,-21.188295]},"properties":{"name":"AMA Chick Chick","name:en":"AMA Chick Chick","shop":"butcher"}},
{"type":"Feature","geometry":{"type":"Point","coordinates":[27.5119183,-21.1713688]},"properties":{"brand":"Shoprite","brand:wikidata":"Q1857639","name":"Shoprite","name:en":"Shoprite","shop":"supermarket"}},
{"type":"Feature","geometry":{"type":"Point","coordinates":[27.5335452,-21.185154]},"properties":{"brand":"Spar","brand:wikidata":"Q610492","brand:wikipedia":"en:Spar (retailer)","name":"Spar","name:en":"SuperSpar","shop":"supermarket"}},
{"type":"Feature","geometry":{"type":"Point","coordinates":[27.1024682,-22.5444753]},"properties":{"name":"Tau Meat Market","name:en":"Tau Meat Market","shop":"butcher"}},
{"type":"Feature","geometry":{"type":"Point","coordinates":[27.5291225,-21.1820128]},"properties":{"shop":"butcher"}},
{"type":"Feature","geometry":{"type":"Point","coordinates":[27.4530918,-21.4067819]},"properties":{"shop":"bakery"}},
{"type":"Feature","geometry":{"type":"Point","coordinates":[27.1340141,-22.5560554]},"properties":{"brand":"Spar","brand:wikidata":"Q610492","brand:wikipedia":"en:Spar (retailer)","name":"Spar","name:en":"Spar","shop":"supermarket"}},
{"type":"Feature","geometry":{"type":"Point","coordinates":[27.5209797,-21.1771319]},"properties":{"shop":"butcher"}},
{"type":"Feature","geometry":{"type":"Point","coordinates":[27.4950054,-21.1707876]},"properties":{"brand":"Choppies","brand:wikidata":"Q5104860","name":"Choppies","name:en":"Choppie","shop":"supermarket"}},
{"type":"Feature","geometry":{"type":"Point","coordinates":[27.0863054,-22.5426063]},"properties":{"name":"Choppie","name:en":"Choppie","shop":"supermarket"}},
{"type":"Feature","geometry":{"type":"Point","coordinates":[26.8305595,-23.1138942]},"properties":{"name":"Tuck Shop","name:en":"Tuck Shop","shop":"convenience"}},
{"type":"Feature","geometry":{"type":"Point","coordinates":[25.9186252,-24.6148004]},"properties":{"name":"Sefalana Hyper","name:en":"Sefalana Hyper","shop":"supermarket"}},
{"type":"Feature","geometry":{"type":"Point","coordinates":[25.9056617,-24.5977798]},"properties":{"name":"Choppie","name:en":"Choppie","shop":"supermarket"}},
{"type":"Feature","geometry":{"type":"Point","coordinates":[25.9332499,-24.6075852]},"properties":{"brand":"Choppies","brand:wikidata":"Q5104860","name":"Choppies","name:en":"Choppies","shop":"supermarket"}},
{"type":"Feature","geometry":{"type":"Point","coordinates":[25.8644263,-24.6341886]},"properties":{"name":"Choppie","name:en":"Choppie","shop":"supermarket"}},
{"type":"Feature","geometry":{"type":"Point","coordinates":[25.9258252,-24.6039135]},"properties":{"name":"Super Spar","name:en":"Super Spar","shop":"supermarket"}},
{"type":"Feature","geometry":{"type":"Point","coordinates":[25.9313406,-24.6059014]},"properties":{"name":"Pick'n'Pay","name:en":"Pick'n'Pay","shop":"supermarket"}},
{"type":"Feature","geometry":{"type":"Point","coordinates":[25.9314944,-24.6057081]},"properties":{"name":"That Biltong Shop","name:en":"That Biltong Shop","shop":"butcher"}},
{"type":"Feature","geometry":{"type":"Point","coordinates":[25.8848713,-24.6818982]},"properties":{"name":"Shoprite","name:en":"Shoprite","shop":"supermarket"}},
{"type":"Feature","geometry":{"type":"Point","coordinates":[27.5093207,-21.1634827]},"properties":{"name":"Jumbo Express","name:en":"Jumbo Express","shop":"supermarket"}},
{"type":"Feature","geometry":{"type":"Point","coordinates":[25.9187561,-24.633007]},"properties":{"name":"Sefalana","name:en":"Sefalana","shop":"supermarket"}},
{"type":"Feature","geometry":{"type":"Point","coordinates":[25.973757,-24.5698833]},"properties":{"addr:street":"Mowana Shopping Centre","name":"Choppies","name:en":"Choppies","shop":"supermarket"}},
{"type":"Feature","geometry":{"type":"Point","coordinates":[25.901486,-24.6592729]},"properties":{"name":"SupaSave","name:en":"SupaSave","shop":"supermarket"}},
{"type":"Feature","geometry":{"type":"Point","coordinates":[25.9185797,-24.6267205]},"properties":{"shop":"bakery"}},
{"type":"Feature","geometry":{"type":"Point","coordinates":[25.9384741,-24.6079576]},"properties":{"name":"Tuck Shop","name:en":"Tuck Shop","shop":"convenience"}},
{"type":"Feature","geometry":{"type":"Point","coordinates":[25.9011829,-24.6055767]},"properties":{"name":"Odessa Butchery","name:en":"Odessa Butchery","shop":"butcher"}},
{"type":"Feature","geometry":{"type":"Point","coordinates":[25.904464,-24.6438204]},"properties":{"shop":"convenience"}},
{"type":"Feature","geometry":{"type":"Point","coordinates":[25.9546204,-24.6680708]},"properties":{"name":"Sefalana","name:en":"Sefalana","shop":"supermarket"}},
{"type":"Feature","geometry":{"type":"Point","coordinates":[25.9778758,-24.6581906]},"properties":{"shop":"convenience"}},
{"type":"Feature","geometry":{"type":"Point","coordinates":[25.9409404,-24.6676399]},"properties":{"shop":"bakery"}},
{"type":"Feature","geometry":{"type":"Point","coordinates":[25.9163492,-24.6297745]},"properties":{"name":"Supa Market","name:en":"Supa Market","shop":"supermarket"}},
{"type":"Feature","geometry":{"type":"Point","coordinates":[25.9204243,-24.6426238]},"properties":{"name":"Choppies","name:en":"Choppies","shop":"supermarket"}},
{"type":"Feature","geometry":{"type":"Point","coordinates":[23.4261761,-19.9879711]},"properties":{"name":"Delta Deli","shop":"butcher"}},
{"type":"Feature","geometry":{"type":"Point","coordinates":[23.4197719,-19.9899787]},"properties":{"name":"Lion Paw","shop":"butcher"}},
{"type":"Feature","geometry":{"type":"Point","coordinates":[23.4335676,-20.0091625]},"properties":{"brand":"Choppies","brand:wikidata":"Q5104860","name":"Choppies","shop":"supermarket"}},
{"type":"Feature","geometry":{"type":"Point","coordinates":[23.432859,-20.0133878]},"properties":{"name":"Woodsmoke","shop":"farm"}},
{"type":"Feature","geometry":{"type":"Point","coordinates":[25.9164684,-24.6583777]},"properties":{"brand":"Spar","brand:wikidata":"Q610492","internet_access":"wlan","name":"Spar","name:en":"Spar","shop":"supermarket"}},
{"type":"Feature","geometry":{"type":"Point","coordinates":[26.1948436,-20.2183652]},"properties":{"name":"Choppies","name:en":"Choppies","shop":"supermarket"}},
{"type":"Feature","geometry":{"type":"Point","coordinates":[25.3408704,-24.9816249]},"properties":{"name":"Choppies Supermarket","operator":"Choppies Group","shop":"supermarket"}},
{"type":"Feature","geometry":{"type":"Point","coordinates":[25.3425692,-24.9814003]},"properties":{"addr:city":"Kanye","addr:housenumber":"Tribal Lot 6602","addr:street":"Sir Seretse Khama Highway","name":"Spar Supermarket","operator":"Spar","phone":"002675480362","shop":"supermarket","source":"kanye@spar.co.bw"}},
{"type":"Feature","geometry":{"type":"Point","coordinates":[25.3392799,-24.9803262]},"properties":{"addr:city":"Kanye","addr:street":"Sir Seretse Khama Highway","name":"Shoppers Supermarket","operator":"Sefalana Group","shop":"supermarket"}},
{"type":"Feature","geometry":{"type":"Point","coordinates":[25.335917,-24.9791335]},"properties":{"addr:city":"Kanye","addr:street":"Sir Seretse Khama Highway","name":"Farm Style Butchery","operator":"Farm Style Butchery","shop":"butcher"}},
{"type":"Feature","geometry":{"type":"Point","coordinates":[26.3216892,-24.0163805]},"properties":{"name":"Artisia shops","name:en":"Artisia shops","shop":"convenience"}},
{"type":"Feature","geometry":{"type":"Point","coordinates":[22.1645209,-19.3707367]},"properties":{"name":"Saverite","name:en":"Saverite","shop":"supermarket","source":"NMP HOT Field Survey"}},
{"type":"Feature","geometry":{"type":"Point","coordinates":[22.1634279,-19.3712892]},"properties":{"name":"Cooperative","name:en":"Cooperative","shop":"supermarket","source":"NMP HOT Field Survey"}},
{"type":"Feature","geometry":{"type":"Point","coordinates":[23.4236074,-19.9871459]},"properties":{"brand":"Tops","brand:wikidata":"Q7825137","brand:wikipedia":"en:Tops Friendly Markets","name":"Tops","official_name":"Tops Friendly Markets","shop":"supermarket"}},
{"type":"Feature","geometry":{"type":"Point","coordinates":[25.6894452,-25.2036094]},"properties":{"name":"Masalapula","name:en":"Masalapula","shop":"supermarket"}},
{"type":"Feature","geometry":{"type":"Point","coordinates":[25.6725307,-25.2171455]},"properties":{"name":"Trans","name:en":"Trans","shop":"supermarket"}},
{"type":"Feature","geometry":{"type":"Point","coordinates":[25.6778784,-25.2215976]},"properties":{"name":"Sefalana","name:en":"Sefalana","shop":"supermarket"}},
{"type":"Feature","geometry":{"type":"Point","coordinates":[25.6706017,-25.2239903]},"properties":{"name":"Pick and Pay","name:en":"Pick and Pay","shop":"supermarket"}},
{"type":"Feature","geometry":{"type":"Point","coordinates":[25.6736779,-25.2159298]},"properties":{"name":"Choppies","name:en":"Choppies","shop":"supermarket"}},
{"type":"Feature","geometry":{"type":"Point","coordinates":[25.9347305,-24.6286844]},"properties":{"name":"Spar Supermarket","name:en":"Spar Supermarket","shop":"supermarket"}},
{"type":"Feature","geometry":{"type":"Point","coordinates":[25.9205289,-24.6427883]},"properties":{"name":"Choppies Supermarket","name:en":"Choppies Supermarket","shop":"supermarket"}},
{"type":"Feature","geometry":{"type":"Point","coordinates":[23.493756,-19.9501125]},"properties":{"name":"Thamalakane Chickens","shop":"farm"}},
{"type":"Feature","geometry":{"type":"Point","coordinates":[26.8341596,-23.1124616]},"properties":{"name":"Choppies Naivasha","shop":"supermarket"}},
{"type":"Feature","geometry":{"type":"Point","coordinates":[26.8451602,-23.0957422]},"properties":{"name":"Choppies Enchanted Oaks","shop":"supermarket"}},
{"type":"Feature","geometry":{"type":"Point","coordinates":[23.4304093,-19.9770473]},"properties":{"name":"Kalahari Meat Deli","shop":"butcher"}},
{"type":"Feature","geometry":{"type":"Point","coordinates":[25.5140694,-24.408631]},"properties":{"name":"Choppies","name:en":"Choppies","shop":"supermarket"}},
{"type":"Feature","geometry":{"type":"Point","coordinates":[23.4346029,-19.9997659]},"properties":{"name":"Matlapana Holdings Butchery","shop":"butcher"}},
{"type":"Feature","geometry":{"type":"Point","coordinates":[23.4339418,-20.0098781]},"properties":{"name":"Greenland Butchery","shop":"butcher"}},
{"type":"Feature","geometry":{"type":"Point","coordinates":[25.9179584,-24.6317262]},"properties":{"name":"RB's Cash & Carry","opening_hours":"Mo-Su 08:00-17:30","shop":"convenience"}},
{"type":"Feature","geometry":{"type":"Point","coordinates":[25.9123018,-24.6702423]},"properties":{"name":"Payless","name:en":"Payless","opening_hours":"Mo-Su 08:00-20:00","shop":"supermarket"}},
{"type":"Feature","geometry":{"type":"Point","coordinates":[25.8445948,-24.5873225]},"properties":{"name":"SOAGO5","shop":"bakery"}},
{"type":"Feature","geometry":{"type":"Point","coordinates":[25.945617,-24.6555929]},"properties":{"name":"BDF recreation shop","name:en":"BDF recreation shop","shop":"supermarket"}},
{"type":"Feature","geometry":{"type":"Point","coordinates":[23.410976,-19.9865095]},"properties":{"name":"MF Butchery & General Dealer","shop":"butcher"}},
{"type":"Feature","geometry":{"type":"Point","coordinates":[25.8878805,-24.6602322]},"properties":{"name":"Shoppers supermarket","shop":"supermarket"}},
{"type":"Feature","geometry":{"type":"Point","coordinates":[27.5116494,-21.168365]},"properties":{"addr:street":"Blue jacket","branch":"Francistown 2","name":"Pick n Pay","operator":"Pick n Pay","shop":"supermarket"}},
{"type":"Feature","geometry":{"type":"Point","coordinates":[27.4915862,-21.1627591]},"properties":{"name":"Airport Tuckshops","name:en":"Airport Tuckshops","shop":"convenience"}},
{"type":"Feature","geometry":{"type":"Point","coordinates":[27.5254424,-22.8794266]},"properties":{"name":"The Centre Complex","shop":"supermarket"}},
{"type":"Feature","geometry":{"type":"Point","coordinates":[23.437362,-19.9929157]},"properties":{"name":"Sefalana Shoppers","opening_hours":"Mo-Su 08:00-20:00","shop":"supermarket"}},
{"type":"Feature","geometry":{"type":"Point","coordinates":[23.4343268,-20.0196822]},"properties":{"name":"Akina's Biltong","opening_hours":"Mo-Fr 08:00-17:30, 09:00-18:00; Sa 08:00-13:00","shop":"butcher"}},
{"type":"Feature","geometry":{"type":"Point","coordinates":[27.5103051,-21.1657171]},"properties":{"name":"KnockOut Cash & Carry","name:en":"KnockOut Cash & Carry","shop":"supermarket"}},
{"type":"Feature","geometry":{"type":"Point","coordinates":[25.1481657,-17.8045556]},"properties":{"shop":"bakery","source":"NMP HOT Field Survey"}},
{"type":"Feature","geometry":{"type":"Point","coordinates":[23.4357766,-20.018385]},"properties":{"shop":"butcher"}},
{"type":"Feature","geometry":{"type":"Point","coordinates":[23.4356996,-20.0181357]},"properties":{"shop":"bakery"}},
{"type":"Feature","geometry":{"type":"Point","coordinates":[25.1841356,-17.7885834]},"properties":{"name":"Shoprite","opening_hours":"Mo-Sa 08:00-19:00; Su 08:00-17:00","shop":"supermarket","source":"NMP HOT Field Survey"}},
{"type":"Feature","geometry":{"type":"Point","coordinates":[21.6526568,-21.6954479]},"properties":{"brand":"Shoprite","brand:wikidata":"Q1857639","name":"Shoprite","shop":"supermarket"}},
{"type":"Feature","geometry":{"type":"Point","coordinates":[25.8857696,-24.6430481]},"properties":{"name":"Molapo crossing","name:en":"Molapo crossing","shop":"supermarket"}},
{"type":"Feature","geometry":{"type":"Point","coordinates":[25.9066928,-24.6428209]},"properties":{"name":"Square mart","name:en":"Square mart","shop":"supermarket"}},
{"type":"Feature","geometry":{"type":"Point","coordinates":[25.9109204,-24.6218661]},"properties":{"name":"Mr Veg","name:en":"Mr Veg","shop":"supermarket"}},
{"type":"Feature","geometry":{"type":"Point","coordinates":[27.5203372,-22.8843257]},"properties":{"name":"T.K Complex","shop":"supermarket"}},
{"type":"Feature","geometry":{"type":"Point","coordinates":[27.5255457,-22.883941]},"properties":{"shop":"supermarket"}},
{"type":"Feature","geometry":{"type":"Point","coordinates":[23.7043059,-20.1683651]},"properties":{"name":"Castelllo farming","shop":"farm"}},
{"type":"Feature","geometry":{"type":"Point","coordinates":[22.1632887,-19.3726002]},"properties":{"addr:village":"Gumare","name":"PEP","name:en":"PEP","shop":"supermarket","source":"NMP HOT Field Survey"}},
{"type":"Feature","geometry":{"type":"Point","coordinates":[23.431636,-19.9778323]},"properties":{"name":"tops! At Spar","shop":"supermarket"}},
{"type":"Feature","geometry":{"type":"Point","coordinates":[22.1835369,-19.6594132]},"properties":{"shop":"convenience"}},
{"type":"Feature","geometry":{"type":"Point","coordinates":[22.178029,-18.7388534]},"properties":{"shop":"bakery"}},
{"type":"Feature","geometry":{"type":"Point","coordinates":[25.3669161,-21.331596]},"properties":{"name":"Orapa Spar","shop":"supermarket"}},
{"type":"Feature","geometry":{"type":"Point","coordinates":[25.2005127,-17.796238]},"properties":{"source":"NMP HOT Field Survey"}},
{"type":"Feature","geometry":{"type":"Point","coordinates":[25.2005117,-17.7965098]},"properties":{"source":"NMP HOT Field Survey"}},
{"type":"Feature","geometry":{"type":"Point","coordinates":[25.200616,-17.7965102]},"properties":{"source":"NMP HOT Field Survey"}},
{"type":"Feature","geometry":{"type":"Point","coordinates":[25.200617,-17.7962384]},"properties":{"source":"NMP HOT Field Survey"}},
{"type":"Feature","geometry":{"type":"Point","coordinates":[26.7201316,-22.2344999]},"properties":{"name":"Shop & Go","shop":"convenience"}},
{"type":"Feature","geometry":{"type":"Point","coordinates":[22.7908696,-23.6717339]},"properties":{"name":"Butcher","shop":"butcher"}},
{"type":"Feature","geometry":{"type":"Point","coordinates":[24.71376,-23.6954482]},"properties":{"name":"Butcher","shop":"butcher"}},
{"type":"Feature","geometry":{"type":"Point","coordinates":[24.3181098,-18.0385723]},"properties":{"name":"Bakery","shop":"bakery"}},
{"type":"Feature","geometry":{"type":"Point","coordinates":[23.4245375,-19.9882748]},"properties":{"name":"Dainty Bakes","shop":"bakery"}},
{"type":"Feature","geometry":{"type":"Point","coordinates":[23.423179,-19.9877653]},"properties":{"brand":"Spar","brand:wikidata":"Q610492","brand:wikipedia":"en:Spar (retailer)","name":"Spar","shop":"supermarket"}},
{"type":"Feature","geometry":{"type":"Point","coordinates":[22.1635782,-19.3727344]},"properties":{"addr:village":"Gumare","name":"Shoprite","shop":"supermarket","source":"NMP HOT Field Survey"}},
{"type":"Feature","geometry":{"type":"Point","coordinates":[22.194054,-19.6676256]},"properties":{"name":"Bakery","shop":"bakery"}},
{"type":"Feature","geometry":{"type":"Point","coordinates":[21.6494757,-21.6943883]},"properties":{"brand":"Choppies","brand:wikidata":"Q5104860","name":"Choppies","shop":"supermarket"}},
{"type":"Feature","geometry":{"type":"Point","coordinates":[21.6530423,-21.6950903]},"properties":{"name":"Engen Convenience Shop","shop":"convenience"}},
{"type":"Feature","geometry":{"type":"Point","coordinates":[25.3257844,-24.970649]},"properties":{"name":"Saverite Supermarket","shop":"supermarket"}},
{"type":"Feature","geometry":{"type":"Point","coordinates":[21.6577052,-21.6902343]},"properties":{"addr:city":"Ghanzi","addr:street":"A. De Graaff Street","name":"Ghanzi Buchery","shop":"butcher"}},
{"type":"Feature","geometry":{"type":"Point","coordinates":[21.6481955,-21.6938668]},"properties":{"addr:city":"Ghanzi","addr:street":"Henry Jankie Road","name":"Artok Butchery","shop":"butcher"}},
{"type":"Feature","geometry":{"type":"Point","coordinates":[25.912801,-24.6704374]},"properties":{"addr:street":"Willoughby Way","internet_access":"wlan","name":"Afro Butchery","opening_hours":"Mo-Su 09:00-18:00","shop":"butcher"}},
{"type":"Feature","geometry":{"type":"Point","coordinates":[25.9746291,-24.5687995]},"properties":{"name":"Woolworths","opening_hours":"Mo-Fr 09:00-20:00; Sa 09:00-18:00; Su 09:00-17:00","shop":"supermarket"}},
{"type":"Feature","geometry":{"type":"Point","coordinates":[27.8194733,-21.970744]},"properties":{"name":"Eureka","shop":"supermarket"}},
{"type":"Feature","geometry":{"type":"Point","coordinates":[27.8373722,-21.9757811]},"properties":{"name":"Choppies","shop":"supermarket"}},
{"type":"Feature","geometry":{"type":"Point","coordinates":[27.8192777,-21.9703061]},"properties":{"name":"Sefalana","shop":"supermarket"}},
{"type":"Feature","geometry":{"type":"Point","coordinates":[27.8201663,-21.9725658]},"properties":{"name":"Jumbo","shop":"supermarket"}},
{"type":"Feature","geometry":{"type":"Point","coordinates":[27.8400585,-21.9766095]},"properties":{"branch":"Phikwe Mall","brand":"Pick n Pay","name":"Pick n Pay","shop":"supermarket"}},
{"type":"Feature","geometry":{"type":"Point","coordinates":[25.9281359,-24.6034358]},"properties":{"amenity":"marketplace"}},
{"type":"Feature","geometry":{"type":"Point","coordinates":[25.9193208,-24.6183211]},"properties":{"name":"China","shop":"farm"}},
{"type":"Feature","geometry":{"type":"Point","coordinates":[25.9252094,-24.6264033]},"properties":{"addr:street":"Noko Road","name":"Sefalana","shop":"supermarket"}},
{"type":"Feature","geometry":{"type":"Point","coordinates":[25.9059298,-24.6733634]},"properties":{"amenity":"marketplace"}},
{"type":"Feature","geometry":{"type":"Point","coordinates":[25.9060236,-24.6738524]},"properties":{"amenity":"marketplace"}},
{"type":"Feature","geometry":{"type":"Point","coordinates":[25.9061199,-24.6727825]},"properties":{"amenity":"marketplace"}},
{"type":"Feature","geometry":{"type":"Point","coordinates":[25.8049732,-24.5473762]},"properties":{"name":"Saverite","shop":"supermarket"}},
{"type":"Feature","geometry":{"type":"Point","coordinates":[25.8061887,-24.5469052]},"properties":{"shop":"butcher"}},
{"type":"Feature","geometry":{"type":"Point","coordinates":[22.1608026,-19.3719864]},"properties":{"addr:village":"Gumare","shop":"butcher","source":"NMP HOT Field Survey"}},
{"type":"Feature","geometry":{"type":"Point","coordinates":[22.1552664,-19.3645197]},"properties":{"addr:village":"Gumare","name":"Batsamai Traveller Centre","shop":"convenience","source":"NMP HOT Field Survey"}},
{"type":"Feature","geometry":{"type":"Point","coordinates":[27.8372754,-21.9669281]},"properties":{"name":"General Shopping complex","shop":"supermarket"}},
{"type":"Feature","geometry":{"type":"Point","coordinates":[25.8663511,-24.648189]},"properties":{"name":"Choppies","opening_hours":"Mo-Sa 08:00-20:00","shop":"supermarket"}},
{"type":"Feature","geometry":{"type":"Point","coordinates":[25.9467493,-24.6793286]},"properties":{"name":"Senn Foods","shop":"butcher"}},
{"type":"Feature","geometry":{"type":"Point","coordinates":[25.3485096,-24.9909069]},"properties":{"name":"Mabogo-dinku Butchery","shop":"butcher"}},
{"type":"Feature","geometry":{"type":"Point","coordinates":[26.147333,-24.3999105]},"properties":{"name":"Shoprite Supermarket","shop":"supermarket"}},
{"type":"Feature","geometry":{"type":"Point","coordinates":[26.1166768,-24.4055655]},"properties":{"name":"Payless Supermarket,Phaphane","shop":"supermarket"}},
{"type":"Feature","geometry":{"type":"Point","coordinates":[25.8292642,-24.6383568]},"properties":{"name":"Shoppers Sefalana","shop":"supermarket"}},
{"type":"Feature","geometry":{"type":"Point","coordinates":[27.0887929,-22.5406091]},"properties":{"name":"Choppies","shop":"supermarket"}},
{"type":"Feature","geometry":{"type":"Point","coordinates":[22.1618552,-19.3783735]},"properties":{"addr:village":"Gumare","name":"Kefano Butchery","shop":"butcher"}},
{"type":"Feature","geometry":{"type":"Point","coordinates":[25.9408477,-24.6215905]},"properties":{"name":"Super Market","name:ru":"Продуктовый Магазин","shop":"supermarket"}},
{"type":"Feature","geometry":{"type":"Point","coordinates":[25.9409104,-24.6219243]},"properties":{"name":"Super Market","name:ru":"Продуктовый Магазин","shop":"supermarket"}},
{"type":"Feature","geometry":{"type":"Point","coordinates":[25.9408878,-24.6218405]},"properties":{"name":"Super Market","name:ru":"Продуктовый Магазин","shop":"supermarket"}},
{"type":"Feature","geometry":{"type":"Point","coordinates":[27.8433072,-21.9756602]},"properties":{"name":"Choppies","shop":"supermarket"}},
{"type":"Feature","geometry":{"type":"Point","coordinates":[27.8420143,-21.9755309]},"properties":{"name":"Go Seame","shop":"supermarket"}},
{"type":"Feature","geometry":{"type":"Point","coordinates":[27.8401904,-21.9754065]},"properties":{"name":"Sefalana Shopper","shop":"supermarket"}},
{"type":"Feature","geometry":{"type":"Point","coordinates":[25.2539712,-23.9880617]},"properties":{"name":"Malwelwe super 7","operator":"Neo Satsebe","shop":"supermarket"}},
{"type":"Feature","geometry":{"type":"Point","coordinates":[24.5364461,-20.201983]},"properties":{"shop":"convenience"}},
{"type":"Feature","geometry":{"type":"Point","coordinates":[27.0874714,-22.5401277]},"properties":{"addr:city":"Palapye","branch":"Palapye Junction","brand":"Spar","brand:wikidata":"Q610492","name":"Spar","shop":"supermarket"}},
{"type":"Feature","geometry":{"type":"Point","coordinates":[25.6022796,-18.7388957]},"properties":{"name":"Agnes tuck shop","shop":"convenience"}},
{"type":"Feature","geometry":{"type":"Point","coordinates":[25.2404873,-17.8076954]},"properties":{"name":"Northern Meat Supplies (Butchery)","shop":"butcher"}},
{"type":"Feature","geometry":{"type":"Point","coordinates":[26.183919,-20.2131597]},"properties":{"name":"Might Enterprises Pty (Ltd)","shop":"convenience"}},
{"type":"Feature","geometry":{"type":"Point","coordinates":[25.9132897,-24.6234366]},"properties":{"name":"Chinese Supermarket","shop":"supermarket"}},
{"type":"Feature","geometry":{"type":"Point","coordinates":[26.1839066,-20.212446]},"properties":{"name":"Mamas I Meat butchery","shop":"butcher"}},
{"type":"Feature","geometry":{"type":"Point","coordinates":[27.1050405,-22.5444061]},"properties":{"name":"Sedibeng Complex","shop":"supermarket"}},
{"type":"Feature","geometry":{"type":"Point","coordinates":[27.3311649,-20.7983348]},"properties":{"name":"Bayi General Store","shop":"convenience"}},
{"type":"Feature","geometry":{"type":"Point","coordinates":[25.9234885,-24.6702582]},"properties":{"name":"Jackbee Bottle Store","shop":"supermarket"}},
{"type":"Feature","geometry":{"type":"Point","coordinates":[23.4453926,-19.9721169]},"properties":{"addr:city":"Maun","addr:housenumber":"2376","addr:postcode":"0000","addr:street":"Koro Street","name":"Lutay Butchery","opening_hours":"Mo-Su 08:00-20:00","operator":"Lutay Company Investments PTY Ltd","payment:cash":"yes","payment:credit_cards":"yes","payment:debit_cards":"yes","payment:visa":"yes","phone":"+267 74510952 / 74608671","shop":"butcher"}},
{"type":"Feature","geometry":{"type":"Point","coordinates":[26.1841695,-20.2024519]},"properties":{"name":"Saveway","shop":"supermarket"}},
{"type":"Feature","geometry":{"type":"Point","coordinates":[25.2592242,-20.2087134]},"properties":{"shop":"bakery"}},
{"type":"Feature","geometry":{"type":"Point","coordinates":[22.6869203,-20.4728565]},"properties":{"opening_hours":"Mo-Fr, Su 09:00-18:00","shop":"convenience"}},
{"type":"Feature","geometry":{"type":"Point","coordinates":[22.4058059,-21.0510759]},"properties":{"name":"Bonnie T shop","shop":"convenience"}},
{"type":"Feature","geometry":{"type":"Point","coordinates":[21.9442159,-21.5200201]},"properties":{"name":"Reenboog","shop":"convenience"}},
{"type":"Feature","geometry":{"type":"Point","coordinates":[21.9443242,-21.5200201]},"properties":{"name":"Reenboog","shop":"butcher"}},
{"type":"Feature","geometry":{"type":"Point","coordinates":[20.0741096,-22.2743438]},"properties":{"name":"Sefalana","shop":"supermarket"}},
{"type":"Feature","geometry":{"type":"Point","coordinates":[20.0757726,-22.2736541]},"properties":{"shop":"convenience"}},
{"type":"Feature","geometry":{"type":"Point","coordinates":[22.7985977,-23.6739069]},"properties":{"name":"Choppies","shop":"supermarket"}},
{"type":"Feature","geometry":{"type":"Point","coordinates":[26.4293808,-21.2324376]},"properties":{"addr:street":"Kutlwano ward, Mokubilo","name":"Saverite","shop":"supermarket"}},
{"type":"Feature","geometry":{"type":"Point","coordinates":[25.8781021,-24.569615]},"properties":{"name":"Sethugetsane","shop":"supermarket"}},
{"type":"Feature","geometry":{"type":"Point","coordinates":[25.8566339,-24.607703]},"properties":{"name":"Choppies","shop":"convenience"}},
{"type":"Feature","geometry":{"type":"Point","coordinates":[25.8636634,-24.620048]},"properties":{"name":"Trans","shop":"convenience"}},
{"type":"Feature","geometry":{"type":"Point","coordinates":[25.8734036,-24.5655448]},"properties":{"name":"Saverite","shop":"convenience"}},
{"type":"Feature","geometry":{"type":"Point","coordinates":[25.8641904,-24.618443]},"properties":{"name":"Choppies","shop":"convenience"}},
{"type":"Feature","geometry":{"type":"Point","coordinates":[25.8661831,-24.6213162]},"properties":{"name":"Choppies","shop":"convenience"}},
{"type":"Feature","geometry":{"type":"Point","coordinates":[25.8509398,-24.6130926]},"properties":{"name":"Sefalana","shop":"convenience"}},
{"type":"Feature","geometry":{"type":"Point","coordinates":[25.8679989,-24.6213849]},"properties":{"name":"Kwena Spar","shop":"convenience"}},
{"type":"Feature","geometry":{"type":"Point","coordinates":[25.8669852,-24.6219182]},"properties":{"name":"Fours","shop":"convenience"}},
{"type":"Feature","geometry":{"type":"Point","coordinates":[25.9089932,-24.6293358]},"properties":{"name":"Spar","shop":"supermarket"}},
{"type":"Feature","geometry":{"type":"Point","coordinates":[20.6089581,-22.0938823]},"properties":{"name":"HigWay","shop":"convenience"}},
{"type":"Feature","geometry":{"type":"Point","coordinates":[20.3170659,-22.1941507]},"properties":{"shop":"convenience"}},
{"type":"Feature","geometry":{"type":"Point","coordinates":[27.5143066,-21.1707509]},"properties":{"branch":"Francistown 1","fixme":"Location is estimate. Need correct location in mall","name":"Pick n Pay","operator":"Pick n Pay","shop":"supermarket"}},
{"type":"Feature","geometry":{"type":"Point","coordinates":[24.4818762,-21.0942685]},"properties":{"name":"Saverite Complex","shop":"supermarket"}},
{"type":"Feature","geometry":{"type":"Point","coordinates":[22.1642285,-19.3631172]},"properties":{"name":"Choppies Gumare","shop":"supermarket"}},
{"type":"Feature","geometry":{"type":"Point","coordinates":[25.2412778,-17.8048162]},"properties":{"name":"Sefalana Shopper","shop":"supermarket"}},
{"type":"Feature","geometry":{"type":"Point","coordinates":[25.5787297,-21.4158993]},"properties":{"name":"Se Rona","shop":"supermarket"}},
{"type":"Feature","geometry":{"type":"Point","coordinates":[28.408101,-22.4226319]},"properties":{"name":"Tsetsebjwe Meat Parlor","shop":"butcher"}},
{"type":"Feature","geometry":{"type":"Point","coordinates":[25.9047917,-24.6549011]},"properties":{"name":"SuperSpar","shop":"supermarket"}},
{"type":"Feature","geometry":{"type":"Point","coordinates":[25.9054768,-24.6566133]},"properties":{"name":"Pick n Pay","shop":"supermarket"}},
{"type":"Feature","geometry":{"type":"Point","coordinates":[25.6279641,-18.5529959]},"properties":{"shop":"supermarket"}},
{"type":"Feature","geometry":{"type":"Point","coordinates":[25.2411197,-17.8077016]},"properties":{"name":"Mamasi","shop":"butcher"}},
{"type":"Feature","geometry":{"type":"LineString","coordinates":[[27.5116517,-21.179263],[27.510934,-21.179137],[27.5113329,-21.1771612],[27.5120593,-21.1772887],[27.5120056,-21.1775548],[27.5116672,-21.1774954],[27.5116259,-21.1776999],[27.5115437,-21.1776854],[27.5114603,-21.1780986],[27.5115206,-21.1781092],[27.5114739,-21.1783405],[27.5118017,-21.1783981],[27.5117346,-21.1787304],[27.5117583,-21.1787345],[27.5116517,-21.179263]]},"properties":{"building":"yes","name":"Game Store","name:en":"Game Store","shop":"supermarket"}},
{"type":"Feature","geometry":{"type":"LineString","coordinates":[[25.915684,-24.6579171],[25.9162872,-24.6579139],[25.9162884,-24.6581043],[25.9172366,-24.6580994],[25.9172352,-24.6578839],[25.9177365,-24.6578813],[25.9177378,-24.6580902],[25.9189378,-24.6580839],[25.9189385,-24.6581943],[25.9176829,-24.6582007],[25.9176843,-24.6584076],[25.9172416,-24.6584102],[25.9172404,-24.6582214],[25.9162919,-24.6582264],[25.916293,-24.6584082],[25.9156872,-24.6584113],[25.915686,-24.6582221],[25.9146566,-24.6582412],[25.9146579,-24.6584481],[25.914235,-24.6584366],[25.9142337,-24.6582323],[25.9132853,-24.6582373],[25.9132849,-24.6581779],[25.9132845,-24.6581051],[25.9142341,-24.6581001],[25.914233,-24.6579235],[25.914706,-24.657921],[25.9147071,-24.6580959],[25.9156851,-24.6580907],[25.915684,-24.6579171]]},"properties":{"amenity":"marketplace","name":"Main Mall"}},
{"type":"Feature","geometry":{"type":"LineString","coordinates":[[23.4250688,-19.9888614],[23.4252083,-19.9890177],[23.425219,-19.9892067],[23.4247751,-19.9895892],[23.424517,-19.9893177],[23.4250688,-19.9888614]]},"properties":{"brand":"Shoprite","brand:wikidata":"Q1857639","building":"yes","name":"Shoprite","operator":"Shop Rite","shop":"supermarket"}},
{"type":"Feature","geometry":{"type":"LineString","coordinates":[[26.1815235,-20.210472],[26.181252,-20.2102638],[26.1813089,-20.2101984],[26.1813706,-20.2101276],[26.1816421,-20.2103359],[26.1816192,-20.2103622],[26.1815235,-20.210472]]},"properties":{"addr:street":"A3","addr:village":"Nata","building":"commercial","building:levels":"1","building:material":"cement_block","building:roof":"metal","name":"Convenience Store","shop":"convenience","source":"NMP HOT Field Survey","wall":"yes"}},
{"type":"Feature","geometry":{"type":"LineString","coordinates":[[23.4309631,-19.9763134],[23.4311004,-19.9765959],[23.4307973,-19.976726],[23.43066,-19.9764436],[23.4307426,-19.9764081],[23.4309631,-19.9763134]]},"properties":{"brand":"Choppies","brand:wikidata":"Q5104860","building":"yes","name":"Choppies","opening_hours":"Mo-Su 08:00-20:00","shop":"supermarket"}},
{"type":"Feature","geometry":{"type":"LineString","coordinates":[[23.4319523,-19.9776596],[23.4316517,-19.9777704],[23.4316597,-19.9777918],[23.4317427,-19.9779861],[23.431771,-19.9779757],[23.4318365,-19.9779511],[23.432042,-19.9778747],[23.4319523,-19.9776596]]},"properties":{"brand":"Spar","brand:wikidata":"Q610492","brand:wikipedia":"en:Spar (retailer)","building":"yes","name":"Spar","shop":"supermarket"}},
{"type":"Feature","geometry":{"type":"LineString","coordinates":[[23.4314459,-19.9780981],[23.4316459,-19.9780226],[23.4317427,-19.9779861],[23.4316597,-19.9777918],[23.4315628,-19.9778284],[23.4313629,-19.9779038],[23.4314459,-19.9780981]]},"properties":{"building":"yes","shop":"supermarket"}},
{"type":"Feature","geometry":{"type":"LineString","coordinates":[[23.4218066,-19.9920854],[23.4212534,-19.9919343],[23.4211925,-19.9921313],[23.4213123,-19.992164],[23.4212788,-19.9922724],[23.4216735,-19.9923802],[23.4217353,-19.9921804],[23.421774,-19.9921909],[23.4218066,-19.9920854]]},"properties":{"brand":"Choppies","brand:wikidata":"Q5104860","building":"yes","name":"Choppies","shop":"supermarket"}},
{"type":"Feature","geometry":{"type":"LineString","coordinates":[[27.7503978,-21.8739121],[27.7504884,-21.8739646],[27.7504133,-21.8740492],[27.750489,-21.8741261],[27.7504563,-21.8741936],[27.7505153,-21.8742384],[27.7503597,-21.8744724],[27.7503061,-21.8744375],[27.750176,-21.8746461],[27.7500003,-21.8745321],[27.7501188,-21.8743303],[27.7501827,-21.8743479],[27.7503221,-21.8741488],[27.7502583,-21.8741112],[27.7503978,-21.8739121]]},"properties":{"description":"China Shops, Chicken Plus, FNB ATM","name":"Shopping Complex","shop":"supermarket"}},
{"type":"Feature","geometry":{"type":"LineString","coordinates":[[25.2334613,-17.7946966],[25.2334563,-17.7948],[25.2335426,-17.7948038],[25.2335436,-17.7947834],[25.2335874,-17.7947853],[25.2335914,-17.7947022],[25.2334613,-17.7946966]]},"properties":{"building":"yes","shop":"convenience"}},
{"type":"Feature","geometry":{"type":"LineString","coordinates":[[26.0823509,-24.4079224],[26.0824319,-24.4079022],[26.0824068,-24.4078188],[26.0825155,-24.4077917],[26.082497,-24.4077302],[26.0823517,-24.4077664],[26.0823226,-24.4076698],[26.0821985,-24.4077008],[26.0822066,-24.4077278],[26.0819679,-24.4077873],[26.0819962,-24.4078813],[26.0822393,-24.4078206],[26.0822462,-24.4078436],[26.0822772,-24.4078359],[26.0822921,-24.4078853],[26.0823364,-24.4078742],[26.0823509,-24.4079224]]},"properties":{"name":"Shell Filling Station, Pilane","opening_hours":"24/7","shop":"convenience"}},
{"type":"Feature","geometry":{"type":"LineString","coordinates":[[25.1532324,-17.795821],[25.1534962,-17.7954981],[25.1531408,-17.7952348],[25.1528385,-17.7956049],[25.1528736,-17.795631],[25.1529321,-17.7956743],[25.1529707,-17.7956272],[25.1532022,-17.7957987],[25.1532324,-17.795821]]},"properties":{"brand":"Spar","brand:wikidata":"Q610492","building":"yes","building:part":"yes","name":"Spar","shop":"supermarket"}},
{"type":"Feature","geometry":{"type":"LineString","coordinates":[[25.8672551,-24.8584644],[25.8672617,-24.8585853],[25.867331,-24.8585822],[25.8673244,-24.8584613],[25.8672551,-24.8584644]]},"properties":{"building":"yes","shop":"butcher"}},
{"type":"Feature","geometry":{"type":"LineString","coordinates":[[25.8553198,-24.8617796],[25.8552232,-24.8619725],[25.8547331,-24.8617705],[25.8548297,-24.8615776],[25.8553198,-24.8617796]]},"properties":{"building":"yes","name":"Choppies","shop":"supermarket"}},
{"type":"Feature","geometry":{"type":"LineString","coordinates":[[26.1838652,-20.2130647],[26.1839861,-20.2131366],[26.1839948,-20.2131236],[26.1840517,-20.2131575],[26.184043,-20.2131704],[26.1840553,-20.2131777],[26.1840341,-20.2132091],[26.184068,-20.2132293],[26.1840421,-20.213267599999999],[26.1840082,-20.2132474],[26.1840005,-20.2132588],[26.1838105,-20.2131458],[26.1838652,-20.2130647]]},"properties":{"addr:village":"Nata","building":"commercial","building:levels":"1","building:material":"cement_block","building:roof":"metal","shop":"convenience","source":"NMP HOT Field Survey","wall":"yes"}},
{"type":"Feature","geometry":{"type":"LineString","coordinates":[[21.7789424,-23.9994231],[21.7789046,-23.9995098],[21.778951,-23.9995267],[21.7789336,-23.9995666],[21.7792429,-23.9996789],[21.779298,-23.9995523],[21.7789424,-23.9994231]]},"properties":{"building":"commercial","shop":"supermarket"}},
{"type":"Feature","geometry":{"type":"LineString","coordinates":[[27.4454216,-20.6265043],[27.4457434,-20.6265434],[27.4457375,-20.6265859],[27.4458868,-20.6266041],[27.4458649,-20.6267622],[27.4458214,-20.6267569],[27.4458178,-20.6267822],[27.4453903,-20.6267303],[27.4454216,-20.6265043]]},"properties":{"building":"yes","name":"Choppies","shop":"supermarket"}},
{"type":"Feature","geometry":{"type":"LineString","coordinates":[[22.4520826,-20.1687875],[22.4521358,-20.1687421],[22.452038,-20.1686408],[22.4519847,-20.1686861],[22.4520826,-20.1687875]]},"properties":{"addr:village":"Tsau","building":"commercial","building:levels":"1","building:material":"cement_block","building:roof":"metal","shop":"convenience","source":"NMP HOT Field Survey","wall":"yes"}},
{"type":"Feature","geometry":{"type":"LineString","coordinates":[[21.8870277,-26.6650016],[21.8870149,-26.6650962],[21.8872378,-26.6651203],[21.887251,-26.6650234],[21.8871726,-26.665015],[21.8871766,-26.6649854],[21.8871294,-26.6649803],[21.8871251,-26.6650121],[21.8870277,-26.6650016]]},"properties":{"building":"yes","name":"Midbok","shop":"convenience"}},
{"type":"Feature","geometry":{"type":"LineString","coordinates":[[25.2600202,-20.2030528],[25.2600202,-20.20297],[25.2603261,-20.2029641],[25.2603324,-20.2030499],[25.2600202,-20.2030528]]},"properties":{"building":"yes","shop":"convenience"}},
{"type":"Feature","geometry":{"type":"LineString","coordinates":[[25.2507661,-20.2071634],[25.2507693,-20.2070623],[25.2508836,-20.2070684],[25.2508803,-20.2071695],[25.2507661,-20.2071634]]},"properties":{"building":"yes","name":"J&B Complexs","shop":"convenience"}},
{"type":"Feature","geometry":{"type":"LineString","coordinates":[[25.2586465,-20.2068652],[25.2586547,-20.2068396],[25.2587804,-20.206855],[25.2587695,-20.2068806],[25.2586465,-20.2068652]]},"properties":{"building":"yes","shop":"farm"}},
{"type":"Feature","geometry":{"type":"LineString","coordinates":[[25.0302182,-24.0966473],[25.0303636,-24.0965981],[25.0305434,-24.0970407],[25.0302602,-24.0971365],[25.030287,-24.0972024],[25.0302122,-24.0972277],[25.0301854,-24.0971618],[25.030158,-24.0971711],[25.0300973,-24.0970216],[25.0303372,-24.0969404],[25.0302182,-24.0966473]]},"properties":{"building":"yes","name":"Stores","shop":"convenience"}},
{"type":"Feature","geometry":{"type":"LineString","coordinates":[[25.2417233,-17.8055864],[25.2416316,-17.8058443],[25.2413802,-17.8057633],[25.2413034,-17.8059794],[25.2411227,-17.8059212],[25.2411965,-17.8057138],[25.2411364,-17.8056945],[25.2410603,-17.8059086],[25.2408743,-17.8058487],[25.2410453,-17.8053679],[25.2417233,-17.8055864]]},"properties":{"addr:village":"Kazungula","brand":"Choppies","brand:wikidata":"Q5104860","building":"commercial","building:levels":"1","building:material":"brick","building:roof":"metal","name":"Choppies","shop":"supermarket","source":"NMP HOT Field Survey","wall":"yes"}},
{"type":"Feature","geometry":{"type":"LineString","coordinates":[[28.4028466,-21.9851478],[28.4029948,-21.9850403],[28.4029103,-21.9849402],[28.4027622,-21.9850476],[28.4028466,-21.9851478]]},"properties":{"building":"yes","name":"Braai Kings Butcher Shop","shop":"butcher"}},
{"type":"Feature","geometry":{"type":"LineString","coordinates":[[27.9648627,-22.1886804],[27.9650022,-22.1887077],[27.964974,-22.1888108],[27.9648412,-22.1887885],[27.9648627,-22.1886804]]},"properties":{"building":"yes","shop":"butcher"}},
{"type":"Feature","geometry":{"type":"LineString","coordinates":[[26.1448779,-24.3925072],[26.1447835,-24.3927794],[26.144552,-24.3927128],[26.1444769,-24.3927495],[26.1444338,-24.392737],[26.1444152,-24.3927906],[26.1441339,-24.3927097],[26.1442653,-24.392331],[26.1445215,-24.3924047],[26.14454,-24.3923636],[26.1446513,-24.3924051],[26.1446366,-24.3924378],[26.1448779,-24.3925072]]},"properties":{"building":"yes","name":"Spar","shop":"supermarket"}},
{"type":"Feature","geometry":{"type":"LineString","coordinates":[[23.4906443,-19.9389238],[23.4906656,-19.9390245],[23.4908184,-19.938996],[23.4907972,-19.9388953],[23.4906443,-19.9389238]]},"properties":{"building":"yes","name":"The Little Shop","opening_hours":"Mo-Su 08:00-20:00","payment:cash":"yes","payment:coins":"yes","payment:notes":"yes","shop":"convenience"}},
{"type":"Feature","geometry":{"type":"LineString","coordinates":[[23.4123329,-19.9893085],[23.4126366,-19.9892388],[23.412722,-19.9895672],[23.4124183,-19.9896369],[23.4123329,-19.9893085]]},"properties":{"building":"yes","name":"Mr. Veg","shop":"supermarket"}},
{"type":"Feature","geometry":{"type":"LineString","coordinates":[[23.4117436,-19.9890789],[23.412208,-19.9889899],[23.4123685,-19.9897299],[23.4119042,-19.9898189],[23.4117436,-19.9890789]]},"properties":{"building":"yes","name":"Sefelana","shop":"supermarket"}},
{"type":"Feature","geometry":{"type":"LineString","coordinates":[[25.9398044,-24.6673568],[25.9398738,-24.6675202],[25.939886,-24.6675489],[25.9405702,-24.6673044],[25.9404788,-24.6671208],[25.940453,-24.6671298],[25.9398044,-24.6673568]]},"properties":{"building":"retail","name":"Choppies","shop":"supermarket"}},
{"type":"Feature","geometry":{"type":"LineString","coordinates":[[22.3993289,-26.0226203],[22.3996779,-26.022676],[22.3996265,-26.0229363],[22.3990213,-26.0228397],[22.3990453,-26.0227185],[22.3989789,-26.0227079],[22.3989886,-26.0226593],[22.399311,-26.0227108],[22.3993289,-26.0226203]]},"properties":{"building":"yes","name":"Sefalana","shop":"supermarket"}},
{"type":"Feature","geometry":{"type":"LineString","coordinates":[[25.310267,-23.6765557],[25.3103729,-23.6767451],[25.3104392,-23.676714],[25.3104313,-23.6766999],[25.3105395,-23.6766492],[25.3104948,-23.6765691],[25.310407,-23.6766103],[25.3103538,-23.676515],[25.310267,-23.6765557]]},"properties":{"building":"yes","shop":"bakery"}},
{"type":"Feature","geometry":{"type":"LineString","coordinates":[[25.2744027,-24.1810636],[25.274435,-24.1810804],[25.2744144,-24.1811133],[25.2743822,-24.1810966],[25.2744027,-24.1810636]]},"properties":{"building":"yes","shop":"convenience"}},
{"type":"Feature","geometry":{"type":"LineString","coordinates":[[25.2723473,-24.1795278],[25.2723901,-24.1795013],[25.2724133,-24.1795325],[25.2723704,-24.179559],[25.2723473,-24.1795278]]},"properties":{"building":"yes","shop":"convenience"}},
{"type":"Feature","geometry":{"type":"LineString","coordinates":[[25.9500611,-24.6815861],[25.9501427,-24.6816109],[25.950324,-24.681666],[25.9502858,-24.6817696],[25.9502807,-24.6817837],[25.9502719,-24.6818076],[25.9501597,-24.6817736],[25.9501685,-24.6817497],[25.9501736,-24.6817358],[25.9501828,-24.6817109],[25.9501121,-24.6816894],[25.9500321,-24.6816651],[25.9500611,-24.6815861]]},"properties":{"amenity":"fuel","building":"roof","fuel:diesel":"yes","name":"Puma","shop":"convenience","source":"Bing","source:name":"user: \"Calvin Rasefako; Changeset: 41252850\""}},
{"type":"Feature","geometry":{"type":"LineString","coordinates":[[28.5969858,-22.066839],[28.5971695,-22.0668015],[28.5971988,-22.0669243],[28.597015,-22.0669618],[28.5969858,-22.066839]]},"properties":{"building":"yes","name":"Molalatau Co-op/Bar","shop":"convenience"}},
{"type":"Feature","geometry":{"type":"LineString","coordinates":[[28.5987575,-22.0685363],[28.5988454,-22.0684964],[28.5989128,-22.0686237],[28.5988248,-22.0686637],[28.5987575,-22.0685363]]},"properties":{"building":"yes","name":"General Store","shop":"convenience"}},
{"type":"Feature","geometry":{"type":"LineString","coordinates":[[25.2005127,-17.796238],[25.2005117,-17.7965098],[25.200616,-17.7965102],[25.200617,-17.7962384],[25.2005127,-17.796238]]},"properties":{"addr:village":"Kazungula","building":"yes","building:levels":"1","building:roof":"metal","name":"Fish Farm","shop":"farm","source":"NMP HOT Field Survey","wall":"no"}},
{"type":"Feature","geometry":{"type":"LineString","coordinates":[[21.9442138,-21.5222134],[21.9442355,-21.5222453],[21.9442752,-21.5222218],[21.9442535,-21.52219],[21.9442138,-21.5222134]]},"properties":{"building":"yes","name":"Ivy Street Vendor","payment:cash":"yes","payment:coins":"yes","shop":"convenience"}},
{"type":"Feature","geometry":{"type":"LineString","coordinates":[[27.7545926,-22.799175],[27.7546813,-22.7992651],[27.7546035,-22.7993302],[27.7546347,-22.7993618],[27.7545543,-22.799429],[27.7544345,-22.7993073],[27.7545926,-22.799175]]},"properties":{"building":"yes","shop":"bakery"}},
{"type":"Feature","geometry":{"type":"LineString","coordinates":[[22.162363,-19.3595605],[22.1624082,-19.3595655],[22.1624044,-19.3595961],[22.162411,-19.3595968],[22.1624041,-19.3596521],[22.1623379,-19.3596448],[22.1623448,-19.3595891],[22.1623592,-19.3595907],[22.162363,-19.3595605]]},"properties":{"addr:village":"Gumare","building":"commercial","building:levels":"1","building:material":"cement_block","building:roof":"metal","name":"Dorison Butchery","shop":"butcher","wall":"yes"}},
{"type":"Feature","geometry":{"type":"LineString","coordinates":[[25.9183834,-24.6108197],[25.9180937,-24.6107928],[25.9180937,-24.610766],[25.9180723,-24.610766],[25.9180749,-24.6106953],[25.9176297,-24.6106612],[25.9175975,-24.6108806],[25.9176592,-24.6108904],[25.9176538,-24.6109513],[25.9181876,-24.6110026],[25.9181876,-24.6109513],[25.918378,-24.6109587],[25.9183834,-24.6108197]]},"properties":{"amenity":"marketplace","name":"Choppies"}},
{"type":"Feature","geometry":{"type":"LineString","coordinates":[[25.8803809,-24.6403067],[25.8798668,-24.6405304],[25.8800714,-24.6409188],[25.88012,-24.6408976],[25.8802161,-24.64108],[25.8802923,-24.6410468],[25.8802087,-24.6408881],[25.8801909,-24.6408544],[25.8802663,-24.6408216],[25.8801616,-24.6406227],[25.8804754,-24.6404862],[25.8803809,-24.6403067]]},"properties":{"amenity":"marketplace","name":"Choppies"}},
{"type":"Feature","geometry":{"type":"LineString","coordinates":[[25.8861812,-24.6198918],[25.8858525,-24.6202697],[25.8858526,-24.6201942],[25.8855286,-24.6202215],[25.8855334,-24.620293],[25.8852142,-24.6200747],[25.8852504,-24.6200211],[25.885182,-24.6199808],[25.8850305,-24.6201625],[25.8853989,-24.6204129],[25.8856277,-24.6205784],[25.8858352,-24.6205563],[25.8859193,-24.6204571],[25.8859553,-24.6204823],[25.8860465,-24.6203747],[25.8860105,-24.6203495],[25.8863179,-24.6199869],[25.8861812,-24.6198918]]},"properties":{"amenity":"marketplace","name":"Spar"}},
{"type":"Feature","geometry":{"type":"LineString","coordinates":[[25.9055966,-24.5975123],[25.9053712,-24.5977826],[25.905562,-24.5979142],[25.9053893,-24.5981212],[25.9054983,-24.5981963],[25.905666,-24.5979953],[25.9056845,-24.5980081],[25.9058903,-24.5977613],[25.9058483,-24.5977324],[25.905873,-24.5977028],[25.9055966,-24.5975123]]},"properties":{"amenity":"marketplace","name":"Choppies"}},
{"type":"Feature","geometry":{"type":"LineString","coordinates":[[25.4184503,-24.7787399],[25.4185682,-24.7787697],[25.4185995,-24.7786674],[25.4184816,-24.7786376],[25.4184503,-24.7787399]]},"properties":{"building":"yes","name":"Choppies","shop":"supermarket"}},
{"type":"Feature","geometry":{"type":"LineString","coordinates":[[25.4175241,-24.7789233],[25.417629,-24.7789563],[25.4175943,-24.779047],[25.4174894,-24.7790139],[25.4175241,-24.7789233]]},"properties":{"building":"yes","name":"Mahummad Shop","shop":"supermarket"}},
{"type":"Feature","geometry":{"type":"LineString","coordinates":[[25.7993019,-24.6574001],[25.7993717,-24.6575001],[25.7993448,-24.6575805],[25.7993288,-24.6575513],[25.7993019,-24.6575732],[25.7992402,-24.6574708],[25.7992617,-24.6574513],[25.799251,-24.6574343],[25.7993019,-24.6574001]]},"properties":{"building":"yes","shop":"butcher"}},
{"type":"Feature","geometry":{"type":"LineString","coordinates":[[25.793119,-24.6595314],[25.7931387,-24.6596058],[25.7932487,-24.6595976],[25.7932778,-24.6594787],[25.7931285,-24.659308],[25.7927752,-24.659356],[25.7928204,-24.6596475],[25.7929325,-24.6596331],[25.7929207,-24.6595568],[25.793119,-24.6595314]]},"properties":{"building":"yes","name":"SaveRite Supermarket","shop":"supermarket"}},
{"type":"Feature","geometry":{"type":"LineString","coordinates":[[25.7900202,-24.6616849],[25.7900696,-24.6617868],[25.7902104,-24.6620775],[25.7899861,-24.6621672],[25.7899768,-24.6621482],[25.7898915,-24.6621823],[25.7898577,-24.6621125],[25.789915,-24.6620896],[25.7897678,-24.6617859],[25.7900202,-24.6616849]]},"properties":{"building":"yes","name":"Choppies Supermarket","shop":"supermarket"}},
{"type":"Feature","geometry":{"type":"LineString","coordinates":[[25.7818354,-24.6664808],[25.7819695,-24.6664539],[25.7819829,-24.6665051],[25.7818461,-24.6665295],[25.7818354,-24.6664808]]},"properties":{"building":"yes","name":"Matlhaselwa","shop":"butcher"}},
{"type":"Feature","geometry":{"type":"LineString","coordinates":[[25.7806209,-24.6685487],[25.7807451,-24.6685739],[25.7807156,-24.6686885],[25.7806034,-24.6686744],[25.7806209,-24.6685487]]},"properties":{"building":"yes","shop":"butcher"}},
{"type":"Feature","geometry":{"type":"LineString","coordinates":[[27.7490944,-21.8749958],[27.7492975,-21.8747594],[27.7494397,-21.8748646],[27.7492365,-21.875101],[27.7490944,-21.8749958]]},"properties":{"building":"yes","name":"Saverite","shop":"supermarket"}},
{"type":"Feature","geometry":{"type":"LineString","coordinates":[[25.7358249,-25.0492733],[25.7358101,-25.0493997],[25.7360247,-25.0494386],[25.7360247,-25.0493912],[25.7361119,-25.0494033],[25.7361125,-25.049384],[25.7361132,-25.0493608],[25.7358249,-25.0492733]]},"properties":{"building":"yes","name":"Camphill Community Trust Motse Wa Badiri Vocational Training Center","shop":"supermarket"}},
{"type":"Feature","geometry":{"type":"LineString","coordinates":[[25.7360689,-25.0495103],[25.7361655,-25.0495443],[25.7361937,-25.049407],[25.7361125,-25.049384],[25.7360689,-25.0495103]]},"properties":{"building":"yes","name":"Camphill Community Trust Motse Wa Badiri Vocational Training Center","shop":"supermarket"}},
{"type":"Feature","geometry":{"type":"LineString","coordinates":[[23.3547181,-19.2387816],[23.3547495,-19.2387249],[23.3548353,-19.2387673],[23.3548039,-19.238824],[23.3547181,-19.2387816]]},"properties":{"building":"yes","name":"Tuck Shop & Xomae Office","shop":"convenience"}},
{"type":"Feature","geometry":{"type":"LineString","coordinates":[[25.910996,-24.6216002],[25.911365,-24.6222746],[25.9118262,-24.6220474],[25.9114534,-24.621394],[25.910996,-24.6216002]]},"properties":{"building":"yes","shop":"supermarket"}},
{"type":"Feature","geometry":{"type":"LineString","coordinates":[[25.782423,-24.6673499],[25.7825846,-24.66733],[25.7826023,-24.6674482],[25.7824957,-24.6674613],[25.7824894,-24.6674193],[25.7824344,-24.6674261],[25.782423,-24.6673499]]},"properties":{"building":"yes","shop":"butcher"}},
{"type":"Feature","geometry":{"type":"LineString","coordinates":[[20.8586304,-22.1429496],[20.8586087,-22.1430063],[20.8587538,-22.1430541],[20.8587755,-22.1429975],[20.8586304,-22.1429496]]},"properties":{"building":"yes","name":"Kalkfontein General dealer","shop":"convenience","wheelchair":"no"}},
{"type":"Feature","geometry":{"type":"LineString","coordinates":[[26.8448982,-23.0953258],[26.8446918,-23.0957407],[26.8447537,-23.0957668],[26.8446651,-23.0959449],[26.8446213,-23.0959265],[26.8445932,-23.0959829],[26.8446428,-23.0960037],[26.8446334,-23.0960225],[26.8446532,-23.0960308],[26.8445774,-23.0961832],[26.844544,-23.0961691],[26.8444229,-23.0964124],[26.8444475,-23.0964228],[26.8444286,-23.0964607],[26.8444055,-23.0964509],[26.8442918,-23.0966796],[26.8442369,-23.0966564],[26.8440539,-23.0969324],[26.8445058,-23.0970957],[26.8445143,-23.0970787],[26.8447233,-23.0971665],[26.8447493,-23.0971141],[26.8449564,-23.0972011],[26.8450701,-23.0969721],[26.8449684,-23.0969294],[26.8450617,-23.0967415],[26.8451502,-23.0967787],[26.8452956,-23.0964859],[26.8451722,-23.0964341],[26.845154,-23.0964706],[26.8450482,-23.0964262],[26.8450646,-23.0963933],[26.8449538,-23.0963468],[26.8450926,-23.096067],[26.8452246,-23.0961224],[26.8452497,-23.0960716],[26.8451223,-23.0960181],[26.845256,-23.0957485],[26.8454832,-23.0958438],[26.845517,-23.0957756],[26.8456135,-23.0958161],[26.845578,-23.0958876],[26.8456467,-23.0959164],[26.8457765,-23.0956551],[26.8456974,-23.0956218],[26.8456608,-23.0956954],[26.8455786,-23.0956608],[26.8456149,-23.0955879],[26.8454272,-23.095509],[26.8454109,-23.0955417],[26.8448982,-23.0953258]]},"properties":{"amenity":"marketplace","building":"yes","name":"Watershed Piazza Mall"}},
{"type":"Feature","geometry":{"type":"LineString","coordinates":[[27.219492,-22.6664237],[27.2193731,-22.6664999],[27.2194391,-22.6665876],[27.2194866,-22.6665571],[27.219501,-22.6665761],[27.2195723,-22.6665303],[27.219492,-22.6664237]]},"properties":{"addr:city":"Lecheng","building":"yes","name":"Saverite","shop":"supermarket"}},
{"type":"Feature","geometry":{"type":"LineString","coordinates":[[27.1248534,-22.5293698],[27.1248111,-22.5296043],[27.1248869,-22.529616],[27.1248782,-22.5296642],[27.1250064,-22.5296839],[27.1250574,-22.5294012],[27.1248534,-22.5293698]]},"properties":{"building":"yes","name":"Saverite","shop":"supermarket"}},
{"type":"Feature","geometry":{"type":"LineString","coordinates":[[27.1247472,-22.5300312],[27.1249869,-22.5300568],[27.12498,-22.5301122],[27.1249314,-22.530107],[27.1249179,-22.530215],[27.1247012,-22.5301919],[27.1247063,-22.5301512],[27.1247562,-22.5301565],[27.1247684,-22.5300586],[27.1247441,-22.530056],[27.1247472,-22.5300312]]},"properties":{"building":"yes","name":"Thaba Ntle Butchery","shop":"butcher"}},
{"type":"Feature","geometry":{"type":"LineString","coordinates":[[27.0804137,-22.5611569],[27.0805504,-22.5615888],[27.080534,-22.5615932],[27.080544,-22.5616248],[27.0805823,-22.5616144],[27.0806933,-22.5619651],[27.080699,-22.5619792],[27.0807089,-22.5619912],[27.080722,-22.5620001],[27.080737,-22.5620052],[27.0807529,-22.5620062],[27.0807685,-22.5620031],[27.0808221,-22.5619887],[27.0807649,-22.5618077],[27.0810437,-22.5613375],[27.082031,-22.561071],[27.0820849,-22.5609802],[27.0827505,-22.5608005],[27.0826638,-22.5605266],[27.0816822,-22.5607915],[27.0817044,-22.5608617],[27.0812999,-22.5609708],[27.0813212,-22.5610379],[27.0808533,-22.5611641],[27.0808166,-22.5610482],[27.0804137,-22.5611569]]},"properties":{"building":"retail","name":"Foodlovers","shop":"supermarket"}},
{"type":"Feature","geometry":{"type":"LineString","coordinates":[[25.5704925,-25.3317761],[25.5704814,-25.3318794],[25.5705563,-25.331886],[25.5705573,-25.3318768],[25.5705984,-25.3318804],[25.5705995,-25.3318704],[25.5706879,-25.3318782],[25.5706816,-25.3319368],[25.570708,-25.3319391],[25.5707061,-25.3319568],[25.570744,-25.3319602],[25.5707456,-25.3319453],[25.5707767,-25.331948],[25.5707871,-25.3318513],[25.5707447,-25.3318475],[25.5707483,-25.3318134],[25.5705734,-25.331798],[25.570575,-25.3317833],[25.5704925,-25.3317761]]},"properties":{"building":"yes","shop":"supermarket"}},
{"type":"Feature","geometry":{"type":"LineString","coordinates":[[26.8209565,-23.1150593],[26.8209402,-23.1151896],[26.8211987,-23.1152106],[26.8211995,-23.1150702],[26.8209565,-23.1150593]]},"properties":{"building":"yes","building:levels":"1","name":"Makays Butchers","opening_hours":"Mo-Sa 08:30-18:00; Su 09:00-18:00","operator:website":"https://cloud.thalheim.io/s/gRJajwaJpyWn4iW","payment:cash":"yes","payment:credit_cards":"yes","payment:debit_cards":"yes","payment:orange_money":"yes","payment:telephone_cards":"yes","phone":"+26774566569","shop":"butcher"}},
{"type":"Feature","geometry":{"type":"LineString","coordinates":[[23.4392821,-19.9934827],[23.4395235,-19.9935987],[23.4392446,-19.9940776],[23.4389978,-19.9939465],[23.4392821,-19.9934827]]},"properties":{"building":"yes","name":"Spar","payment:cash":"yes","payment:credit_cards":"yes","payment:debit_cards":"yes","shop":"supermarket"}},
{"type":"Feature","geometry":{"type":"MultiPolygon","coordinates":[[[[27.510934,-21.179137],[27.5116517,-21.179263],[27.5117583,-21.1787345],[27.5117346,-21.1787304],[27.5118017,-21.1783981],[27.5114739,-21.1783405],[27.5115206,-21.1781092],[27.5114603,-21.1780986],[27.5115437,-21.1776854],[27.5116259,-21.1776999],[27.5116672,-21.1774954],[27.5120056,-21.1775548],[27.5120593,-21.1772887],[27.5113329,-21.1771612],[27.510934,-21.179137]]]]},"properties":{"building":"yes","name":"Game Store","name:en":"Game Store","shop":"supermarket"}},
{"type":"Feature","geometry":{"type":"MultiPolygon","coordinates":[[[[25.9132845,-24.6581051],[25.9132849,-24.6581779],[25.9132853,-24.6582373],[25.9142337,-24.6582323],[25.914235,-24.6584366],[25.9146579,-24.6584481],[25.9146566,-24.6582412],[25.915686,-24.6582221],[25.9156872,-24.6584113],[25.916293,-24.6584082],[25.9162919,-24.6582264],[25.9172404,-24.6582214],[25.9172416,-24.6584102],[25.9176843,-24.6584076],[25.9176829,-24.6582007],[25.9189385,-24.6581943],[25.9189378,-24.6580839],[25.9177378,-24.6580902],[25.9177365,-24.6578813],[25.9172352,-24.6578839],[25.9172366,-24.6580994],[25.9162884,-24.6581043],[25.9162872,-24.6579139],[25.915684,-24.6579171],[25.9156851,-24.6580907],[25.9147071,-24.6580959],[25.914706,-24.657921],[25.914233,-24.6579235],[25.9142341,-24.6581001],[25.9132845,-24.6581051]]]]},"properties":{"amenity":"marketplace","name":"Main Mall"}},
{"type":"Feature","geometry":{"type":"MultiPolygon","coordinates":[[[[24.7282846,-24.6003287],[24.7283123,-24.6003288],[24.7283122,-24.6003613],[24.7286527,-24.6003619],[24.728652,-24.6006982],[24.7288605,-24.6006985],[24.7288614,-24.6002561],[24.728781,-24.6002559],[24.7287811,-24.6002079],[24.7288568,-24.600208],[24.7288572,-24.6000458],[24.7283129,-24.6000448],[24.7283128,-24.6000843],[24.7282851,-24.6000843],[24.7282846,-24.6003287]],[[24.728657,-24.6002596],[24.728657,-24.6002182],[24.7287395,-24.6002182],[24.7287395,-24.6002596],[24.728657,-24.6002596]]]]},"properties":{"building":"yes","name":"Pick n Pay","shop":"supermarket"}},
{"type":"Feature","geometry":{"type":"MultiPolygon","coordinates":[[[[23.424517,-19.9893177],[23.4247751,-19.9895892],[23.425219,-19.9892067],[23.4252083,-19.9890177],[23.4250688,-19.9888614],[23.424517,-19.9893177]]]]},"properties":{"brand":"Shoprite","brand:wikidata":"Q1857639","building":"yes","name":"Shoprite","operator":"Shop Rite","shop":"supermarket"}},
{"type":"Feature","geometry":{"type":"MultiPolygon","coordinates":[[[[26.181252,-20.2102638],[26.1815235,-20.210472],[26.1816192,-20.2103622],[26.1816421,-20.2103359],[26.1813706,-20.2101276],[26.1813089,-20.2101984],[26.181252,-20.2102638]]]]},"properties":{"addr:street":"A3","addr:village":"Nata","building":"commercial","building:levels":"1","building:material":"cement_block","building:roof":"metal","name":"Convenience Store","shop":"convenience","source":"NMP HOT Field Survey","wall":"yes"}},
{"type":"Feature","geometry":{"type":"MultiPolygon","coordinates":[[[[23.43066,-19.9764436],[23.4307973,-19.976726],[23.4311004,-19.9765959],[23.4309631,-19.9763134],[23.4307426,-19.9764081],[23.43066,-19.9764436]]]]},"properties":{"brand":"Choppies","brand:wikidata":"Q5104860","building":"yes","name":"Choppies","opening_hours":"Mo-Su 08:00-20:00","shop":"supermarket"}},
{"type":"Feature","geometry":{"type":"MultiPolygon","coordinates":[[[[23.4316517,-19.9777704],[23.4316597,-19.9777918],[23.4317427,-19.9779861],[23.431771,-19.9779757],[23.4318365,-19.9779511],[23.432042,-19.9778747],[23.4319523,-19.9776596],[23.4316517,-19.9777704]]]]},"properties":{"brand":"Spar","brand:wikidata":"Q610492","brand:wikipedia":"en:Spar (retailer)","building":"yes","name":"Spar","shop":"supermarket"}},
{"type":"Feature","geometry":{"type":"MultiPolygon","coordinates":[[[[23.4313629,-19.9779038],[23.4314459,-19.9780981],[23.4316459,-19.9780226],[23.4317427,-19.9779861],[23.4316597,-19.9777918],[23.4315628,-19.9778284],[23.4313629,-19.9779038]]]]},"properties":{"building":"yes","shop":"supermarket"}},
{"type":"Feature","geometry":{"type":"MultiPolygon","coordinates":[[[[23.4211925,-19.9921313],[23.4213123,-19.992164],[23.4212788,-19.9922724],[23.4216735,-19.9923802],[23.4217353,-19.9921804],[23.421774,-19.9921909],[23.4218066,-19.9920854],[23.4212534,-19.9919343],[23.4211925,-19.9921313]]]]},"properties":{"brand":"Choppies","brand:wikidata":"Q5104860","building":"yes","name":"Choppies","shop":"supermarket"}},
{"type":"Feature","geometry":{"type":"MultiPolygon","coordinates":[[[[27.7500003,-21.8745321],[27.750176,-21.8746461],[27.7503061,-21.8744375],[27.7503597,-21.8744724],[27.7505153,-21.8742384],[27.7504563,-21.8741936],[27.750489,-21.8741261],[27.7504133,-21.8740492],[27.7504884,-21.8739646],[27.7503978,-21.8739121],[27.7502583,-21.8741112],[27.7503221,-21.8741488],[27.7501827,-21.8743479],[27.7501188,-21.8743303],[27.7500003,-21.8745321]]]]},"properties":{"description":"China Shops, Chicken Plus, FNB ATM","name":"Shopping Complex","shop":"supermarket"}},
{"type":"Feature","geometry":{"type":"MultiPolygon","coordinates":[[[[25.2334563,-17.7948],[25.2335426,-17.7948038],[25.2335436,-17.7947834],[25.2335874,-17.7947853],[25.2335914,-17.7947022],[25.2334613,-17.7946966],[25.2334563,-17.7948]]]]},"properties":{"building":"yes","shop":"convenience"}},
{"type":"Feature","geometry":{"type":"MultiPolygon","coordinates":[[[[26.0819679,-24.4077873],[26.0819962,-24.4078813],[26.0822393,-24.4078206],[26.0822462,-24.4078436],[26.0822772,-24.4078359],[26.0822921,-24.4078853],[26.0823364,-24.4078742],[26.0823509,-24.4079224],[26.0824319,-24.4079022],[26.0824068,-24.4078188],[26.0825155,-24.4077917],[26.082497,-24.4077302],[26.0823517,-24.4077664],[26.0823226,-24.4076698],[26.0821985,-24.4077008],[26.0822066,-24.4077278],[26.0819679,-24.4077873]]]]},"properties":{"name":"Shell Filling Station, Pilane","opening_hours":"24/7","shop":"convenience"}},
{"type":"Feature","geometry":{"type":"MultiPolygon","coordinates":[[[[25.1528385,-17.7956049],[25.1528736,-17.795631],[25.1529321,-17.7956743],[25.1529707,-17.7956272],[25.1532022,-17.7957987],[25.1532324,-17.795821],[25.1534962,-17.7954981],[25.1531408,-17.7952348],[25.1528385,-17.7956049]]]]},"properties":{"brand":"Spar","brand:wikidata":"Q610492","building":"yes","building:part":"yes","name":"Spar","shop":"supermarket"}},
{"type":"Feature","geometry":{"type":"MultiPolygon","coordinates":[[[[25.8672551,-24.8584644],[25.8672617,-24.8585853],[25.867331,-24.8585822],[25.8673244,-24.8584613],[25.8672551,-24.8584644]]]]},"properties":{"building":"yes","shop":"butcher"}},
{"type":"Feature","geometry":{"type":"MultiPolygon","coordinates":[[[[25.8547331,-24.8617705],[25.8552232,-24.8619725],[25.8553198,-24.8617796],[25.8548297,-24.8615776],[25.8547331,-24.8617705]]]]},"properties":{"building":"yes","name":"Choppies","shop":"supermarket"}},
{"type":"Feature","geometry":{"type":"MultiPolygon","coordinates":[[[[26.1838105,-20.2131458],[26.1840005,-20.2132588],[26.1840082,-20.2132474],[26.1840421,-20.213267599999999],[26.184068,-20.2132293],[26.1840341,-20.2132091],[26.1840553,-20.2131777],[26.184043,-20.2131704],[26.1840517,-20.2131575],[26.1839948,-20.2131236],[26.1839861,-20.2131366],[26.1838652,-20.2130647],[26.1838105,-20.2131458]]]]},"properties":{"addr:village":"Nata","building":"commercial","building:levels":"1","building:material":"cement_block","building:roof":"metal","shop":"convenience","source":"NMP HOT Field Survey","wall":"yes"}},
{"type":"Feature","geometry":{"type":"MultiPolygon","coordinates":[[[[21.7789046,-23.9995098],[21.778951,-23.9995267],[21.7789336,-23.9995666],[21.7792429,-23.9996789],[21.779298,-23.9995523],[21.7789424,-23.9994231],[21.7789046,-23.9995098]]]]},"properties":{"building":"commercial","shop":"supermarket"}},
{"type":"Feature","geometry":{"type":"MultiPolygon","coordinates":[[[[27.4453903,-20.6267303],[27.4458178,-20.6267822],[27.4458214,-20.6267569],[27.4458649,-20.6267622],[27.4458868,-20.6266041],[27.4457375,-20.6265859],[27.4457434,-20.6265434],[27.4454216,-20.6265043],[27.4453903,-20.6267303]]]]},"properties":{"building":"yes","name":"Choppies","shop":"supermarket"}},
{"type":"Feature","geometry":{"type":"MultiPolygon","coordinates":[[[[22.4519847,-20.1686861],[22.4520826,-20.1687875],[22.4521358,-20.1687421],[22.452038,-20.1686408],[22.4519847,-20.1686861]]]]},"properties":{"addr:village":"Tsau","building":"commercial","building:levels":"1","building:material":"cement_block","building:roof":"metal","shop":"convenience","source":"NMP HOT Field Survey","wall":"yes"}},
{"type":"Feature","geometry":{"type":"MultiPolygon","coordinates":[[[[21.8870149,-26.6650962],[21.8872378,-26.6651203],[21.887251,-26.6650234],[21.8871726,-26.665015],[21.8871766,-26.6649854],[21.8871294,-26.6649803],[21.8871251,-26.6650121],[21.8870277,-26.6650016],[21.8870149,-26.6650962]]]]},"properties":{"building":"yes","name":"Midbok","shop":"convenience"}},
{"type":"Feature","geometry":{"type":"MultiPolygon","coordinates":[[[[25.2600202,-20.2030528],[25.2603324,-20.2030499],[25.2603261,-20.2029641],[25.2600202,-20.20297],[25.2600202,-20.2030528]]]]},"properties":{"building":"yes","shop":"convenience"}},
{"type":"Feature","geometry":{"type":"MultiPolygon","coordinates":[[[[25.2507661,-20.2071634],[25.2508803,-20.2071695],[25.2508836,-20.2070684],[25.2507693,-20.2070623],[25.2507661,-20.2071634]]]]},"properties":{"building":"yes","name":"J&B Complexs","shop":"convenience"}},
{"type":"Feature","geometry":{"type":"MultiPolygon","coordinates":[[[[25.2586465,-20.2068652],[25.2587695,-20.2068806],[25.2587804,-20.206855],[25.2586547,-20.2068396],[25.2586465,-20.2068652]]]]},"properties":{"building":"yes","shop":"farm"}},
{"type":"Feature","geometry":{"type":"MultiPolygon","coordinates":[[[[25.0300973,-24.0970216],[25.030158,-24.0971711],[25.0301854,-24.0971618],[25.0302122,-24.0972277],[25.030287,-24.0972024],[25.0302602,-24.0971365],[25.0305434,-24.0970407],[25.0303636,-24.0965981],[25.0302182,-24.0966473],[25.0303372,-24.0969404],[25.0300973,-24.0970216]]]]},"properties":{"building":"yes","name":"Stores","shop":"convenience"}},
{"type":"Feature","geometry":{"type":"MultiPolygon","coordinates":[[[[25.2408743,-17.8058487],[25.2410603,-17.8059086],[25.2411364,-17.8056945],[25.2411965,-17.8057138],[25.2411227,-17.8059212],[25.2413034,-17.8059794],[25.2413802,-17.8057633],[25.2416316,-17.8058443],[25.2417233,-17.8055864],[25.2410453,-17.8053679],[25.2408743,-17.8058487]]]]},"properties":{"addr:village":"Kazungula","brand":"Choppies","brand:wikidata":"Q5104860","building":"commercial","building:levels":"1","building:material":"brick","building:roof":"metal","name":"Choppies","shop":"supermarket","source":"NMP HOT Field Survey","wall":"yes"}},
{"type":"Feature","geometry":{"type":"MultiPolygon","coordinates":[[[[28.4027622,-21.9850476],[28.4028466,-21.9851478],[28.4029948,-21.9850403],[28.4029103,-21.9849402],[28.4027622,-21.9850476]]]]},"properties":{"building":"yes","name":"Braai Kings Butcher Shop","shop":"butcher"}},
{"type":"Feature","geometry":{"type":"MultiPolygon","coordinates":[[[[27.9648412,-22.1887885],[27.964974,-22.1888108],[27.9650022,-22.1887077],[27.9648627,-22.1886804],[27.9648412,-22.1887885]]]]},"properties":{"building":"yes","shop":"butcher"}},
{"type":"Feature","geometry":{"type":"MultiPolygon","coordinates":[[[[26.1441339,-24.3927097],[26.1444152,-24.3927906],[26.1444338,-24.392737],[26.1444769,-24.3927495],[26.144552,-24.3927128],[26.1447835,-24.3927794],[26.1448779,-24.3925072],[26.1446366,-24.3924378],[26.1446513,-24.3924051],[26.14454,-24.3923636],[26.1445215,-24.3924047],[26.1442653,-24.392331],[26.1441339,-24.3927097]]]]},"properties":{"building":"yes","name":"Spar","shop":"supermarket"}},
{"type":"Feature","geometry":{"type":"MultiPolygon","coordinates":[[[[23.4906443,-19.9389238],[23.4906656,-19.9390245],[23.4908184,-19.938996],[23.4907972,-19.9388953],[23.4906443,-19.9389238]]]]},"properties":{"building":"yes","name":"The Little Shop","opening_hours":"Mo-Su 08:00-20:00","payment:cash":"yes","payment:coins":"yes","payment:notes":"yes","shop":"convenience"}},
{"type":"Feature","geometry":{"type":"MultiPolygon","coordinates":[[[[23.4123329,-19.9893085],[23.4124183,-19.9896369],[23.412722,-19.9895672],[23.4126366,-19.9892388],[23.4123329,-19.9893085]]]]},"properties":{"building":"yes","name":"Mr. Veg","shop":"supermarket"}},
{"type":"Feature","geometry":{"type":"MultiPolygon","coordinates":[[[[23.4117436,-19.9890789],[23.4119042,-19.9898189],[23.4123685,-19.9897299],[23.412208,-19.9889899],[23.4117436,-19.9890789]]]]},"properties":{"building":"yes","name":"Sefelana","shop":"supermarket"}},
{"type":"Feature","geometry":{"type":"MultiPolygon","coordinates":[[[[25.9398044,-24.6673568],[25.9398738,-24.6675202],[25.939886,-24.6675489],[25.9405702,-24.6673044],[25.9404788,-24.6671208],[25.940453,-24.6671298],[25.9398044,-24.6673568]]]]},"properties":{"building":"retail","name":"Choppies","shop":"supermarket"}},
{"type":"Feature","geometry":{"type":"MultiPolygon","coordinates":[[[[22.3989789,-26.0227079],[22.3990453,-26.0227185],[22.3990213,-26.0228397],[22.3996265,-26.0229363],[22.3996779,-26.022676],[22.3993289,-26.0226203],[22.399311,-26.0227108],[22.3989886,-26.0226593],[22.3989789,-26.0227079]]]]},"properties":{"building":"yes","name":"Sefalana","shop":"supermarket"}},
{"type":"Feature","geometry":{"type":"MultiPolygon","coordinates":[[[[25.310267,-23.6765557],[25.3103729,-23.6767451],[25.3104392,-23.676714],[25.3104313,-23.6766999],[25.3105395,-23.6766492],[25.3104948,-23.6765691],[25.310407,-23.6766103],[25.3103538,-23.676515],[25.310267,-23.6765557]]]]},"properties":{"building":"yes","shop":"bakery"}},
{"type":"Feature","geometry":{"type":"MultiPolygon","coordinates":[[[[25.2743822,-24.1810966],[25.2744144,-24.1811133],[25.274435,-24.1810804],[25.2744027,-24.1810636],[25.2743822,-24.1810966]]]]},"properties":{"building":"yes","shop":"convenience"}},
{"type":"Feature","geometry":{"type":"MultiPolygon","coordinates":[[[[25.2723473,-24.1795278],[25.2723704,-24.179559],[25.2724133,-24.1795325],[25.2723901,-24.1795013],[25.2723473,-24.1795278]]]]},"properties":{"building":"yes","shop":"convenience"}},
{"type":"Feature","geometry":{"type":"MultiPolygon","coordinates":[[[[25.9500321,-24.6816651],[25.9501121,-24.6816894],[25.9501828,-24.6817109],[25.9501736,-24.6817358],[25.9501685,-24.6817497],[25.9501597,-24.6817736],[25.9502719,-24.6818076],[25.9502807,-24.6817837],[25.9502858,-24.6817696],[25.950324,-24.681666],[25.9501427,-24.6816109],[25.9500611,-24.6815861],[25.9500321,-24.6816651]]]]},"properties":{"amenity":"fuel","building":"roof","fuel:diesel":"yes","name":"Puma","shop":"convenience","source":"Bing","source:name":"user: \"Calvin Rasefako; Changeset: 41252850\""}},
{"type":"Feature","geometry":{"type":"MultiPolygon","coordinates":[[[[25.9344211,-24.628966],[25.9346048,-24.6291166],[25.9346077,-24.6291181],[25.9347913,-24.6291029],[25.9349665,-24.6289261],[25.9350361,-24.628856],[25.9350586,-24.6288333],[25.9347606,-24.628589],[25.9346337,-24.6287169],[25.9346528,-24.6287326],[25.9346395,-24.6287459],[25.9346098,-24.6287216],[25.934534,-24.628798],[25.9345636,-24.6288222],[25.9344211,-24.628966]],[[25.9346688,-24.6287705],[25.9346849,-24.628755],[25.9347386,-24.6288011],[25.9347225,-24.6288166],[25.9346688,-24.6287705]],[[25.9347018,-24.6289454],[25.9347807,-24.6288613],[25.934755,-24.6288413],[25.9347699,-24.6288254],[25.9348241,-24.6288675],[25.9347302,-24.6289674],[25.9347018,-24.6289454]]]]},"properties":{"building":"yes","shop":"supermarket"}},
{"type":"Feature","geometry":{"type":"MultiPolygon","coordinates":[[[[28.5969858,-22.066839],[28.597015,-22.0669618],[28.5971988,-22.0669243],[28.5971695,-22.0668015],[28.5969858,-22.066839]]]]},"properties":{"building":"yes","name":"Molalatau Co-op/Bar","shop":"convenience"}},
{"type":"Feature","geometry":{"type":"MultiPolygon","coordinates":[[[[28.5987575,-22.0685363],[28.5988248,-22.0686637],[28.5989128,-22.0686237],[28.5988454,-22.0684964],[28.5987575,-22.0685363]]]]},"properties":{"building":"yes","name":"General Store","shop":"convenience"}},
{"type":"Feature","geometry":{"type":"MultiPolygon","coordinates":[[[[25.2005117,-17.7965098],[25.200616,-17.7965102],[25.200617,-17.7962384],[25.2005127,-17.796238],[25.2005117,-17.7965098]]]]},"properties":{"addr:village":"Kazungula","building":"yes","building:levels":"1","building:roof":"metal","name":"Fish Farm","shop":"farm","source":"NMP HOT Field Survey","wall":"no"}},
{"type":"Feature","geometry":{"type":"MultiPolygon","coordinates":[[[[21.9442138,-21.5222134],[21.9442355,-21.5222453],[21.9442752,-21.5222218],[21.9442535,-21.52219],[21.9442138,-21.5222134]]]]},"properties":{"building":"yes","name":"Ivy Street Vendor","payment:cash":"yes","payment:coins":"yes","shop":"convenience"}},
{"type":"Feature","geometry":{"type":"MultiPolygon","coordinates":[[[[27.7544345,-22.7993073],[27.7545543,-22.799429],[27.7546347,-22.7993618],[27.7546035,-22.7993302],[27.7546813,-22.7992651],[27.7545926,-22.799175],[27.7544345,-22.7993073]]]]},"properties":{"building":"yes","shop":"bakery"}},
{"type":"Feature","geometry":{"type":"MultiPolygon","coordinates":[[[[22.1623379,-19.3596448],[22.1624041,-19.3596521],[22.162411,-19.3595968],[22.1624044,-19.3595961],[22.1624082,-19.3595655],[22.162363,-19.3595605],[22.1623592,-19.3595907],[22.1623448,-19.3595891],[22.1623379,-19.3596448]]]]},"properties":{"addr:village":"Gumare","building":"commercial","building:levels":"1","building:material":"cement_block","building:roof":"metal","name":"Dorison Butchery","shop":"butcher","wall":"yes"}},
{"type":"Feature","geometry":{"type":"MultiPolygon","coordinates":[[[[25.9175975,-24.6108806],[25.9176592,-24.6108904],[25.9176538,-24.6109513],[25.9181876,-24.6110026],[25.9181876,-24.6109513],[25.918378,-24.6109587],[25.9183834,-24.6108197],[25.9180937,-24.6107928],[25.9180937,-24.610766],[25.9180723,-24.610766],[25.9180749,-24.6106953],[25.9176297,-24.6106612],[25.9175975,-24.6108806]]]]},"properties":{"amenity":"marketplace","name":"Choppies"}},
{"type":"Feature","geometry":{"type":"MultiPolygon","coordinates":[[[[25.8798668,-24.6405304],[25.8800714,-24.6409188],[25.88012,-24.6408976],[25.8802161,-24.64108],[25.8802923,-24.6410468],[25.8802087,-24.6408881],[25.8801909,-24.6408544],[25.8802663,-24.6408216],[25.8801616,-24.6406227],[25.8804754,-24.6404862],[25.8803809,-24.6403067],[25.8798668,-24.6405304]]]]},"properties":{"amenity":"marketplace","name":"Choppies"}},
{"type":"Feature","geometry":{"type":"MultiPolygon","coordinates":[[[[25.8850305,-24.6201625],[25.8853989,-24.6204129],[25.8856277,-24.6205784],[25.8858352,-24.6205563],[25.8859193,-24.6204571],[25.8859553,-24.6204823],[25.8860465,-24.6203747],[25.8860105,-24.6203495],[25.8863179,-24.6199869],[25.8861812,-24.6198918],[25.8858525,-24.6202697],[25.8858526,-24.6201942],[25.8855286,-24.6202215],[25.8855334,-24.620293],[25.8852142,-24.6200747],[25.8852504,-24.6200211],[25.885182,-24.6199808],[25.8850305,-24.6201625]]]]},"properties":{"amenity":"marketplace","name":"Spar"}},
{"type":"Feature","geometry":{"type":"MultiPolygon","coordinates":[[[[25.9053712,-24.5977826],[25.905562,-24.5979142],[25.9053893,-24.5981212],[25.9054983,-24.5981963],[25.905666,-24.5979953],[25.9056845,-24.5980081],[25.9058903,-24.5977613],[25.9058483,-24.5977324],[25.905873,-24.5977028],[25.9055966,-24.5975123],[25.9053712,-24.5977826]]]]},"properties":{"amenity":"marketplace","name":"Choppies"}},
{"type":"Feature","geometry":{"type":"MultiPolygon","coordinates":[[[[25.4184503,-24.7787399],[25.4185682,-24.7787697],[25.4185995,-24.7786674],[25.4184816,-24.7786376],[25.4184503,-24.7787399]]]]},"properties":{"building":"yes","name":"Choppies","shop":"supermarket"}},
{"type":"Feature","geometry":{"type":"MultiPolygon","coordinates":[[[[25.4174894,-24.7790139],[25.4175943,-24.779047],[25.417629,-24.7789563],[25.4175241,-24.7789233],[25.4174894,-24.7790139]]]]},"properties":{"building":"yes","name":"Mahummad Shop","shop":"supermarket"}},
{"type":"Feature","geometry":{"type":"MultiPolygon","coordinates":[[[[25.7992402,-24.6574708],[25.7993019,-24.6575732],[25.7993288,-24.6575513],[25.7993448,-24.6575805],[25.7993717,-24.6575001],[25.7993019,-24.6574001],[25.799251,-24.6574343],[25.7992617,-24.6574513],[25.7992402,-24.6574708]]]]},"properties":{"building":"yes","shop":"butcher"}},
{"type":"Feature","geometry":{"type":"MultiPolygon","coordinates":[[[[25.7927752,-24.659356],[25.7928204,-24.6596475],[25.7929325,-24.6596331],[25.7929207,-24.6595568],[25.793119,-24.6595314],[25.7931387,-24.6596058],[25.7932487,-24.6595976],[25.7932778,-24.6594787],[25.7931285,-24.659308],[25.7927752,-24.659356]]]]},"properties":{"building":"yes","name":"SaveRite Supermarket","shop":"supermarket"}},
{"type":"Feature","geometry":{"type":"MultiPolygon","coordinates":[[[[25.7897678,-24.6617859],[25.789915,-24.6620896],[25.7898577,-24.6621125],[25.7898915,-24.6621823],[25.7899768,-24.6621482],[25.7899861,-24.6621672],[25.7902104,-24.6620775],[25.7900696,-24.6617868],[25.7900202,-24.6616849],[25.7897678,-24.6617859]]]]},"properties":{"building":"yes","name":"Choppies Supermarket","shop":"supermarket"}},
{"type":"Feature","geometry":{"type":"MultiPolygon","coordinates":[[[[25.7818354,-24.6664808],[25.7818461,-24.6665295],[25.7819829,-24.6665051],[25.7819695,-24.6664539],[25.7818354,-24.6664808]]]]},"properties":{"building":"yes","name":"Matlhaselwa","shop":"butcher"}},
{"type":"Feature","geometry":{"type":"MultiPolygon","coordinates":[[[[25.7806034,-24.6686744],[25.7807156,-24.6686885],[25.7807451,-24.6685739],[25.7806209,-24.6685487],[25.7806034,-24.6686744]]]]},"properties":{"building":"yes","shop":"butcher"}},
{"type":"Feature","geometry":{"type":"MultiPolygon","coordinates":[[[[27.7490944,-21.8749958],[27.7492365,-21.875101],[27.7494397,-21.8748646],[27.7492975,-21.8747594],[27.7490944,-21.8749958]]]]},"properties":{"building":"yes","name":"Saverite","shop":"supermarket"}},
{"type":"Feature","geometry":{"type":"MultiPolygon","coordinates":[[[[25.7358101,-25.0493997],[25.7360247,-25.0494386],[25.7360247,-25.0493912],[25.7361119,-25.0494033],[25.7361125,-25.049384],[25.7361132,-25.0493608],[25.7358249,-25.0492733],[25.7358101,-25.0493997]]]]},"properties":{"building":"yes","name":"Camphill Community Trust Motse Wa Badiri Vocational Training Center","shop":"supermarket"}},
{"type":"Feature","geometry":{"type":"MultiPolygon","coordinates":[[[[25.7360689,-25.0495103],[25.7361655,-25.0495443],[25.7361937,-25.049407],[25.7361125,-25.049384],[25.7360689,-25.0495103]]]]},"properties":{"building":"yes","name":"Camphill Community Trust Motse Wa Badiri Vocational Training Center","shop":"supermarket"}},
{"type":"Feature","geometry":{"type":"MultiPolygon","coordinates":[[[[23.3547181,-19.2387816],[23.3548039,-19.238824],[23.3548353,-19.2387673],[23.3547495,-19.2387249],[23.3547181,-19.2387816]]]]},"properties":{"building":"yes","name":"Tuck Shop & Xomae Office","shop":"convenience"}},
{"type":"Feature","geometry":{"type":"MultiPolygon","coordinates":[[[[25.910996,-24.6216002],[25.911365,-24.6222746],[25.9118262,-24.6220474],[25.9114534,-24.621394],[25.910996,-24.6216002]]]]},"properties":{"building":"yes","shop":"supermarket"}},
{"type":"Feature","geometry":{"type":"MultiPolygon","coordinates":[[[[25.782423,-24.6673499],[25.7824344,-24.6674261],[25.7824894,-24.6674193],[25.7824957,-24.6674613],[25.7826023,-24.6674482],[25.7825846,-24.66733],[25.782423,-24.6673499]]]]},"properties":{"building":"yes","shop":"butcher"}},
{"type":"Feature","geometry":{"type":"MultiPolygon","coordinates":[[[[20.8586087,-22.1430063],[20.8587538,-22.1430541],[20.8587755,-22.1429975],[20.8586304,-22.1429496],[20.8586087,-22.1430063]]]]},"properties":{"building":"yes","name":"Kalkfontein General dealer","shop":"convenience","wheelchair":"no"}},
{"type":"Feature","geometry":{"type":"MultiPolygon","coordinates":[[[[26.8440539,-23.0969324],[26.8445058,-23.0970957],[26.8445143,-23.0970787],[26.8447233,-23.0971665],[26.8447493,-23.0971141],[26.8449564,-23.0972011],[26.8450701,-23.0969721],[26.8449684,-23.0969294],[26.8450617,-23.0967415],[26.8451502,-23.0967787],[26.8452956,-23.0964859],[26.8451722,-23.0964341],[26.845154,-23.0964706],[26.8450482,-23.0964262],[26.8450646,-23.0963933],[26.8449538,-23.0963468],[26.8450926,-23.096067],[26.8452246,-23.0961224],[26.8452497,-23.0960716],[26.8451223,-23.0960181],[26.845256,-23.0957485],[26.8454832,-23.0958438],[26.845517,-23.0957756],[26.8456135,-23.0958161],[26.845578,-23.0958876],[26.8456467,-23.0959164],[26.8457765,-23.0956551],[26.8456974,-23.0956218],[26.8456608,-23.0956954],[26.8455786,-23.0956608],[26.8456149,-23.0955879],[26.8454272,-23.095509],[26.8454109,-23.0955417],[26.8448982,-23.0953258],[26.8446918,-23.0957407],[26.8447537,-23.0957668],[26.8446651,-23.0959449],[26.8446213,-23.0959265],[26.8445932,-23.0959829],[26.8446428,-23.0960037],[26.8446334,-23.0960225],[26.8446532,-23.0960308],[26.8445774,-23.0961832],[26.844544,-23.0961691],[26.8444229,-23.0964124],[26.8444475,-23.0964228],[26.8444286,-23.0964607],[26.8444055,-23.0964509],[26.8442918,-23.0966796],[26.8442369,-23.0966564],[26.8440539,-23.0969324]]]]},"properties":{"amenity":"marketplace","building":"yes","name":"Watershed Piazza Mall"}},
{"type":"Feature","geometry":{"type":"MultiPolygon","coordinates":[[[[27.2193731,-22.6664999],[27.2194391,-22.6665876],[27.2194866,-22.6665571],[27.219501,-22.6665761],[27.2195723,-22.6665303],[27.219492,-22.6664237],[27.2193731,-22.6664999]]]]},"properties":{"addr:city":"Lecheng","building":"yes","name":"Saverite","shop":"supermarket"}},
{"type":"Feature","geometry":{"type":"MultiPolygon","coordinates":[[[[27.1248111,-22.5296043],[27.1248869,-22.529616],[27.1248782,-22.5296642],[27.1250064,-22.5296839],[27.1250574,-22.5294012],[27.1248534,-22.5293698],[27.1248111,-22.5296043]]]]},"properties":{"building":"yes","name":"Saverite","shop":"supermarket"}},
{"type":"Feature","geometry":{"type":"MultiPolygon","coordinates":[[[[27.1247012,-22.5301919],[27.1249179,-22.530215],[27.1249314,-22.530107],[27.12498,-22.5301122],[27.1249869,-22.5300568],[27.1247472,-22.5300312],[27.1247441,-22.530056],[27.1247684,-22.5300586],[27.1247562,-22.5301565],[27.1247063,-22.5301512],[27.1247012,-22.5301919]]]]},"properties":{"building":"yes","name":"Thaba Ntle Butchery","shop":"butcher"}},
{"type":"Feature","geometry":{"type":"MultiPolygon","coordinates":[[[[27.0804137,-22.5611569],[27.0805504,-22.5615888],[27.080534,-22.5615932],[27.080544,-22.5616248],[27.0805823,-22.5616144],[27.0806933,-22.5619651],[27.080699,-22.5619792],[27.0807089,-22.5619912],[27.080722,-22.5620001],[27.080737,-22.5620052],[27.0807529,-22.5620062],[27.0807685,-22.5620031],[27.0808221,-22.5619887],[27.0807649,-22.5618077],[27.0810437,-22.5613375],[27.082031,-22.561071],[27.0820849,-22.5609802],[27.0827505,-22.5608005],[27.0826638,-22.5605266],[27.0816822,-22.5607915],[27.0817044,-22.5608617],[27.0812999,-22.5609708],[27.0813212,-22.5610379],[27.0808533,-22.5611641],[27.0808166,-22.5610482],[27.0804137,-22.5611569]]]]},"properties":{"building":"retail","name":"Foodlovers","shop":"supermarket"}},
{"type":"Feature","geometry":{"type":"MultiPolygon","coordinates":[[[[25.5704814,-25.3318794],[25.5705563,-25.331886],[25.5705573,-25.3318768],[25.5705984,-25.3318804],[25.5705995,-25.3318704],[25.5706879,-25.3318782],[25.5706816,-25.3319368],[25.570708,-25.3319391],[25.5707061,-25.3319568],[25.570744,-25.3319602],[25.5707456,-25.3319453],[25.5707767,-25.331948],[25.5707871,-25.3318513],[25.5707447,-25.3318475],[25.5707483,-25.3318134],[25.5705734,-25.331798],[25.570575,-25.3317833],[25.5704925,-25.3317761],[25.5704814,-25.3318794]]]]},"properties":{"building":"yes","shop":"supermarket"}},
{"type":"Feature","geometry":{"type":"MultiPolygon","coordinates":[[[[26.8209402,-23.1151896],[26.8211987,-23.1152106],[26.8211995,-23.1150702],[26.8209565,-23.1150593],[26.8209402,-23.1151896]]]]},"properties":{"building":"yes","building:levels":"1","name":"Makays Butchers","opening_hours":"Mo-Sa 08:30-18:00; Su 09:00-18:00","operator:website":"https://cloud.thalheim.io/s/gRJajwaJpyWn4iW","payment:cash":"yes","payment:credit_cards":"yes","payment:debit_cards":"yes","payment:orange_money":"yes","payment:telephone_cards":"yes","phone":"+26774566569","shop":"butcher"}},
{"type":"Feature","geometry":{"type":"MultiPolygon","coordinates":[[[[23.4389978,-19.9939465],[23.4392446,-19.9940776],[23.4395235,-19.9935987],[23.4392821,-19.9934827],[23.4389978,-19.9939465]]]]},"properties":{"building":"yes","name":"Spar","payment:cash":"yes","payment:credit_cards":"yes","payment:debit_cards":"yes","shop":"supermarket"}}
]}
