{"type":"FeatureCollection","features":[
{"type":"Feature","geometry":{"type":"Point","coordinates":[43.2533368,-11.7041947]},"properties":{"amenity":"marketplace","name":"Marché"}},
{"type":"Feature","geometry":{"type":"Point","coordinates":[43.2547699,-11.6977716]},"properties":{"name":"MAG","opening_hours":"Mo-Sa 09:00-21:00; Su 09:00-14:00","shop":"supermarket","source":"Kaart Ground Survey 2017"}},
{"type":"Feature","geometry":{"type":"Point","coordinates":[44.4018679,-12.1621462]},"properties":{"internet_access":"wlan","shop":"bakery"}},
{"type":"Feature","geometry":{"type":"Point","coordinates":[44.4016873,-12.1631011]},"properties":{"fixme":"empty key for:confectionery","name":"LADA","shop":"bakery"}},
{"type":"Feature","geometry":{"type":"Point","coordinates":[44.3966935,-12.1682311]},"properties":{"addr:city":"Mutsamudu","amenity":"marketplace","name":"Marché municipal de Hampanga","operator":"Commune de Mutsamudu"}},
{"type":"Feature","geometry":{"type":"Point","coordinates":[43.2665314,-11.6743808]},"properties":{"name":"Boulangerie Parisserie Wawa","shop":"bakery"}},
{"type":"Feature","geometry":{"type":"Point","coordinates":[43.386344,-11.5184838]},"properties":{"name":"Boulangerie Wawa مخبز واوا","name:ar":"مخبز واوا","name:fr":"Boulangerie Wawa","shop":"bakery"}},
{"type":"Feature","geometry":{"type":"Point","coordinates":[43.2507465,-11.7052244]},"properties":{"amenity":"marketplace","name":"Ancien marché de Moroni"}},
{"type":"Feature","geometry":{"type":"Point","coordinates":[43.256091,-11.6916943]},"properties":{"amenity":"marketplace","name":"Le Grand Marché Couvert Volovolo"}},
{"type":"Feature","geometry":{"type":"Point","coordinates":[43.2556253,-11.7019073]},"properties":{"addr:city":"موروني","addr:street":"شارع الجامعة العربية","name":"Sara سارة","name:ar":"سارة","name:en":"Sara","name:fr":"Sara","shop":"supermarket"}},
{"type":"Feature","geometry":{"type":"Point","coordinates":[43.2556674,-11.7008819]},"properties":{"name":"Bon Marché","shop":"convenience"}},
{"type":"Feature","geometry":{"type":"Point","coordinates":[43.2556748,-11.7007701]},"properties":{"name":"Boulangerie Salim Waddane","shop":"bakery"}},
{"type":"Feature","geometry":{"type":"Point","coordinates":[43.2643082,-11.67816]},"properties":{"shop":"supermarket","source":"Kaart Ground Survey 2017"}},
{"type":"Feature","geometry":{"type":"Point","coordinates":[43.2604833,-11.6851641]},"properties":{"name":"Sawaprix","shop":"supermarket","source":"Kaart Ground Survey 2017"}},
{"type":"Feature","geometry":{"type":"Point","coordinates":[43.2622317,-11.6831461]},"properties":{"name":"Legumes","shop":"supermarket","source":"Kaart Ground Survey 2017"}},
{"type":"Feature","geometry":{"type":"Point","coordinates":[43.260389,-11.6900368]},"properties":{"shop":"convenience","source":"Kaart Ground Survey 2017"}},
{"type":"Feature","geometry":{"type":"Point","coordinates":[43.2583217,-11.6905169]},"properties":{"addr:city":"Moroni","addr:street":"Rue de la COI","name":"Épicerie Kamok","shop":"supermarket"}},
{"type":"Feature","geometry":{"type":"Point","coordinates":[43.2626024,-11.6917417]},"properties":{"name":"Epicerie Foundi Said","shop":"convenience","source":"Kaart Ground Survey 2017"}},
{"type":"Feature","geometry":{"type":"Point","coordinates":[43.2673178,-11.690456]},"properties":{"addr:city":"موروني","name":"Marché de Max سوق ماكس","name:ar":"سوق ماكس","name:en":"Max's Market","name:fr":"Marché de Max","shop":"convenience","source":"Kaart Ground Survey 2017"}},
{"type":"Feature","geometry":{"type":"Point","coordinates":[43.2558745,-11.7010588]},"properties":{"addr:city":"موروني","addr:street":"شارع الجامعة العربية","name":"Sara  سارة","name:ar":"سارة","name:fr":"Sara","shop":"supermarket","source":"Kaart Ground Survey 2017"}},
{"type":"Feature","geometry":{"type":"Point","coordinates":[43.2576356,-11.695239]},"properties":{"addr:city":"Moroni موروني","addr:street":"Boulevard Karthala","name":"Les Doigts Verts","shop":"supermarket","source":"Kaart Ground Survey 2017"}},
{"type":"Feature","geometry":{"type":"Point","coordinates":[43.2583613,-11.6908093]},"properties":{"addr:street":"Rue de la COI","name":"Top Shop","shop":"convenience","source":"Kaart Ground Survey 2017"}},
{"type":"Feature","geometry":{"type":"Point","coordinates":[43.2571764,-11.6901759]},"properties":{"name":"Swa Prih Al-Camar","shop":"convenience","source":"Kaart Ground Survey 2017"}},
{"type":"Feature","geometry":{"type":"Point","coordinates":[43.2580797,-11.6886467]},"properties":{"addr:street":"Rue de l'Union Africaine","name":"Magasin Baraka","shop":"convenience","source":"Kaart Ground Survey 2017"}},
{"type":"Feature","geometry":{"type":"Point","coordinates":[43.2568561,-11.6903237]},"properties":{"amenity":"marketplace","name":"Sara"}},
{"type":"Feature","geometry":{"type":"Point","coordinates":[43.2543333,-11.7041335]},"properties":{"addr:city":"Moroni","addr:street":"Boulevard Karthala","name":"Boucherie Nafasse","shop":"butcher","source":"Kaart Ground Survey 2017"}},
{"type":"Feature","geometry":{"type":"Point","coordinates":[43.2523067,-11.7086796]},"properties":{"addr:city":"Moroni","addr:street":"RN2 - Boulevard Karthala","name":"Netad","shop":"convenience","source":"Kaart Ground Survey 2017"}},
{"type":"Feature","geometry":{"type":"Point","coordinates":[43.2525445,-11.7101133]},"properties":{"addr:street":"Boulevard Karthala","name":"Magasin Papa Caltex","shop":"convenience","source":"Kaart Ground Survey 2017"}},
{"type":"Feature","geometry":{"type":"Point","coordinates":[43.2494376,-11.7097021]},"properties":{"name":"Wasta","shop":"bakery","source":"Kaart Ground Survey 2017"}},
{"type":"Feature","geometry":{"type":"Point","coordinates":[43.2495204,-11.7097433]},"properties":{"name":"Mag Market","shop":"supermarket","source":"Kaart Ground Survey 2017"}},
{"type":"Feature","geometry":{"type":"Point","coordinates":[43.2520638,-11.7100393]},"properties":{"name":"Magasin Muigni Melina","shop":"convenience","source":"Kaart Ground Survey 2017"}},
{"type":"Feature","geometry":{"type":"Point","coordinates":[43.2519087,-11.7100675]},"properties":{"name":"Magasin Zipvahou","shop":"convenience","source":"Kaart Ground Survey 2017"}},
{"type":"Feature","geometry":{"type":"Point","coordinates":[43.2455897,-11.7150266]},"properties":{"addr:street":"Boulevard de la République Poulaire de China","name":"Sawaprix","shop":"supermarket","source":"Kaart Ground Survey 2017"}},
{"type":"Feature","geometry":{"type":"Point","coordinates":[43.253931,-11.7073013]},"properties":{"name":"Express Alimentation","shop":"convenience","source":"Kaart Ground Survey 2017"}},
{"type":"Feature","geometry":{"type":"Point","coordinates":[43.2522685,-11.7081151]},"properties":{"addr:street":"RN2 - Boulevard Karthala","name":"Magasin Abdallah Fils","shop":"convenience","source":"Kaart Ground Survey 2017"}},
{"type":"Feature","geometry":{"type":"Point","coordinates":[43.250939,-11.7173275]},"properties":{"addr:street":"RN2 - Boulevard Karthala","shop":"convenience","source":"Kaart Ground Survey 2017"}},
{"type":"Feature","geometry":{"type":"Point","coordinates":[43.2344983,-11.7421767]},"properties":{"addr:city":"Iconi","name":"Le Charmy","shop":"convenience","source":"Kaart Ground Survey 2017"}},
{"type":"Feature","geometry":{"type":"Point","coordinates":[43.2383959,-11.7415928]},"properties":{"addr:city":"Iconi","shop":"convenience","source":"Kaart Ground Survey 2017"}},
{"type":"Feature","geometry":{"type":"Point","coordinates":[43.232246,-11.7463588]},"properties":{"name":"Nadhoime Abdou","shop":"convenience"}},
{"type":"Feature","geometry":{"type":"Point","coordinates":[43.7422608,-12.2852893]},"properties":{"name":"Magasin Lila","shop":"convenience"}},
{"type":"Feature","geometry":{"type":"Point","coordinates":[43.742431,-12.2852221]},"properties":{"name":"Magasin Mohamed Mouhoudoir","shop":"convenience"}},
{"type":"Feature","geometry":{"type":"Point","coordinates":[43.7415426,-12.2847656]},"properties":{"name":"Magasin Soifone","shop":"convenience"}},
{"type":"Feature","geometry":{"type":"Point","coordinates":[43.8678017,-12.3698718]},"properties":{"shop":"convenience"}},
{"type":"Feature","geometry":{"type":"Point","coordinates":[43.8682951,-12.3709488]},"properties":{"shop":"convenience"}},
{"type":"Feature","geometry":{"type":"Point","coordinates":[43.745733,-12.2871293]},"properties":{"shop":"bakery"}},
{"type":"Feature","geometry":{"type":"Point","coordinates":[44.3971529,-12.1656471]},"properties":{"name":"Pizza Al-Bachachah","phone":"+2693693790","shop":"bakery"}},
{"type":"Feature","geometry":{"type":"Point","coordinates":[44.4287616,-12.136079]},"properties":{"shop":"supermarket"}},
{"type":"Feature","geometry":{"type":"Point","coordinates":[43.2432945,-11.7290649]},"properties":{"name":"Boulangerie Malouzini","shop":"bakery"}},
{"type":"Feature","geometry":{"type":"Point","coordinates":[43.2527814,-11.6956144]},"properties":{"name":"Moina Hadid Ja","shop":"convenience"}},
{"type":"Feature","geometry":{"type":"Point","coordinates":[43.2570817,-11.7090192]},"properties":{"shop":"convenience"}},
{"type":"Feature","geometry":{"type":"Point","coordinates":[43.2519161,-11.7064309]},"properties":{"name":"Kinani","shop":"convenience"}},
{"type":"Feature","geometry":{"type":"Point","coordinates":[43.25166,-11.7061607]},"properties":{"shop":"convenience"}},
{"type":"Feature","geometry":{"type":"Point","coordinates":[43.2517021,-11.7061893]},"properties":{"shop":"convenience"}},
{"type":"Feature","geometry":{"type":"Point","coordinates":[43.2516633,-11.7059257]},"properties":{"shop":"convenience"}},
{"type":"Feature","geometry":{"type":"Point","coordinates":[43.2553678,-11.7053681]},"properties":{"name":"Nadia","shop":"convenience"}},
{"type":"Feature","geometry":{"type":"Point","coordinates":[44.410252,-12.1614767]},"properties":{"shop":"convenience","source":"known"}},
{"type":"Feature","geometry":{"type":"Point","coordinates":[43.2458474,-11.713849]},"properties":{"name":"Vanillacom","shop":"convenience"}},
{"type":"Feature","geometry":{"type":"Point","coordinates":[43.2511778,-11.7043412]},"properties":{"name":"Patti's délices","shop":"bakery"}},
{"type":"Feature","geometry":{"type":"Point","coordinates":[43.2570801,-11.6822358]},"properties":{"name":"Marché Akyl","shop":"supermarket"}},
{"type":"Feature","geometry":{"type":"Point","coordinates":[43.2531703,-11.7020684]},"properties":{"shop":"bakery"}},
{"type":"Feature","geometry":{"type":"Point","coordinates":[43.2484921,-11.7060953]},"properties":{"name":"Fruits et légumes","shop":"farm"}},
{"type":"Feature","geometry":{"type":"Point","coordinates":[43.2426198,-11.7309168]},"properties":{"name":"Cocopalm","shop":"supermarket"}},
{"type":"Feature","geometry":{"type":"Point","coordinates":[43.2450027,-11.7318049]},"properties":{"name":"AGK","shop":"convenience"}},
{"type":"Feature","geometry":{"type":"Point","coordinates":[43.7173337,-12.3666333]},"properties":{"shop":"convenience"}},
{"type":"Feature","geometry":{"type":"Point","coordinates":[43.8687849,-12.3700576]},"properties":{"shop":"convenience"}},
{"type":"Feature","geometry":{"type":"Point","coordinates":[43.8687889,-12.3703559]},"properties":{"shop":"convenience"}},
{"type":"Feature","geometry":{"type":"Point","coordinates":[43.2363392,-11.742014]},"properties":{"shop":"convenience"}},
{"type":"Feature","geometry":{"type":"LineString","coordinates":[[43.2749334,-11.7204643],[43.2748583,-11.7204906],[43.2748207,-11.720396],[43.2749012,-11.720375],[43.2749334,-11.7204643]]},"properties":{"amenity":"marketplace","name":"Marché Sirkali Ya Djuwu"}},
{"type":"Feature","geometry":{"type":"LineString","coordinates":[[44.520832,-12.3252028],[44.5208652,-12.3254387],[44.5210197,-12.3254179],[44.5209864,-12.325182],[44.520832,-12.3252028]]},"properties":{"amenity":"marketplace","name":"bazar"}},
{"type":"Feature","geometry":{"type":"LineString","coordinates":[[43.2777364,-11.6751458],[43.277657,-11.6751595],[43.277671,-11.6749994],[43.2777457,-11.6749972],[43.2777433,-11.6750357],[43.2777364,-11.6751458]]},"properties":{"amenity":"marketplace","building":"yes"}},
{"type":"Feature","geometry":{"type":"LineString","coordinates":[[43.266072,-11.7315398],[43.2662775,-11.7315432],[43.2662716,-11.731733],[43.2660381,-11.7317307],[43.266072,-11.7315398]]},"properties":{"addr:city":"Mkazi","amenity":"marketplace","name":"Marché des femmes"}},
{"type":"Feature","geometry":{"type":"LineString","coordinates":[[43.2777384,-11.6742705],[43.2779368,-11.6742705],[43.2779368,-11.6743913],[43.2777384,-11.6743913],[43.2777384,-11.6742705]]},"properties":{"amenity":"marketplace","building":"yes"}},
{"type":"Feature","geometry":{"type":"LineString","coordinates":[[43.2586649,-11.6980548],[43.2586261,-11.698118],[43.2585537,-11.6980754],[43.2585925,-11.6980122],[43.2586649,-11.6980548]]},"properties":{"amenity":"marketplace","building":"yes","building:condition":"poor","building:levels":"1","building:material":"metal","comoros-dgsc:code":"moroni-G1-61","roof:material":"metal","source":"#opendri-comoros;survey","source:geometry":"bing"}},
{"type":"Feature","geometry":{"type":"LineString","coordinates":[[43.2583035,-11.6997959],[43.2582913,-11.6998171],[43.2582258,-11.6997677],[43.2582606,-11.6997306],[43.2583086,-11.6997628],[43.2582926,-11.6997865],[43.2583035,-11.6997959]]},"properties":{"amenity":"marketplace","building":"yes","building:condition":"poor","building:levels":"1","building:material":"metal","comoros-dgsc:code":"Moroni_I2_191","roof:material":"metal","source":"#opendri-comoros;survey","source:geometry":"Bing"}},
{"type":"Feature","geometry":{"type":"LineString","coordinates":[[43.2580582,-11.6994519],[43.2580823,-11.6994674],[43.2580898,-11.6994563],[43.2581236,-11.6994782],[43.2581089,-11.6995],[43.2581709,-11.6995401],[43.2581388,-11.6995877],[43.2580207,-11.6995115],[43.2580189,-11.6995103],[43.2580582,-11.6994519]]},"properties":{"amenity":"marketplace","building":"yes","building:condition":"average","building:levels":"1","building:material":"metal","comoros-dgsc:code":"Moroni_I2_181","roof:material":"metal","source":"#opendri-comoros;survey","source:geometry":"Bing"}},
{"type":"Feature","geometry":{"type":"LineString","coordinates":[[43.2543504,-11.7039354],[43.2542314,-11.7040447],[43.2541211,-11.7039295],[43.2541937,-11.7038628],[43.2541859,-11.7038547],[43.2542323,-11.7038121],[43.2543504,-11.7039354]]},"properties":{"addr:city":"Moroni","addr:street":"Boulevard Karthala","amenity":"marketplace","building":"yes","source":"#opendri-comoros","source:geometry":"Bing","source_1":"Kaart Ground Survey 2017"}},
{"type":"Feature","geometry":{"type":"LineString","coordinates":[[43.2516747,-11.6999833],[43.2517042,-11.7001352],[43.2514731,-11.7001782],[43.2514436,-11.7000263],[43.2516747,-11.6999833]]},"properties":{"addr:street":"Rue de la Corniche","building":"commercial","building:condition":"good","building:levels":"2","building:material":"brick","comoros-dgsc:code":"moroni-I1-11","name":"MAG Market","roof:material":"metal","shop":"supermarket","source":"#opendri-comoros;survey","source:geometry":"bing","source_1":"Kaart Ground Survey 2017"}},
{"type":"Feature","geometry":{"type":"LineString","coordinates":[[43.2494662,-11.7060898],[43.2493576,-11.7061715],[43.2492725,-11.7060443],[43.2493822,-11.7059705],[43.2494662,-11.7060898]]},"properties":{"amenity":"marketplace","building":"yes","building:condition":"poor","roof:material":"metal","source":"#opendri-comoros","source:geometry":"bing"}},
{"type":"Feature","geometry":{"type":"LineString","coordinates":[[43.2493611,-11.7065769],[43.2492467,-11.7065299],[43.2492721,-11.7064706],[43.2486361,-11.7062095],[43.2486901,-11.7060834],[43.2494405,-11.7063914],[43.2493611,-11.7065769]]},"properties":{"addr:street":"Rue Itsambuni","building":"yes","building:condition":"poor","name":"Supermarché KomoCash Centre","roof:material":"metal","shop":"supermarket","source":"#opendri-comoros","source:geometry":"bing","source_1":"Kaart Ground Survey 2017"}},
{"type":"Feature","geometry":{"type":"LineString","coordinates":[[43.2714169,-11.6611023],[43.2715014,-11.6611417],[43.2714656,-11.6612154],[43.2713811,-11.661176],[43.2714169,-11.6611023]]},"properties":{"amenity":"marketplace","building":"yes","building:condition":"average","building:levels":"1","building:material":"brick","comoros-dgsc:code":"Ntsoudjini_D2_03","roof:material":"metal","source":"#opendri-comoros;survey","source:geometry":"bing"}},
{"type":"Feature","geometry":{"type":"LineString","coordinates":[[43.2876842,-11.8438925],[43.2877126,-11.8439382],[43.2876685,-11.8439649],[43.2876401,-11.8439192],[43.2876842,-11.8438925]]},"properties":{"amenity":"marketplace","building":"yes","building:condition":"average","building:levels":"1","building:material":"concrete","comoros-dgsc:code":"Bangoi-D1-8","roof:material":"metal","source":"#opendri-comoros;survey","source:geometry":"bing"}},
{"type":"Feature","geometry":{"type":"LineString","coordinates":[[43.288757,-11.8438711],[43.2886975,-11.8439043],[43.2886843,-11.8438816],[43.2887084,-11.8438682],[43.2886915,-11.8438391],[43.2887269,-11.8438194],[43.288757,-11.8438711]]},"properties":{"amenity":"marketplace","building":"yes","building:condition":"average","building:levels":"1","building:material":"metal","comoros-dgsc:code":"Bangoi-D1-22","roof:material":"metal","source":"#opendri-comoros;survey","source:geometry":"bing"}},
{"type":"Feature","geometry":{"type":"LineString","coordinates":[[43.2879518,-11.8439701],[43.2879576,-11.8440282],[43.288008,-11.8440234],[43.2880022,-11.8439653],[43.2879518,-11.8439701]]},"properties":{"amenity":"marketplace","building":"yes","building:condition":"poor","building:levels":"1","building:material":"metal","comoros-dgsc:code":"Bangoi-D1-5","roof:material":"metal","source":"#opendri-comoros;survey","source:geometry":"bing"}},
{"type":"Feature","geometry":{"type":"LineString","coordinates":[[43.2895381,-11.8431895],[43.289578,-11.8432403],[43.2896307,-11.8432006],[43.2895908,-11.8431498],[43.2895381,-11.8431895]]},"properties":{"amenity":"marketplace","building":"residential","building:condition":"poor","building:levels":"1","building:material":"brick","comoros-dgsc:code":"Bangoi-C2-7","name":"Mze Abdallah Djae","roof:material":"metal","source":"#opendri-comoros;survey","source:geometry":"Bing"}},
{"type":"Feature","geometry":{"type":"LineString","coordinates":[[43.2651411,-11.6766963],[43.265214,-11.6767237],[43.2651587,-11.6768647],[43.2650859,-11.6768373],[43.2651411,-11.6766963]]},"properties":{"amenity":"marketplace","building":"yes","building:condition":"good","building:levels":"2","building:material":"brick","comoros-dgsc:code":"ITSANDRA_C3_32","roof:material":"metal","source":"#opendri-comoros;survey","source:geometry":"bing"}},
{"type":"Feature","geometry":{"type":"LineString","coordinates":[[43.2596451,-11.6960452],[43.2597039,-11.6960716],[43.2596746,-11.6961349],[43.2596158,-11.6961085],[43.2596451,-11.6960452]]},"properties":{"amenity":"marketplace","building":"yes","building:condition":"poor","building:levels":"1","building:material":"metal","comoros-dgsc:code":"Moroni_H3_87","roof:material":"metal","source":"#opendri-comoros;survey","source:geometry":"bing"}},
{"type":"Feature","geometry":{"type":"LineString","coordinates":[[43.2600767,-11.6956827],[43.2601028,-11.6957032],[43.2600753,-11.6957407],[43.260046,-11.695719],[43.2600767,-11.6956827]]},"properties":{"amenity":"marketplace","building":"yes","building:condition":"poor","building:levels":"1","building:material":"metal","comoros-dgsc:code":"Moroni_H3_95","roof:material":"metal","source":"#opendri-comoros;survey","source:geometry":"bing"}},
{"type":"Feature","geometry":{"type":"LineString","coordinates":[[43.2599732,-11.6956042],[43.2599544,-11.6956349],[43.2599988,-11.695661],[43.2600176,-11.6956303],[43.2599732,-11.6956042]]},"properties":{"amenity":"marketplace","building":"yes","building:condition":"poor","building:levels":"1","building:material":"metal","comoros-dgsc:code":"Moroni_H3_93","roof:material":"metal","source":"#opendri-comoros;survey","source:geometry":"bing"}},
{"type":"Feature","geometry":{"type":"LineString","coordinates":[[43.259885,-11.6959861],[43.2599166,-11.6960134],[43.2599412,-11.6959861],[43.2599096,-11.6959588],[43.259885,-11.6959861]]},"properties":{"amenity":"marketplace","building":"yes","building:condition":"poor","building:levels":"1","building:material":"metal","comoros-dgsc:code":"Moroni_H3_92","roof:material":"metal","source":"#opendri-comoros;survey","source:geometry":"bing"}},
{"type":"Feature","geometry":{"type":"LineString","coordinates":[[43.2596898,-11.6976295],[43.2597058,-11.6975975],[43.2596571,-11.6975743],[43.2596412,-11.6976062],[43.2596898,-11.6976295]]},"properties":{"amenity":"marketplace","building":"yes","building:condition":"poor","building:levels":"1","building:material":"metal","comoros-dgsc:code":"Moroni_H3_333","roof:material":"metal","source":"#opendri-comoros;survey","source:geometry":"Bing"}},
{"type":"Feature","geometry":{"type":"LineString","coordinates":[[43.2600425,-11.6972933],[43.26007,-11.6972164],[43.2601214,-11.697234],[43.260094,-11.6973109],[43.2600425,-11.6972933]]},"properties":{"amenity":"marketplace","building":"yes","building:condition":"poor","building:levels":"1","building:material":"metal","comoros-dgsc:code":"Moroni_H3_295","roof:material":"metal","source":"#opendri-comoros;survey","source:geometry":"Bing"}},
{"type":"Feature","geometry":{"type":"LineString","coordinates":[[43.2612529,-11.6973582],[43.2612466,-11.6973934],[43.2613247,-11.6974058],[43.261329,-11.6973686],[43.2612529,-11.6973582]]},"properties":{"amenity":"marketplace","building":"yes","building:condition":"poor","building:levels":"1","building:material":"metal","comoros-dgsc:code":"Moroni_H3_278","roof:material":"metal","source":"#opendri-comoros;survey","source:geometry":"Bing"}},
{"type":"Feature","geometry":{"type":"LineString","coordinates":[[43.2609207,-11.6984594],[43.2610006,-11.6984691],[43.260995,-11.6985136],[43.2609151,-11.698504],[43.2609207,-11.6984594]]},"properties":{"amenity":"marketplace","building":"yes","building:condition":"poor","building:levels":"1","building:material":"metal","comoros-dgsc:code":"moroni-G1-313","roof:material":"metal","source":"#opendri-comoros;survey","source:geometry":"bing"}},
{"type":"Feature","geometry":{"type":"LineString","coordinates":[[43.2943215,-11.8242433],[43.2944123,-11.8243899],[43.2943325,-11.8244477],[43.294237,-11.824298],[43.2943215,-11.8242433]]},"properties":{"amenity":"marketplace","building":"yes","source":"#osm4km"}},
{"type":"Feature","geometry":{"type":"LineString","coordinates":[[43.2664434,-11.662737],[43.2664853,-11.6627453],[43.2664721,-11.6628098],[43.2664302,-11.6628016],[43.2664434,-11.662737]]},"properties":{"amenity":"marketplace","building":"yes","building:condition":"poor","building:levels":"1","building:material":"metal","comoros-dgsc:code":"Hantsambou_B3 _43","roof:material":"metal","source":"#opendri-comoros;survey","source:geometry":"bing"}},
{"type":"Feature","geometry":{"type":"LineString","coordinates":[[43.2714442,-11.6617192],[43.2714372,-11.6617922],[43.271376,-11.6617866],[43.271383,-11.6617135],[43.2714442,-11.6617192]]},"properties":{"amenity":"marketplace","building":"yes","building:condition":"average","building:levels":"1","building:material":"metal","comoros-dgsc:code":"Ntsoudjini_D2_05","name":"Boutique","roof:material":"metal","source":"#opendri-comoros;survey","source:geometry":"Bing"}},
{"type":"Feature","geometry":{"type":"LineString","coordinates":[[43.2586635,-11.6979632],[43.2586315,-11.6980256],[43.2585872,-11.6980039],[43.2586192,-11.6979414],[43.2586635,-11.6979632]]},"properties":{"amenity":"marketplace","building":"yes","building:condition":"poor","building:levels":"1","building:material":"metal","comoros-dgsc:code":"moroni-G1-61","roof:material":"metal","source":"#opendri-comoros;survey","source:geometry":"bing"}},
{"type":"Feature","geometry":{"type":"LineString","coordinates":[[43.2460354,-11.7162015],[43.2458109,-11.716175],[43.2457962,-11.7162951],[43.2460206,-11.7163216],[43.2460354,-11.7162015]]},"properties":{"addr:street":"Boulevard de la République Poulaire de China","building":"yes","name":"Sara Market","shop":"supermarket","source":"#opendri-comoros","source:geometry":"Bing","source_1":"Kaart Ground Survey 2017"}},
{"type":"Feature","geometry":{"type":"LineString","coordinates":[[43.2591741,-11.6925362],[43.2591456,-11.6925989],[43.2591932,-11.6926196],[43.2592217,-11.6925569],[43.2591741,-11.6925362]]},"properties":{"building":"yes","name":"Epicerie Mifidhoihou","shop":"convenience","source":"Kaart Ground Survey 2017","source_1":"Kaart Ground Survey 2017"}},
{"type":"Feature","geometry":{"type":"LineString","coordinates":[[43.269593,-11.6302928],[43.2695072,-11.6302942],[43.2695045,-11.6301352],[43.2695903,-11.6301338],[43.269593,-11.6302928]]},"properties":{"amenity":"marketplace","building":"yes"}},
{"type":"Feature","geometry":{"type":"MultiPolygon","coordinates":[[[[43.2748207,-11.720396],[43.2748583,-11.7204906],[43.2749334,-11.7204643],[43.2749012,-11.720375],[43.2748207,-11.720396]]]]},"properties":{"amenity":"marketplace","name":"Marché Sirkali Ya Djuwu"}},
{"type":"Feature","geometry":{"type":"MultiPolygon","coordinates":[[[[44.520832,-12.3252028],[44.5208652,-12.3254387],[44.5210197,-12.3254179],[44.5209864,-12.325182],[44.520832,-12.3252028]]]]},"properties":{"amenity":"marketplace","name":"bazar"}},
{"type":"Feature","geometry":{"type":"MultiPolygon","coordinates":[[[[43.277657,-11.6751595],[43.2777364,-11.6751458],[43.2777433,-11.6750357],[43.2777457,-11.6749972],[43.277671,-11.6749994],[43.277657,-11.6751595]]]]},"properties":{"amenity":"marketplace","building":"yes"}},
{"type":"Feature","geometry":{"type":"MultiPolygon","coordinates":[[[[43.2660381,-11.7317307],[43.2662716,-11.731733],[43.2662775,-11.7315432],[43.266072,-11.7315398],[43.2660381,-11.7317307]]]]},"properties":{"addr:city":"Mkazi","amenity":"marketplace","name":"Marché des femmes"}},
{"type":"Feature","geometry":{"type":"MultiPolygon","coordinates":[[[[43.2777384,-11.6743913],[43.2779368,-11.6743913],[43.2779368,-11.6742705],[43.2777384,-11.6742705],[43.2777384,-11.6743913]]]]},"properties":{"amenity":"marketplace","building":"yes"}},
{"type":"Feature","geometry":{"type":"MultiPolygon","coordinates":[[[[43.2585537,-11.6980754],[43.2586261,-11.698118],[43.2586649,-11.6980548],[43.2585925,-11.6980122],[43.2585537,-11.6980754]]]]},"properties":{"amenity":"marketplace","building":"yes","building:condition":"poor","building:levels":"1","building:material":"metal","comoros-dgsc:code":"moroni-G1-61","roof:material":"metal","source":"#opendri-comoros;survey","source:geometry":"bing"}},
{"type":"Feature","geometry":{"type":"MultiPolygon","coordinates":[[[[43.2582258,-11.6997677],[43.2582913,-11.6998171],[43.2583035,-11.6997959],[43.2582926,-11.6997865],[43.2583086,-11.6997628],[43.2582606,-11.6997306],[43.2582258,-11.6997677]]]]},"properties":{"amenity":"marketplace","building":"yes","building:condition":"poor","building:levels":"1","building:material":"metal","comoros-dgsc:code":"Moroni_I2_191","roof:material":"metal","source":"#opendri-comoros;survey","source:geometry":"Bing"}},
{"type":"Feature","geometry":{"type":"MultiPolygon","coordinates":[[[[43.2580189,-11.6995103],[43.2580207,-11.6995115],[43.2581388,-11.6995877],[43.2581709,-11.6995401],[43.2581089,-11.6995],[43.2581236,-11.6994782],[43.2580898,-11.6994563],[43.2580823,-11.6994674],[43.2580582,-11.6994519],[43.2580189,-11.6995103]]]]},"properties":{"amenity":"marketplace","building":"yes","building:condition":"average","building:levels":"1","building:material":"metal","comoros-dgsc:code":"Moroni_I2_181","roof:material":"metal","source":"#opendri-comoros;survey","source:geometry":"Bing"}},
{"type":"Feature","geometry":{"type":"MultiPolygon","coordinates":[[[[43.2541211,-11.7039295],[43.2542314,-11.7040447],[43.2543504,-11.7039354],[43.2542323,-11.7038121],[43.2541859,-11.7038547],[43.2541937,-11.7038628],[43.2541211,-11.7039295]]]]},"properties":{"addr:city":"Moroni","addr:street":"Boulevard Karthala","amenity":"marketplace","building":"yes","source":"#opendri-comoros","source:geometry":"Bing","source_1":"Kaart Ground Survey 2017"}},
{"type":"Feature","geometry":{"type":"MultiPolygon","coordinates":[[[[43.2514436,-11.7000263],[43.2514731,-11.7001782],[43.2517042,-11.7001352],[43.2516747,-11.6999833],[43.2514436,-11.7000263]]]]},"properties":{"addr:street":"Rue de la Corniche","building":"commercial","building:condition":"good","building:levels":"2","building:material":"brick","comoros-dgsc:code":"moroni-I1-11","name":"MAG Market","roof:material":"metal","shop":"supermarket","source":"#opendri-comoros;survey","source:geometry":"bing","source_1":"Kaart Ground Survey 2017"}},
{"type":"Feature","geometry":{"type":"MultiPolygon","coordinates":[[[[43.2492725,-11.7060443],[43.2493576,-11.7061715],[43.2494662,-11.7060898],[43.2493822,-11.7059705],[43.2492725,-11.7060443]]]]},"properties":{"amenity":"marketplace","building":"yes","building:condition":"poor","roof:material":"metal","source":"#opendri-comoros","source:geometry":"bing"}},
{"type":"Feature","geometry":{"type":"MultiPolygon","coordinates":[[[[43.2486361,-11.7062095],[43.2492721,-11.7064706],[43.2492467,-11.7065299],[43.2493611,-11.7065769],[43.2494405,-11.7063914],[43.2486901,-11.7060834],[43.2486361,-11.7062095]]]]},"properties":{"addr:street":"Rue Itsambuni","building":"yes","building:condition":"poor","name":"Supermarché KomoCash Centre","roof:material":"metal","shop":"supermarket","source":"#opendri-comoros","source:geometry":"bing","source_1":"Kaart Ground Survey 2017"}},
{"type":"Feature","geometry":{"type":"MultiPolygon","coordinates":[[[[43.2713811,-11.661176],[43.2714656,-11.6612154],[43.2715014,-11.6611417],[43.2714169,-11.6611023],[43.2713811,-11.661176]]]]},"properties":{"amenity":"marketplace","building":"yes","building:condition":"average","building:levels":"1","building:material":"brick","comoros-dgsc:code":"Ntsoudjini_D2_03","roof:material":"metal","source":"#opendri-comoros;survey","source:geometry":"bing"}},
{"type":"Feature","geometry":{"type":"MultiPolygon","coordinates":[[[[43.2876401,-11.8439192],[43.2876685,-11.8439649],[43.2877126,-11.8439382],[43.2876842,-11.8438925],[43.2876401,-11.8439192]]]]},"properties":{"amenity":"marketplace","building":"yes","building:condition":"average","building:levels":"1","building:material":"concrete","comoros-dgsc:code":"Bangoi-D1-8","roof:material":"metal","source":"#opendri-comoros;survey","source:geometry":"bing"}},
{"type":"Feature","geometry":{"type":"MultiPolygon","coordinates":[[[[43.2886843,-11.8438816],[43.2886975,-11.8439043],[43.288757,-11.8438711],[43.2887269,-11.8438194],[43.2886915,-11.8438391],[43.2887084,-11.8438682],[43.2886843,-11.8438816]]]]},"properties":{"amenity":"marketplace","building":"yes","building:condition":"average","building:levels":"1","building:material":"metal","comoros-dgsc:code":"Bangoi-D1-22","roof:material":"metal","source":"#opendri-comoros;survey","source:geometry":"bing"}},
{"type":"Feature","geometry":{"type":"MultiPolygon","coordinates":[[[[43.2879518,-11.8439701],[43.2879576,-11.8440282],[43.288008,-11.8440234],[43.2880022,-11.8439653],[43.2879518,-11.8439701]]]]},"properties":{"amenity":"marketplace","building":"yes","building:condition":"poor","building:levels":"1","building:material":"metal","comoros-dgsc:code":"Bangoi-D1-5","roof:material":"metal","source":"#opendri-comoros;survey","source:geometry":"bing"}},
{"type":"Feature","geometry":{"type":"MultiPolygon","coordinates":[[[[43.2895381,-11.8431895],[43.289578,-11.8432403],[43.2896307,-11.8432006],[43.2895908,-11.8431498],[43.2895381,-11.8431895]]]]},"properties":{"amenity":"marketplace","building":"residential","building:condition":"poor","building:levels":"1","building:material":"brick","comoros-dgsc:code":"Bangoi-C2-7","name":"Mze Abdallah Djae","roof:material":"metal","source":"#opendri-comoros;survey","source:geometry":"Bing"}},
{"type":"Feature","geometry":{"type":"MultiPolygon","coordinates":[[[[43.2650859,-11.6768373],[43.2651587,-11.6768647],[43.265214,-11.6767237],[43.2651411,-11.6766963],[43.2650859,-11.6768373]]]]},"properties":{"amenity":"marketplace","building":"yes","building:condition":"good","building:levels":"2","building:material":"brick","comoros-dgsc:code":"ITSANDRA_C3_32","roof:material":"metal","source":"#opendri-comoros;survey","source:geometry":"bing"}},
{"type":"Feature","geometry":{"type":"MultiPolygon","coordinates":[[[[43.2596158,-11.6961085],[43.2596746,-11.6961349],[43.2597039,-11.6960716],[43.2596451,-11.6960452],[43.2596158,-11.6961085]]]]},"properties":{"amenity":"marketplace","building":"yes","building:condition":"poor","building:levels":"1","building:material":"metal","comoros-dgsc:code":"Moroni_H3_87","roof:material":"metal","source":"#opendri-comoros;survey","source:geometry":"bing"}},
{"type":"Feature","geometry":{"type":"MultiPolygon","coordinates":[[[[43.260046,-11.695719],[43.2600753,-11.6957407],[43.2601028,-11.6957032],[43.2600767,-11.6956827],[43.260046,-11.695719]]]]},"properties":{"amenity":"marketplace","building":"yes","building:condition":"poor","building:levels":"1","building:material":"metal","comoros-dgsc:code":"Moroni_H3_95","roof:material":"metal","source":"#opendri-comoros;survey","source:geometry":"bing"}},
{"type":"Feature","geometry":{"type":"MultiPolygon","coordinates":[[[[43.2599544,-11.6956349],[43.2599988,-11.695661],[43.2600176,-11.6956303],[43.2599732,-11.6956042],[43.2599544,-11.6956349]]]]},"properties":{"amenity":"marketplace","building":"yes","building:condition":"poor","building:levels":"1","building:material":"metal","comoros-dgsc:code":"Moroni_H3_93","roof:material":"metal","source":"#opendri-comoros;survey","source:geometry":"bing"}},
{"type":"Feature","geometry":{"type":"MultiPolygon","coordinates":[[[[43.259885,-11.6959861],[43.2599166,-11.6960134],[43.2599412,-11.6959861],[43.2599096,-11.6959588],[43.259885,-11.6959861]]]]},"properties":{"amenity":"marketplace","building":"yes","building:condition":"poor","building:levels":"1","building:material":"metal","comoros-dgsc:code":"Moroni_H3_92","roof:material":"metal","source":"#opendri-comoros;survey","source:geometry":"bing"}},
{"type":"Feature","geometry":{"type":"MultiPolygon","coordinates":[[[[43.2596412,-11.6976062],[43.2596898,-11.6976295],[43.2597058,-11.6975975],[43.2596571,-11.6975743],[43.2596412,-11.6976062]]]]},"properties":{"amenity":"marketplace","building":"yes","building:condition":"poor","building:levels":"1","building:material":"metal","comoros-dgsc:code":"Moroni_H3_333","roof:material":"metal","source":"#opendri-comoros;survey","source:geometry":"Bing"}},
{"type":"Feature","geometry":{"type":"MultiPolygon","coordinates":[[[[43.2600425,-11.6972933],[43.260094,-11.6973109],[43.2601214,-11.697234],[43.26007,-11.6972164],[43.2600425,-11.6972933]]]]},"properties":{"amenity":"marketplace","building":"yes","building:condition":"poor","building:levels":"1","building:material":"metal","comoros-dgsc:code":"Moroni_H3_295","roof:material":"metal","source":"#opendri-comoros;survey","source:geometry":"Bing"}},
{"type":"Feature","geometry":{"type":"MultiPolygon","coordinates":[[[[43.2612466,-11.6973934],[43.2613247,-11.6974058],[43.261329,-11.6973686],[43.2612529,-11.6973582],[43.2612466,-11.6973934]]]]},"properties":{"amenity":"marketplace","building":"yes","building:condition":"poor","building:levels":"1","building:material":"metal","comoros-dgsc:code":"Moroni_H3_278","roof:material":"metal","source":"#opendri-comoros;survey","source:geometry":"Bing"}},
{"type":"Feature","geometry":{"type":"MultiPolygon","coordinates":[[[[43.2609151,-11.698504],[43.260995,-11.6985136],[43.2610006,-11.6984691],[43.2609207,-11.6984594],[43.2609151,-11.698504]]]]},"properties":{"amenity":"marketplace","building":"yes","building:condition":"poor","building:levels":"1","building:material":"metal","comoros-dgsc:code":"moroni-G1-313","roof:material":"metal","source":"#opendri-comoros;survey","source:geometry":"bing"}},
{"type":"Feature","geometry":{"type":"MultiPolygon","coordinates":[[[[43.294237,-11.824298],[43.2943325,-11.8244477],[43.2944123,-11.8243899],[43.2943215,-11.8242433],[43.294237,-11.824298]]]]},"properties":{"amenity":"marketplace","building":"yes","source":"#osm4km"}},
{"type":"Feature","geometry":{"type":"MultiPolygon","coordinates":[[[[43.2664302,-11.6628016],[43.2664721,-11.6628098],[43.2664853,-11.6627453],[43.2664434,-11.662737],[43.2664302,-11.6628016]]]]},"properties":{"amenity":"marketplace","building":"yes","building:condition":"poor","building:levels":"1","building:material":"metal","comoros-dgsc:code":"Hantsambou_B3 _43","roof:material":"metal","source":"#opendri-comoros;survey","source:geometry":"bing"}},
{"type":"Feature","geometry":{"type":"MultiPolygon","coordinates":[[[[43.271376,-11.6617866],[43.2714372,-11.6617922],[43.2714442,-11.6617192],[43.271383,-11.6617135],[43.271376,-11.6617866]]]]},"properties":{"amenity":"marketplace","building":"yes","building:condition":"average","building:levels":"1","building:material":"metal","comoros-dgsc:code":"Ntsoudjini_D2_05","name":"Boutique","roof:material":"metal","source":"#opendri-comoros;survey","source:geometry":"Bing"}},
{"type":"Feature","geometry":{"type":"MultiPolygon","coordinates":[[[[43.2585872,-11.6980039],[43.2586315,-11.6980256],[43.2586635,-11.6979632],[43.2586192,-11.6979414],[43.2585872,-11.6980039]]]]},"properties":{"amenity":"marketplace","building":"yes","building:condition":"poor","building:levels":"1","building:material":"metal","comoros-dgsc:code":"moroni-G1-61","roof:material":"metal","source":"#opendri-comoros;survey","source:geometry":"bing"}},
{"type":"Feature","geometry":{"type":"MultiPolygon","coordinates":[[[[43.2457962,-11.7162951],[43.2460206,-11.7163216],[43.2460354,-11.7162015],[43.2458109,-11.716175],[43.2457962,-11.7162951]]]]},"properties":{"addr:street":"Boulevard de la République Poulaire de China","building":"yes","name":"Sara Market","shop":"supermarket","source":"#opendri-comoros","source:geometry":"Bing","source_1":"Kaart Ground Survey 2017"}},
{"type":"Feature","geometry":{"type":"MultiPolygon","coordinates":[[[[43.2591456,-11.6925989],[43.2591932,-11.6926196],[43.2592217,-11.6925569],[43.2591741,-11.6925362],[43.2591456,-11.6925989]]]]},"properties":{"building":"yes","name":"Epicerie Mifidhoihou","shop":"convenience","source":"Kaart Ground Survey 2017","source_1":"Kaart Ground Survey 2017"}},
{"type":"Feature","geometry":{"type":"MultiPolygon","coordinates":[[[[43.2695045,-11.6301352],[43.2695072,-11.6302942],[43.269593,-11.6302928],[43.2695903,-11.6301338],[43.2695045,-11.6301352]]]]},"properties":{"amenity":"marketplace","building":"yes"}}
]}
