{"type":"FeatureCollection","features":[
{"type":"Feature","geometry":{"type":"Point","coordinates":[-22.9160647,16.176029]},"properties":{"name":"Pinto & Pinto's","shop":"supermarket"}},
{"type":"Feature","geometry":{"type":"Point","coordinates":[-23.5130981,14.9228877]},"properties":{"shop":"supermarket"}},
{"type":"Feature","geometry":{"type":"Point","coordinates":[-24.4987338,14.8967676]},"properties":{"name":"Casa Rodrigo","name:en":"Casa Rodrigo","name:pt":"Casa Rodrigo","shop":"supermarket"}},
{"type":"Feature","geometry":{"type":"Point","coordinates":[-24.4963034,14.8944993]},"properties":{"name":"Alves","shop":"convenience"}},
{"type":"Feature","geometry":{"type":"Point","coordinates":[-24.4966726,14.8983554]},"properties":{"shop":"convenience"}},
{"type":"Feature","geometry":{"type":"Point","coordinates":[-23.5884099,15.0671989]},"properties":{"shop":"convenience"}},
{"type":"Feature","geometry":{"type":"Point","coordinates":[-23.5600976,15.1352203]},"properties":{"amenity":"restaurant","shop":"convenience"}},
{"type":"Feature","geometry":{"type":"Point","coordinates":[-22.9032166,16.5975495]},"properties":{"name":"Mini-Market","name:en":"Mini-Market","shop":"convenience"}},
{"type":"Feature","geometry":{"type":"Point","coordinates":[-24.4963802,14.8936644]},"properties":{"name":"Amizade","shop":"convenience"}},
{"type":"Feature","geometry":{"type":"Point","coordinates":[-24.4976003,14.8929393]},"properties":{"amenity":"marketplace","name":"J.L.F. Mercado de Peixe"}},
{"type":"Feature","geometry":{"type":"Point","coordinates":[-24.4962929,14.8985559]},"properties":{"contact:phone":"2811501","name":"Padaria Variedades Loja","shop":"bakery"}},
{"type":"Feature","geometry":{"type":"Point","coordinates":[-24.4976784,14.8956163]},"properties":{"name":"Soprobel","shop":"convenience"}},
{"type":"Feature","geometry":{"type":"Point","coordinates":[-24.9859052,16.8855101]},"properties":{"contact:email":"gimport@hotmail.com","contact:fax":"2318853","contact:phone":"2310028","name":"Gimport","shop":"convenience"}},
{"type":"Feature","geometry":{"type":"Point","coordinates":[-24.9884307,16.8860109]},"properties":{"fixme":"Not sure on which corner this was exactly","name":"Centrál","shop":"bakery"}},
{"type":"Feature","geometry":{"type":"Point","coordinates":[-22.900839,16.5981413]},"properties":{"name":"Chinése SOMG","shop":"convenience"}},
{"type":"Feature","geometry":{"type":"Point","coordinates":[-22.9091099,16.5993343]},"properties":{"shop":"convenience"}},
{"type":"Feature","geometry":{"type":"Point","coordinates":[-22.9067087,16.6018133]},"properties":{"name":"supermercado cazu","opening_hours":"Mo-Sa 08:00-20:00; Su 09:00-13:00","shop":"supermarket"}},
{"type":"Feature","geometry":{"type":"Point","coordinates":[-25.1134516,17.1251145]},"properties":{"shop":"convenience"}},
{"type":"Feature","geometry":{"type":"Point","coordinates":[-24.9887837,16.8827238]},"properties":{"name":"Serradas","shop":"supermarket"}},
{"type":"Feature","geometry":{"type":"Point","coordinates":[-24.9883912,16.8848727]},"properties":{"name":"Serradas","shop":"supermarket"}},
{"type":"Feature","geometry":{"type":"Point","coordinates":[-24.9876677,16.8849131]},"properties":{"name":"Toy Duarte","shop":"supermarket"}},
{"type":"Feature","geometry":{"type":"Point","coordinates":[-22.907015,16.601003]},"properties":{"name":"Mercaria rua da Taraia","shop":"convenience"}},
{"type":"Feature","geometry":{"type":"Point","coordinates":[-22.8957584,16.5975676]},"properties":{"name":"Shirleys Café","shop":"convenience"}},
{"type":"Feature","geometry":{"type":"Point","coordinates":[-22.9455524,16.7546822]},"properties":{"name":"Central","shop":"supermarket"}},
{"type":"Feature","geometry":{"type":"Point","coordinates":[-23.6046129,14.9149304]},"properties":{"shop":"convenience"}},
{"type":"Feature","geometry":{"type":"Point","coordinates":[-24.4996283,14.8951445]},"properties":{"shop":"supermarket"}},
{"type":"Feature","geometry":{"type":"Point","coordinates":[-25.1921452,17.0771933]},"properties":{"shop":"convenience"}},
{"type":"Feature","geometry":{"type":"Point","coordinates":[-25.1924752,17.0777207]},"properties":{"shop":"convenience"}},
{"type":"Feature","geometry":{"type":"Point","coordinates":[-23.5186917,14.9168144]},"properties":{"name":"Pão Quente","shop":"bakery"}},
{"type":"Feature","geometry":{"type":"Point","coordinates":[-23.52812,14.910455]},"properties":{"addr:city":"Praia","addr:street":"Avenida Santiago","name":"Multichoice","shop":"supermarket"}},
{"type":"Feature","geometry":{"type":"Point","coordinates":[-23.5127596,14.9172647]},"properties":{"addr:city":"Praia","addr:street":"Avenida Cidade de Lisboa","name":"Pao Quente","shop":"bakery"}},
{"type":"Feature","geometry":{"type":"Point","coordinates":[-23.5275786,14.91163]},"properties":{"name":"Doce Vita","shop":"supermarket"}},
{"type":"Feature","geometry":{"type":"Point","coordinates":[-23.5079786,14.9176561]},"properties":{"addr:city":"Praia","addr:street":"Avenida Andrade Corvo","name":"Pao Quente","shop":"bakery"}},
{"type":"Feature","geometry":{"type":"Point","coordinates":[-24.4973423,14.8957551]},"properties":{"amenity":"marketplace","name":"Mercado Municipal"}},
{"type":"Feature","geometry":{"type":"Point","coordinates":[-23.5267991,14.9148216]},"properties":{"addr:city":"Praia","name":"Pão Quente","shop":"bakery"}},
{"type":"Feature","geometry":{"type":"Point","coordinates":[-22.9023259,16.601325]},"properties":{"amenity":"marketplace","name":"Mercado Municipal"}},
{"type":"Feature","geometry":{"type":"Point","coordinates":[-23.5003938,14.9125679]},"properties":{"name":"Boca Doce","shop":"bakery"}},
{"type":"Feature","geometry":{"type":"Point","coordinates":[-23.6679654,15.0965965]},"properties":{"amenity":"marketplace","name":"Mercado  Municipal"}},
{"type":"Feature","geometry":{"type":"Point","coordinates":[-23.6643535,15.0970343]},"properties":{"shop":"convenience"}},
{"type":"Feature","geometry":{"type":"Point","coordinates":[-25.060975,16.824381]},"properties":{"cmt":"09-JUL-13 12:48:36","name":"Silva","shop":"supermarket","sym":"Shopping Center"}},
{"type":"Feature","geometry":{"type":"Point","coordinates":[-25.0605335,16.8237084]},"properties":{"cmt":"09-JUL-13 10:30:08","ele":"33.2911377","name":"Santos","shop":"supermarket","sym":"Shopping Center"}},
{"type":"Feature","geometry":{"type":"Point","coordinates":[-25.0729072,17.019679]},"properties":{"cmt":"02-JUL-13 13:18:41","name":"Benfica","shop":"supermarket","sym":"Shopping Center"}},
{"type":"Feature","geometry":{"type":"Point","coordinates":[-25.0714724,17.019568]},"properties":{"cmt":"02-JUL-13 13:16:17","name":"Rosario","shop":"supermarket","sym":"Shopping Center"}},
{"type":"Feature","geometry":{"type":"Point","coordinates":[-25.0698147,17.0195549]},"properties":{"cmt":"02-JUL-13 13:12:57","name":"Fei Fei","shop":"supermarket","sym":"Shopping Center"}},
{"type":"Feature","geometry":{"type":"Point","coordinates":[-25.0656113,17.0191436]},"properties":{"cmt":"02-JUL-13 12:36:12","name":"Valmonte","shop":"supermarket","sym":"Shopping Center"}},
{"type":"Feature","geometry":{"type":"Point","coordinates":[-25.1667937,17.0195711]},"properties":{"cmt":"06-JUL-13 11:51:25","name":"Medina","shop":"supermarket","sym":"Shopping Center"}},
{"type":"Feature","geometry":{"type":"Point","coordinates":[-25.1657624,17.0181245]},"properties":{"cmt":"06-JUL-13 11:44:38","name":"Lima","shop":"supermarket","sym":"Shopping Center"}},
{"type":"Feature","geometry":{"type":"Point","coordinates":[-25.0353627,17.1023546]},"properties":{"cmt":"03-JUL-13 11:27:14","name":"Irmaõs Duarte","shop":"convenience","sym":"Shopping Center"}},
{"type":"Feature","geometry":{"type":"Point","coordinates":[-22.9350865,16.675364]},"properties":{"name":"Mini Mercado Murdeira","opening_hours":"Mo,We-Sa 07:00-20:00; Tu 07:00-14:00; Su,PH 08:00-15:00","shop":"supermarket"}},
{"type":"Feature","geometry":{"type":"Point","coordinates":[-22.9162846,16.1759517]},"properties":{"shop":"supermarket"}},
{"type":"Feature","geometry":{"type":"Point","coordinates":[-22.9159091,16.1757598]},"properties":{"shop":"supermarket"}},
{"type":"Feature","geometry":{"type":"Point","coordinates":[-22.822698,16.185229]},"properties":{"atm":"no","internet_access":"no","name":"Mercearia Elvis","shop":"supermarket"}},
{"type":"Feature","geometry":{"type":"Point","coordinates":[-22.9199593,16.1760718]},"properties":{"amenity":"marketplace","name":"Mercado do peixe"}},
{"type":"Feature","geometry":{"type":"Point","coordinates":[-22.9050152,16.5994137]},"properties":{"name":"Loja Chinês Diuny","shop":"convenience"}},
{"type":"Feature","geometry":{"type":"Point","coordinates":[-25.097291,17.1656106]},"properties":{"name":"Jon d'Pipi","shop":"supermarket"}},
{"type":"Feature","geometry":{"type":"Point","coordinates":[-25.2557352,17.0542586]},"properties":{"name":"Cooperativa alimentar","shop":"convenience"}},
{"type":"Feature","geometry":{"type":"Point","coordinates":[-23.7516372,15.2776751]},"properties":{"name":"Tata","shop":"supermarket"}},
{"type":"Feature","geometry":{"type":"Point","coordinates":[-23.5252514,14.9118723]},"properties":{"name":"Minimercado capricho","name:de":"kleiner gut sortierter Supermarkt","name:en":"grocery store","name:pt":"Minimercado capricho","shop":"supermarket"}},
{"type":"Feature","geometry":{"type":"Point","coordinates":[-22.9058659,16.5993157]},"properties":{"name":"Loja Sintanton","shop":"convenience"}},
{"type":"Feature","geometry":{"type":"Point","coordinates":[-24.4940683,14.9024661]},"properties":{"name":"Casa Rodrigo","name:en":"Casa Rodrigo","name:pt":"Casa Rodrigo","shop":"supermarket"}},
{"type":"Feature","geometry":{"type":"Point","coordinates":[-24.365596,14.968016]},"properties":{"name":"Mini-Markt","shop":"supermarket"}},
{"type":"Feature","geometry":{"type":"Point","coordinates":[-22.9197684,16.1757939]},"properties":{"name":"Mercearia Cianna","shop":"convenience"}},
{"type":"Feature","geometry":{"type":"Point","coordinates":[-22.8880474,16.1261827]},"properties":{"opening_hours":"09:00-17:00","shop":"convenience","wheelchair":"limited"}},
{"type":"Feature","geometry":{"type":"Point","coordinates":[-25.2108339,17.0438728]},"properties":{"name":"Santos","opening_hours":"Mo-Sa 08:00-13:00,15:00-20:00; Su 09:00-15:00","shop":"supermarket"}},
{"type":"Feature","geometry":{"type":"Point","coordinates":[-22.9145068,16.1765893]},"properties":{"shop":"supermarket"}},
{"type":"Feature","geometry":{"type":"Point","coordinates":[-22.9036397,16.5974767]},"properties":{"amenity":"marketplace","name":"Mercado"}},
{"type":"Feature","geometry":{"type":"Point","coordinates":[-22.8994558,16.5973059]},"properties":{"name":"Euro Lodjas","opening_hours":"Mo-Su 07:00-19:30; May 1 off","phone":"+2389144393","shop":"convenience"}},
{"type":"Feature","geometry":{"type":"Point","coordinates":[-24.2997241,16.6157978]},"properties":{"name":"Padaria Matizinho","name:pt":"Padaria Matizinho","shop":"bakery"}},
{"type":"Feature","geometry":{"type":"Point","coordinates":[-23.5078658,14.9188151]},"properties":{"name":"ERB SUPERMERCADO","name:pt":"ERB SUPERMERCADO","shop":"supermarket"}},
{"type":"Feature","geometry":{"type":"Point","coordinates":[-23.5096357,14.922586]},"properties":{"amenity":"marketplace","name":"Mercado de Sucupira","tourism":"attraction"}},
{"type":"Feature","geometry":{"type":"Point","coordinates":[-22.9158148,16.1794499]},"properties":{"shop":"supermarket"}},
{"type":"Feature","geometry":{"type":"Point","coordinates":[-23.752155,15.2768762]},"properties":{"name":"Mini mercado yong","name:pt":"Mini mercado yong","shop":"supermarket"}},
{"type":"Feature","geometry":{"type":"Point","coordinates":[-22.9814822,16.7573443]},"properties":{"name":"MINIMERCADO","shop":"convenience"}},
{"type":"Feature","geometry":{"type":"Point","coordinates":[-23.2223934,15.1794906]},"properties":{"name":"Casa Blanca Supermarket","shop":"supermarket"}},
{"type":"Feature","geometry":{"type":"Point","coordinates":[-23.1613424,15.1354178]},"properties":{"name":"Mercearia Malaquias","shop":"supermarket"}},
{"type":"Feature","geometry":{"type":"Point","coordinates":[-23.1614692,15.1351729]},"properties":{"name":"União das Cooperativas do Barreiro","shop":"supermarket"}},
{"type":"Feature","geometry":{"type":"Point","coordinates":[-22.9138099,16.17382]},"properties":{"internet_access":"wlan","name":"Dolce Vita","name:es":"Dolce Vita","shop":"bakery"}},
{"type":"Feature","geometry":{"type":"Point","coordinates":[-23.2115409,15.1393106]},"properties":{"shop":"supermarket"}},
{"type":"Feature","geometry":{"type":"Point","coordinates":[-23.2117371,15.1371395]},"properties":{"amenity":"marketplace","name":"Mercado Municipal"}},
{"type":"Feature","geometry":{"type":"Point","coordinates":[-25.2462492,17.1070227]},"properties":{"name":"Mercearia","shop":"convenience"}},
{"type":"Feature","geometry":{"type":"Point","coordinates":[-23.212956,15.1411701]},"properties":{"name":"Ramos","operator":"Ramos","shop":"supermarket","shop_1":"electronics"}},
{"type":"Feature","geometry":{"type":"Point","coordinates":[-23.2108966,15.1358519]},"properties":{"name":"Pick&Pay","shop":"supermarket"}},
{"type":"Feature","geometry":{"type":"Point","coordinates":[-23.5273484,14.9143209]},"properties":{"name":"Casa do pão","shop":"bakery"}},
{"type":"Feature","geometry":{"type":"Point","coordinates":[-25.0255376,17.1407724]},"properties":{"shop":"convenience"}},
{"type":"Feature","geometry":{"type":"Point","coordinates":[-25.0729593,17.01983]},"properties":{"name":"Mini Fonteca & Santos","shop":"convenience"}},
{"type":"Feature","geometry":{"type":"Point","coordinates":[-25.0719686,17.0196312]},"properties":{"name":"Mini Marcedo Lopes","phone":"+238 2211 897","phone_1":"+238 916 182","shop":"convenience"}},
{"type":"Feature","geometry":{"type":"Point","coordinates":[-25.0711491,17.0195323]},"properties":{"shop":"convenience"}},
{"type":"Feature","geometry":{"type":"Point","coordinates":[-24.9880464,16.8779859]},"properties":{"name":"Fragata Monte Sossego","shop":"supermarket"}},
{"type":"Feature","geometry":{"type":"Point","coordinates":[-24.9858675,16.8802249]},"properties":{"name":"Meu super","opening_hours":"Mo-Sa 08:00-21:00; Su 09:00-14:30","shop":"supermarket"}},
{"type":"Feature","geometry":{"type":"Point","coordinates":[-24.9851571,16.8779507]},"properties":{"name":"bento","shop":"supermarket"}},
{"type":"Feature","geometry":{"type":"Point","coordinates":[-24.9894448,16.8848307]},"properties":{"level":"0","name":"Mar Mimoso","shop":"supermarket"}},
{"type":"Feature","geometry":{"type":"Point","coordinates":[-24.9880261,16.8839529]},"properties":{"name":"fragata","shop":"supermarket"}},
{"type":"Feature","geometry":{"type":"Point","coordinates":[-24.9899562,16.8834166]},"properties":{"name":"mercado de legumes","name:en":"vegetables market","name:it":"mercato frutta verdura","shop":"supermarket"}},
{"type":"Feature","geometry":{"type":"Point","coordinates":[-24.9891307,16.8858926]},"properties":{"name":"fragata","shop":"supermarket"}},
{"type":"Feature","geometry":{"type":"Point","coordinates":[-23.6436131,15.0294198]},"properties":{"shop":"convenience"}},
{"type":"Feature","geometry":{"type":"Point","coordinates":[-25.0654511,17.0191393]},"properties":{"name":"Zhang Li","shop":"convenience"}},
{"type":"Feature","geometry":{"type":"Point","coordinates":[-25.0486104,17.1237872]},"properties":{"addr:postcode":"1210","addr:street":"Rua Chica d`Djô","name":"Mercearia SOARES","operator":"Nhe Chica","phone":"2231358","shop":"convenience"}},
{"type":"Feature","geometry":{"type":"Point","coordinates":[-25.0487653,17.123523]},"properties":{"shop":"convenience"}},
{"type":"Feature","geometry":{"type":"Point","coordinates":[-25.2652303,17.0619091]},"properties":{"name":"Tampa Caminho","shop":"convenience"}},
{"type":"Feature","geometry":{"type":"Point","coordinates":[-23.5091361,14.9197634]},"properties":{"addr:city":"Praia","addr:street":"Escada de Ponta Belem","amenity":"marketplace","name":"Ponta Belém","opening_hours":"Mo-Su 07:00-19:00","operator":"Vendedeiras de Roupas e outros artigos"}},
{"type":"Feature","geometry":{"type":"Point","coordinates":[-23.5085195,14.9209587]},"properties":{"addr:city":"Praia","addr:street":"Subida Ponta Belém","amenity":"marketplace","description":"Mercado para venda de produtos Hortícolas","name":"Mercado Cotchi Pó","opening_hours":"Mo-Su 07:00-20:00"}},
{"type":"Feature","geometry":{"type":"Point","coordinates":[-25.0735586,17.1811797]},"properties":{"name":"Valmonte","shop":"supermarket"}},
{"type":"Feature","geometry":{"type":"Point","coordinates":[-25.0249497,17.1411898]},"properties":{"shop":"convenience"}},
{"type":"Feature","geometry":{"type":"Point","coordinates":[-25.0248923,17.1410447]},"properties":{"shop":"convenience"}},
{"type":"Feature","geometry":{"type":"Point","coordinates":[-25.02369,17.1424218]},"properties":{"name":"Rodrigues","shop":"convenience"}},
{"type":"Feature","geometry":{"type":"Point","coordinates":[-25.0237078,17.1436859]},"properties":{"shop":"convenience"}},
{"type":"Feature","geometry":{"type":"Point","coordinates":[-25.0231742,17.1440692]},"properties":{"name":"Andrade","shop":"convenience"}},
{"type":"Feature","geometry":{"type":"Point","coordinates":[-25.0231017,17.1439658]},"properties":{"name":"LB Silva LDA","shop":"convenience"}},
{"type":"Feature","geometry":{"type":"Point","coordinates":[-25.0967788,17.165681]},"properties":{"name":"Na Medina Do Possivel","shop":"convenience"}},
{"type":"Feature","geometry":{"type":"Point","coordinates":[-25.1142934,17.1625794]},"properties":{"name":"Duarte Gomes","shop":"convenience"}},
{"type":"Feature","geometry":{"type":"Point","coordinates":[-25.26516,17.1089077]},"properties":{"name":"Sousa","shop":"convenience"}},
{"type":"Feature","geometry":{"type":"Point","coordinates":[-25.2236722,17.0543495]},"properties":{"name":"Mercearia","shop":"convenience"}},
{"type":"Feature","geometry":{"type":"Point","coordinates":[-25.2224703,17.0504369]},"properties":{"name":"Fortes","shop":"convenience"}},
{"type":"Feature","geometry":{"type":"Point","coordinates":[-25.2117227,17.0437453]},"properties":{"shop":"convenience"}},
{"type":"Feature","geometry":{"type":"Point","coordinates":[-25.2064512,17.044135700000003]},"properties":{"name":"Neves","shop":"convenience"}},
{"type":"Feature","geometry":{"type":"Point","coordinates":[-25.2034191,17.0443642]},"properties":{"name":"Delegado","shop":"convenience"}},
{"type":"Feature","geometry":{"type":"Point","coordinates":[-25.1558073,16.9913881]},"properties":{"shop":"convenience"}},
{"type":"Feature","geometry":{"type":"Point","coordinates":[-25.0369188,17.1416368]},"properties":{"name":"Merceária","shop":"convenience"}},
{"type":"Feature","geometry":{"type":"Point","coordinates":[-25.0329134,17.1402717]},"properties":{"shop":"convenience"}},
{"type":"Feature","geometry":{"type":"Point","coordinates":[-25.0313534,17.1393351]},"properties":{"shop":"convenience"}},
{"type":"Feature","geometry":{"type":"Point","coordinates":[-25.044633,17.1317246]},"properties":{"name":"Fonseca","shop":"convenience"}},
{"type":"Feature","geometry":{"type":"Point","coordinates":[-22.97998,16.7586009]},"properties":{"name":"Minimercado LOJA KÃO","shop":"convenience"}},
{"type":"Feature","geometry":{"type":"Point","coordinates":[-22.980829,16.7582894]},"properties":{"name":"LOJA LEE","shop":"convenience"}},
{"type":"Feature","geometry":{"type":"Point","coordinates":[-22.9813834,16.7576725]},"properties":{"amenity":"marketplace","name":"Mercado Municipal"}},
{"type":"Feature","geometry":{"type":"Point","coordinates":[-22.9806371,16.7576468]},"properties":{"name":"Padaria Portugesa","shop":"bakery"}},
{"type":"Feature","geometry":{"type":"Point","coordinates":[-22.9822605,16.7582236]},"properties":{"name":"Mercearia","shop":"convenience"}},
{"type":"Feature","geometry":{"type":"Point","coordinates":[-22.9820363,16.7593602]},"properties":{"name":"Nó Bai","shop":"convenience"}},
{"type":"Feature","geometry":{"type":"Point","coordinates":[-22.9815661,16.7588888]},"properties":{"name":"KA BÓLICA","shop":"convenience"}},
{"type":"Feature","geometry":{"type":"Point","coordinates":[-22.9811128,16.7594159]},"properties":{"name":"Mercearia Ti e Tanha","shop":"convenience"}},
{"type":"Feature","geometry":{"type":"Point","coordinates":[-22.9807626,16.7595497]},"properties":{"name":"NOS PIMDA","shop":"convenience"}},
{"type":"Feature","geometry":{"type":"Point","coordinates":[-22.980623,16.7594043]},"properties":{"name":"Mercearia","shop":"convenience"}},
{"type":"Feature","geometry":{"type":"Point","coordinates":[-22.9810156,16.7578902]},"properties":{"name":"Continental","shop":"convenience"}},
{"type":"Feature","geometry":{"type":"Point","coordinates":[-22.9460397,16.7541461]},"properties":{"amenity":"marketplace","name":"Mercado Municipal"}},
{"type":"Feature","geometry":{"type":"Point","coordinates":[-22.9460368,16.7544215]},"properties":{"name":"La Boteguina","shop":"butcher"}},
{"type":"Feature","geometry":{"type":"Point","coordinates":[-22.9454024,16.7554119]},"properties":{"name":"Minimercado","shop":"convenience"}},
{"type":"Feature","geometry":{"type":"Point","coordinates":[-22.9455243,16.7541747]},"properties":{"name":"Mundifood","shop":"convenience"}},
{"type":"Feature","geometry":{"type":"Point","coordinates":[-22.9008479,16.598036]},"properties":{"name":"Mercearia","shop":"convenience"}},
{"type":"Feature","geometry":{"type":"Point","coordinates":[-22.9036057,16.5984893]},"properties":{"name":"Ni Hao","shop":"convenience"}},
{"type":"Feature","geometry":{"type":"Point","coordinates":[-22.945388,16.7540017]},"properties":{"name":"Salinas","shop":"supermarket"}},
{"type":"Feature","geometry":{"type":"Point","coordinates":[-22.9062315,16.5990671]},"properties":{"shop":"convenience"}},
{"type":"Feature","geometry":{"type":"Point","coordinates":[-22.8966642,16.5969299]},"properties":{"name":"Casa viva","shop":"convenience"}},
{"type":"Feature","geometry":{"type":"Point","coordinates":[-22.9003522,16.5992338]},"properties":{"name":"Mercearia Água Doce","shop":"convenience"}},
{"type":"Feature","geometry":{"type":"Point","coordinates":[-24.6953039,14.8703629]},"properties":{"amenity":"marketplace","name":"Mercado Municip."}},
{"type":"Feature","geometry":{"type":"Point","coordinates":[-24.6950703,14.8693145]},"properties":{"shop":"bakery"}},
{"type":"Feature","geometry":{"type":"Point","coordinates":[-22.8992992,16.6003364]},"properties":{"name":"Liu","shop":"convenience"}},
{"type":"Feature","geometry":{"type":"Point","coordinates":[-22.8994573,16.6016841]},"properties":{"name":"Mercearia Pedraz","shop":"convenience"}},
{"type":"Feature","geometry":{"type":"Point","coordinates":[-22.9015404,16.6006214]},"properties":{"check_date":"2024-09-14","name":"Loja Codé","shop":"convenience"}},
{"type":"Feature","geometry":{"type":"Point","coordinates":[-22.9023777,16.5995695]},"properties":{"name":"Amizade","shop":"supermarket"}},
{"type":"Feature","geometry":{"type":"Point","coordinates":[-22.9026227,16.59983]},"properties":{"name":"Minimercado","shop":"convenience"}},
{"type":"Feature","geometry":{"type":"Point","coordinates":[-22.8989052,16.6006914]},"properties":{"name":"LOJA","shop":"convenience"}},
{"type":"Feature","geometry":{"type":"Point","coordinates":[-22.9038374,16.601749]},"properties":{"name":"LOJA LIHUACAI","shop":"convenience"}},
{"type":"Feature","geometry":{"type":"Point","coordinates":[-22.9034961,16.6016591]},"properties":{"name":"Mercearia CHIA","shop":"convenience"}},
{"type":"Feature","geometry":{"type":"Point","coordinates":[-22.901663,16.601055]},"properties":{"name":"Mercearia Ezirav","shop":"convenience"}},
{"type":"Feature","geometry":{"type":"Point","coordinates":[-24.3637519,16.6616235]},"properties":{"description":"More like a minimarket with a few convenient items for sale.","name":"Loja","shop":"supermarket"}},
{"type":"Feature","geometry":{"type":"Point","coordinates":[-24.3589141,16.5665606]},"properties":{"name":"Loja Atlântico","shop":"supermarket"}},
{"type":"Feature","geometry":{"type":"Point","coordinates":[-24.3584231,16.5658363]},"properties":{"name":"Minimercado Almeida Graca","shop":"supermarket"}},
{"type":"Feature","geometry":{"type":"Point","coordinates":[-22.9067437,16.6007547]},"properties":{"check_date":"2024-09-14","name":"A Padaria Portuguesa","shop":"bakery"}},
{"type":"Feature","geometry":{"type":"Point","coordinates":[-24.9870239,16.8878199]},"properties":{"indoor_seating":"yes","level":"0","name":"Pastelaria Morabeza","opening_hours":"PH,Mo-Su 06:00-22:00","outdoor_seating":"yes","shop":"bakery","toilets":"yes","wheelchair":"no"}},
{"type":"Feature","geometry":{"type":"Point","coordinates":[-25.018525,16.8736613]},"properties":{"shop":"convenience"}},
{"type":"Feature","geometry":{"type":"Point","coordinates":[-24.9868709,16.8820638]},"properties":{"name":"Pastelaria Arco Iris","shop":"bakery"}},
{"type":"Feature","geometry":{"type":"Point","coordinates":[-24.9829642,16.8857468]},"properties":{"name":"Mindelo Alimentar","shop":"convenience"}},
{"type":"Feature","geometry":{"type":"Point","coordinates":[-22.9363013,16.7546009]},"properties":{"name":"Supermercado Central","shop":"supermarket"}},
{"type":"Feature","geometry":{"type":"Point","coordinates":[-24.6962668,14.8690233]},"properties":{"name":"Minimercado Ka Vindo","shop":"supermarket"}},
{"type":"Feature","geometry":{"type":"Point","coordinates":[-24.6965531,14.8698501]},"properties":{"name":"Minimercado Humberto","shop":"supermarket"}},
{"type":"Feature","geometry":{"type":"Point","coordinates":[-24.6969414,14.8710905]},"properties":{"name":"Supermercado Poupança","shop":"supermarket"}},
{"type":"Feature","geometry":{"type":"Point","coordinates":[-24.9901381,16.8930175]},"properties":{"name":"Supermercado EXTRA","shop":"convenience"}},
{"type":"Feature","geometry":{"type":"Point","coordinates":[-24.4424991,14.896368]},"properties":{"name":"Loja Nhanha","payment:cash":"yes","shop":"convenience"}},
{"type":"Feature","geometry":{"type":"Point","coordinates":[-24.4419177,14.8969714]},"properties":{"name":"Loja Nhofinim","payment:cash":"yes","shop":"convenience"}},
{"type":"Feature","geometry":{"type":"Point","coordinates":[-24.4494432,14.8921725]},"properties":{"name":"Loja Neney","payment:cash":"yes","shop":"convenience"}},
{"type":"Feature","geometry":{"type":"Point","coordinates":[-24.4489749,14.8865078]},"properties":{"name":"Loja Nhatxika","payment:cash":"yes","payment:coins":"yes","shop":"convenience"}},
{"type":"Feature","geometry":{"type":"Point","coordinates":[-24.358474,16.5669952]},"properties":{"name":"Mercearia Leão","shop":"convenience"}},
{"type":"Feature","geometry":{"type":"Point","coordinates":[-24.6948248,14.8717314]},"properties":{"name":"Shell Shop","shop":"convenience"}},
{"type":"Feature","geometry":{"type":"Point","coordinates":[-24.4987858,14.892977]},"properties":{"name":"Minimercado Rebelado","shop":"convenience"}},
{"type":"Feature","geometry":{"type":"Point","coordinates":[-24.4999754,14.896572]},"properties":{"name":"Firma Joseber","shop":"convenience"}},
{"type":"Feature","geometry":{"type":"Point","coordinates":[-24.2930811,16.6178908]},"properties":{"name":"Mercearia Mota","shop":"supermarket"}},
{"type":"Feature","geometry":{"type":"Point","coordinates":[-25.2259426,17.0878499]},"properties":{"name":"Mercearia Évora","shop":"supermarket"}},
{"type":"Feature","geometry":{"type":"Point","coordinates":[-25.1042703,17.1879373]},"properties":{"name":"Mercearia Dias","shop":"convenience"}},
{"type":"Feature","geometry":{"type":"Point","coordinates":[-25.1309239,17.151141]},"properties":{"check_date":"2023-12-27","name":"Loja e Panificadora","shop":"bakery"}},
{"type":"Feature","geometry":{"type":"Point","coordinates":[-25.1309285,17.1510247]},"properties":{"fixme":"position","name":"Mercearia de António S.D. Junior","shop":"supermarket"}},
{"type":"Feature","geometry":{"type":"Point","coordinates":[-25.3103981,16.9582999]},"properties":{"name":"Mini Preço Tarrafal","shop":"supermarket"}},
{"type":"Feature","geometry":{"type":"Point","coordinates":[-25.1581984,17.1238638]},"properties":{"shop":"convenience"}},
{"type":"Feature","geometry":{"type":"Point","coordinates":[-23.6664481,15.096923]},"properties":{"shop":"supermarket"}},
{"type":"Feature","geometry":{"type":"Point","coordinates":[-23.6649613,15.0940484]},"properties":{"name":"Supermercado Calú e Ângela","shop":"supermarket"}},
{"type":"Feature","geometry":{"type":"Point","coordinates":[-23.6671485,15.0969512]},"properties":{"amenity":"marketplace","name":"Sucupira"}},
{"type":"Feature","geometry":{"type":"Point","coordinates":[-24.367945,14.9673962]},"properties":{"name":"Mini mercado","shop":"convenience"}},
{"type":"Feature","geometry":{"type":"Point","coordinates":[-24.367491,14.9668924]},"properties":{"name":"Minimercado","shop":"convenience"}},
{"type":"Feature","geometry":{"type":"Point","coordinates":[-25.1630499,17.1571932]},"properties":{"shop":"convenience"}},
{"type":"Feature","geometry":{"type":"Point","coordinates":[-25.1630063,17.1573006]},"properties":{"name":"Mite","phone":"994 07 59","shop":"convenience"}},
{"type":"Feature","geometry":{"type":"Point","coordinates":[-23.6791714,15.116261]},"properties":{"name":"Minimercado Djemy","shop":"convenience"}},
{"type":"Feature","geometry":{"type":"Point","coordinates":[-25.1260162,17.1399121]},"properties":{"name":"Mercearia Lima Santos","shop":"convenience"}},
{"type":"Feature","geometry":{"type":"Point","coordinates":[-25.0477686,17.1259455]},"properties":{"name":"Brito","shop":"convenience"}},
{"type":"Feature","geometry":{"type":"Point","coordinates":[-24.5009127,14.8932462]},"properties":{"name":"Maria Augusta","shop":"bakery"}},
{"type":"Feature","geometry":{"type":"Point","coordinates":[-24.9870333,16.8966463]},"properties":{"name":"Supermarket","shop":"supermarket"}},
{"type":"Feature","geometry":{"type":"Point","coordinates":[-23.7396885,15.2579944]},"properties":{"name":"Padaria Camilo","shop":"bakery"}},
{"type":"Feature","geometry":{"type":"Point","coordinates":[-23.741923,15.2586147]},"properties":{"name":"TCHABETA","shop":"convenience","shop_1":"gas"}},
{"type":"Feature","geometry":{"type":"Point","coordinates":[-23.7488689,15.2736628]},"properties":{"amenity":"marketplace","name":"Mercado Municipal"}},
{"type":"Feature","geometry":{"type":"Point","coordinates":[-24.9889561,16.8850511]},"properties":{"level":"0","name":"Bento","shop":"supermarket"}},
{"type":"Feature","geometry":{"type":"Point","coordinates":[-24.9883579,16.8854061]},"properties":{"check_date":"2023-12-30","name":"Padaria Central","shop":"bakery"}},
{"type":"Feature","geometry":{"type":"Point","coordinates":[-22.914845,16.5979871]},"properties":{"name":"Mini mercado & Deli","shop":"convenience"}},
{"type":"Feature","geometry":{"type":"Point","coordinates":[-23.750048,15.27645]},"properties":{"name":"Shell","opening_hours:signed":"no","shop":"supermarket"}},
{"type":"Feature","geometry":{"type":"Point","coordinates":[-23.7479781,15.2780399]},"properties":{"name":"padaria Lu","shop":"bakery"}},
{"type":"Feature","geometry":{"type":"Point","coordinates":[-25.2748122,17.0790318]},"properties":{"name":"Mercerie Neves","shop":"convenience"}},
{"type":"Feature","geometry":{"type":"Point","coordinates":[-25.2750499,17.0795805]},"properties":{"name":"Mercerie top d'coroa","shop":"convenience"}},
{"type":"Feature","geometry":{"type":"Point","coordinates":[-25.1168791,17.1423373]},"properties":{"addr:street":"Campo de CaO","name":"Merceria Loja Pires","shop":"convenience"}},
{"type":"Feature","geometry":{"type":"Point","coordinates":[-25.112105,17.1338649]},"properties":{"name":"Merceria Fernandes","shop":"convenience"}},
{"type":"Feature","geometry":{"type":"Point","coordinates":[-24.2993397,16.615686]},"properties":{"name":"Padaria Matizinh","shop":"bakery"}},
{"type":"Feature","geometry":{"type":"Point","coordinates":[-24.3587229,16.5661513]},"properties":{"shop":"convenience"}},
{"type":"Feature","geometry":{"type":"Point","coordinates":[-24.3586787,16.5665053]},"properties":{"shop":"convenience"}},
{"type":"Feature","geometry":{"type":"Point","coordinates":[-24.3588862,16.5662064]},"properties":{"shop":"convenience"}},
{"type":"Feature","geometry":{"type":"Point","coordinates":[-23.7521945,15.2780979]},"properties":{"shop":"convenience"}},
{"type":"Feature","geometry":{"type":"Point","coordinates":[-24.6950176,14.8699559]},"properties":{"name":"Mercado Lanchonete","shop":"convenience"}},
{"type":"Feature","geometry":{"type":"Point","coordinates":[-23.5093758,14.9182602]},"properties":{"name":"Kero","name:pt":"Kero Artes & Bolos","shop":"bakery"}},
{"type":"Feature","geometry":{"type":"Point","coordinates":[-23.6032671,14.9135806]},"properties":{"shop":"convenience"}},
{"type":"Feature","geometry":{"type":"Point","coordinates":[-23.7509584,15.2757466]},"properties":{"amenity":"marketplace"}},
{"type":"Feature","geometry":{"type":"Point","coordinates":[-23.4864496,14.9266178]},"properties":{"name":"Adega","shop":"supermarket"}},
{"type":"Feature","geometry":{"type":"Point","coordinates":[-23.4997761,14.9314012]},"properties":{"name":"Mini Mercado Perreira","shop":"convenience"}},
{"type":"Feature","geometry":{"type":"Point","coordinates":[-23.5099075,14.9289892]},"properties":{"name":"Sabor Líquido","shop":"supermarket"}},
{"type":"Feature","geometry":{"type":"Point","coordinates":[-23.5113341,14.9262913]},"properties":{"name":"El Patron","shop":"bakery"}},
{"type":"Feature","geometry":{"type":"Point","coordinates":[-23.511659,14.9273654]},"properties":{"name":"Mercado Achandinha Praia","shop":"supermarket"}},
{"type":"Feature","geometry":{"type":"Point","coordinates":[-23.5119658,14.9272627]},"properties":{"name":"Vieira&Vieira","shop":"convenience"}},
{"type":"Feature","geometry":{"type":"Point","coordinates":[-23.5156246,14.9526675]},"properties":{"name":"Calu & Angela","shop":"supermarket"}},
{"type":"Feature","geometry":{"type":"Point","coordinates":[-23.5190948,14.9570145]},"properties":{"shop":"supermarket"}},
{"type":"Feature","geometry":{"type":"Point","coordinates":[-24.1309142,16.6133112]},"properties":{"name":"Mercearia","shop":"convenience"}},
{"type":"Feature","geometry":{"type":"Point","coordinates":[-23.5125265,14.949089]},"properties":{"name":"Supermercado Almada","shop":"supermarket"}},
{"type":"Feature","geometry":{"type":"Point","coordinates":[-23.5165885,14.9523466]},"properties":{"name":"Éden Padaria e Gelataria","shop":"bakery"}},
{"type":"Feature","geometry":{"type":"Point","coordinates":[-24.9877877,16.8865044]},"properties":{"entrance":"yes"}},
{"type":"Feature","geometry":{"type":"Point","coordinates":[-24.9879602,16.8863633]},"properties":{"entrance":"yes"}},
{"type":"Feature","geometry":{"type":"Point","coordinates":[-24.9878981,16.8861454]},"properties":{"entrance":"yes"}},
{"type":"Feature","geometry":{"type":"Point","coordinates":[-24.9877461,16.8863]},"properties":{"entrance":"yes"}},
{"type":"Feature","geometry":{"type":"Point","coordinates":[-24.9895976,16.8834626]},"properties":{"amenity":"marketplace"}},
{"type":"Feature","geometry":{"type":"Point","coordinates":[-25.1041409,17.1880205]},"properties":{"name":"Dias","shop":"convenience"}},
{"type":"Feature","geometry":{"type":"Point","coordinates":[-24.9797438,16.8711855]},"properties":{"name":"Nos clienteMinimercado","shop":"convenience"}},
{"type":"Feature","geometry":{"type":"Point","coordinates":[-24.9828879,16.8687766]},"properties":{"name":"Mercearia Santos","shop":"convenience"}},
{"type":"Feature","geometry":{"type":"Point","coordinates":[-24.9901925,16.871858]},"properties":{"name":"Mercearia Poupe","shop":"convenience"}},
{"type":"Feature","geometry":{"type":"Point","coordinates":[-24.9878928,16.8743622]},"properties":{"name":"Valverde Mini Mercados","shop":"convenience"}},
{"type":"Feature","geometry":{"type":"Point","coordinates":[-24.9784968,16.8700319]},"properties":{"name":"Super Mercado Voou","shop":"supermarket"}},
{"type":"Feature","geometry":{"type":"Point","coordinates":[-23.2080188,15.1385145]},"properties":{"name":"MIA - Minimarket","shop":"convenience"}},
{"type":"Feature","geometry":{"type":"Point","coordinates":[-24.9231797,16.8365299]},"properties":{"name:fr":"Fromagerie","shop":"convenience"}},
{"type":"Feature","geometry":{"type":"Point","coordinates":[-25.3110728,16.9572096]},"properties":{"name":"Da Cruz","shop":"supermarket"}},
{"type":"Feature","geometry":{"type":"Point","coordinates":[-25.3107561,16.9576836]},"properties":{"shop":"supermarket"}},
{"type":"Feature","geometry":{"type":"Point","coordinates":[-25.2656271,17.1085103]},"properties":{"name":"Mercearia Inocêncio","shop":"convenience"}},
{"type":"Feature","geometry":{"type":"Point","coordinates":[-25.3099074,16.9586994]},"properties":{"shop":"convenience"}},
{"type":"Feature","geometry":{"type":"Point","coordinates":[-24.9822598,16.8818635]},"properties":{"name":"Mercado Voou","opening_hours":"Mo-Su 08:00-21:00","shop":"convenience"}},
{"type":"Feature","geometry":{"type":"Point","coordinates":[-24.9431659,16.9034625]},"properties":{"name":"Loja Mista","shop":"convenience"}},
{"type":"Feature","geometry":{"type":"Point","coordinates":[-23.2109274,15.2293174]},"properties":{"amenity":"marketplace","name":"Mercado Municipal"}},
{"type":"Feature","geometry":{"type":"Point","coordinates":[-23.6018702,15.0338869]},"properties":{"name":"FRUT&PÃO Loja de Conveniência","shop":"convenience"}},
{"type":"Feature","geometry":{"type":"Point","coordinates":[-23.5619951,15.0279638]},"properties":{"name":"FRUT&PÃO Loja de Conveniência - São Domingos","shop":"supermarket"}},
{"type":"Feature","geometry":{"type":"Point","coordinates":[-23.520484,15.0240979]},"properties":{"amenity":"marketplace","name":"Mercado de Minho Branco"}},
{"type":"Feature","geometry":{"type":"Point","coordinates":[-23.5189401,15.1169123]},"properties":{"name":"Şok Market","shop":"supermarket"}},
{"type":"Feature","geometry":{"type":"Point","coordinates":[-23.7484501,15.2762092]},"properties":{"name":"Minimecado Tata","shop":"convenience"}},
{"type":"Feature","geometry":{"type":"Point","coordinates":[-22.9193972,16.1779052]},"properties":{"name":"Loja Ka Tem","shop":"convenience"}},
{"type":"Feature","geometry":{"type":"Point","coordinates":[-22.8867924,16.1285824]},"properties":{"name":"Minimercado XU","shop":"convenience"}},
{"type":"Feature","geometry":{"type":"Point","coordinates":[-23.6325385,15.0830823]},"properties":{"amenity":"marketplace","name":"Mercado Municipal"}},
{"type":"Feature","geometry":{"type":"Point","coordinates":[-23.6320982,15.0834755]},"properties":{"name":"Mercearia Varela","shop":"convenience"}},
{"type":"Feature","geometry":{"type":"Point","coordinates":[-23.7486142,15.2804323]},"properties":{"shop":"convenience"}},
{"type":"Feature","geometry":{"type":"Point","coordinates":[-23.673972,15.1065929]},"properties":{"brand":"Shell","brand:wikidata":"Q154950","brand:wikipedia":"en:Royal Dutch Shell","name":"Shell","shop":"convenience"}},
{"type":"Feature","geometry":{"type":"Point","coordinates":[-23.660111,15.095979699999999]},"properties":{"brand":"Shell","brand:wikidata":"Q154950","brand:wikipedia":"en:Royal Dutch Shell","name":"Shell","shop":"convenience"}},
{"type":"Feature","geometry":{"type":"Point","coordinates":[-23.6662533,15.0939261]},"properties":{"amenity":"marketplace"}},
{"type":"Feature","geometry":{"type":"Point","coordinates":[-23.6682727,15.0976828]},"properties":{"amenity":"marketplace","name":"Mercado"}},
{"type":"Feature","geometry":{"type":"Point","coordinates":[-24.9437537,16.9030576]},"properties":{"name":"Pé Mu","shop":"convenience"}},
{"type":"Feature","geometry":{"type":"Point","coordinates":[-24.945289,16.9020205]},"properties":{"name":"David's","shop":"convenience"}},
{"type":"Feature","geometry":{"type":"Point","coordinates":[-24.945021,16.9020529]},"properties":{"name":"Mercearia","shop":"convenience"}},
{"type":"Feature","geometry":{"type":"Point","coordinates":[-24.9441785,16.9025494]},"properties":{"name":"Mercearia","shop":"convenience"}},
{"type":"Feature","geometry":{"type":"Point","coordinates":[-24.9434688,16.9028151]},"properties":{"name":"Mercearia","shop":"convenience"}},
{"type":"Feature","geometry":{"type":"Point","coordinates":[-22.9438973,16.7609159]},"properties":{"name":"Shing Huang","shop":"convenience"}},
{"type":"Feature","geometry":{"type":"Point","coordinates":[-22.9408595,16.7619577]},"properties":{"name":"Atlântico","shop":"convenience"}},
{"type":"Feature","geometry":{"type":"Point","coordinates":[-22.9456392,16.7576681]},"properties":{"name":"Feye","shop":"convenience"}},
{"type":"Feature","geometry":{"type":"Point","coordinates":[-22.9442357,16.7602519]},"properties":{"shop":"convenience"}},
{"type":"Feature","geometry":{"type":"Point","coordinates":[-22.9386173,16.7618204]},"properties":{"name":"Mercearia","shop":"convenience"}},
{"type":"Feature","geometry":{"type":"Point","coordinates":[-22.9384392,16.7618038]},"properties":{"name":"Mercearia","shop":"convenience"}},
{"type":"Feature","geometry":{"type":"Point","coordinates":[-22.9375006,16.7615458]},"properties":{"operator":"Wu","shop":"convenience"}},
{"type":"Feature","geometry":{"type":"Point","coordinates":[-22.9375701,16.7612629]},"properties":{"name":"Família","shop":"supermarket"}},
{"type":"Feature","geometry":{"type":"Point","coordinates":[-22.9347588,16.7605972]},"properties":{"name":"Ruijong","shop":"supermarket"}},
{"type":"Feature","geometry":{"type":"Point","coordinates":[-22.932859,16.7586647]},"properties":{"name":"Loja Preço Certo","shop":"convenience"}},
{"type":"Feature","geometry":{"type":"Point","coordinates":[-22.9350518,16.7543873]},"properties":{"name":"SOCOL","shop":"supermarket"}},
{"type":"Feature","geometry":{"type":"Point","coordinates":[-22.9355266,16.7545671]},"properties":{"name":"Xuan","shop":"convenience"}},
{"type":"Feature","geometry":{"type":"Point","coordinates":[-22.93657,16.7549421]},"properties":{"name":"Padaria Palmeira","shop":"bakery"}},
{"type":"Feature","geometry":{"type":"Point","coordinates":[-22.9383208,16.754814]},"properties":{"name":"Coviran","shop":"supermarket"}},
{"type":"Feature","geometry":{"type":"Point","coordinates":[-22.9394673,16.7569519]},"properties":{"name":"Filo","shop":"convenience"}},
{"type":"Feature","geometry":{"type":"Point","coordinates":[-22.9031913,16.5987418]},"properties":{"shop":"convenience"}},
{"type":"Feature","geometry":{"type":"Point","coordinates":[-25.1543987,17.0444339]},"properties":{"name":"Mercearia Adelia","shop":"convenience"}},
{"type":"Feature","geometry":{"type":"Point","coordinates":[-25.2483665,17.0923141]},"properties":{"name":"Mercearia","shop":"convenience"}},
{"type":"Feature","geometry":{"type":"Point","coordinates":[-22.9033354,16.5978944]},"properties":{"shop":"supermarket"}},
{"type":"Feature","geometry":{"type":"Point","coordinates":[-24.9859194,16.8889282]},"properties":{"level":"0","name":"Meu Super","opening_hours":"Mo-Sa 08:00-21:00; Su 09:00-21:00","shop":"supermarket"}},
{"type":"Feature","geometry":{"type":"Point","coordinates":[-24.4442354,14.9459873]},"properties":{"name":"Mini Mercado","shop":"convenience"}},
{"type":"Feature","geometry":{"type":"Point","coordinates":[-23.5150841,14.9107226]},"properties":{"name":"Saborkriola Padaria Pastelaria","shop":"bakery"}},
{"type":"Feature","geometry":{"type":"Point","coordinates":[-24.4542425,14.9868435]},"properties":{"name":"Merciaria Djito","shop":"convenience"}},
{"type":"Feature","geometry":{"type":"Point","coordinates":[-24.4889237,14.8983708]},"properties":{"name":"Mercado Rosa","shop":"supermarket"}},
{"type":"Feature","geometry":{"type":"Point","coordinates":[-24.439491,14.8755429]},"properties":{"name":"Mini mercado Teófilo","shop":"convenience"}},
{"type":"Feature","geometry":{"type":"Point","coordinates":[-24.4415939,14.8781155]},"properties":{"name":"Boca Ponto","shop":"supermarket"}},
{"type":"Feature","geometry":{"type":"Point","coordinates":[-22.9209758,16.6124171]},"properties":{"check_date":"2022-07-26","level":"0","name":"Supermercado Vila Verde","payment:mastercard":"yes","payment:visa":"yes","shop":"supermarket"}},
{"type":"Feature","geometry":{"type":"Point","coordinates":[-22.9444595,16.7545194]},"properties":{"check_date":"2022-07-22","level":"0","shop":"supermarket"}},
{"type":"Feature","geometry":{"type":"Point","coordinates":[-25.1598202,17.113438]},"properties":{"shop":"convenience"}},
{"type":"Feature","geometry":{"type":"Point","coordinates":[-25.176535,17.048041]},"properties":{"shop":"convenience"}},
{"type":"Feature","geometry":{"type":"Point","coordinates":[-23.5086457,14.9188352]},"properties":{"amenity":"marketplace","name":"Mercado Municipal"}},
{"type":"Feature","geometry":{"type":"Point","coordinates":[-25.0352736,17.1021239]},"properties":{"name":"Merceária Ramos Manuele","shop":"convenience"}},
{"type":"Feature","geometry":{"type":"Point","coordinates":[-24.3268588,16.6459538]},"properties":{"addr:city":"Fajã de Baixo","name":"Padaria Toffer","shop":"bakery"}},
{"type":"Feature","geometry":{"type":"Point","coordinates":[-24.9878553,16.8936861]},"properties":{"opening_hours":"Mo-Su 08:00-21:00","shop":"supermarket"}},
{"type":"Feature","geometry":{"type":"Point","coordinates":[-22.9055061,16.6013547]},"properties":{"name":"Huang","shop":"supermarket"}},
{"type":"Feature","geometry":{"type":"Point","coordinates":[-22.9056716,16.6008946]},"properties":{"name":"Chen","shop":"supermarket"}},
{"type":"Feature","geometry":{"type":"Point","coordinates":[-23.7513613,15.2777246]},"properties":{"name":"Dong","shop":"supermarket"}},
{"type":"Feature","geometry":{"type":"Point","coordinates":[-23.7516018,15.2769548]},"properties":{"name":"Bom Vizinho","shop":"supermarket"}},
{"type":"Feature","geometry":{"type":"Point","coordinates":[-23.7518698,15.2777395]},"properties":{"name":"Linda","shop":"supermarket"}},
{"type":"Feature","geometry":{"type":"Point","coordinates":[-25.1928222,17.0777991]},"properties":{"name":"Merceria Gomes","shop":"convenience"}},
{"type":"Feature","geometry":{"type":"Point","coordinates":[-22.9259316,16.6162893]},"properties":{"shop":"convenience"}},
{"type":"Feature","geometry":{"type":"Point","coordinates":[-22.9143932,16.597506]},"properties":{"name":"Loja","shop":"supermarket"}},
{"type":"Feature","geometry":{"type":"Point","coordinates":[-22.934072,16.7633159]},"properties":{"name":"Cidade Baixa","shop":"convenience"}},
{"type":"Feature","geometry":{"type":"Point","coordinates":[-22.9406965,16.7554993]},"properties":{"amenity":"marketplace","indoor":"yes"}},
{"type":"Feature","geometry":{"type":"Point","coordinates":[-24.3096579,16.6186774]},"properties":{"shop":"convenience"}},
{"type":"Feature","geometry":{"type":"Point","coordinates":[-22.8993279,16.5977739]},"properties":{"name":"Zang","shop":"convenience"}},
{"type":"Feature","geometry":{"type":"Point","coordinates":[-24.9907219,17.112247]},"properties":{"name":"Màrcia","shop":"convenience"}},
{"type":"Feature","geometry":{"type":"Point","coordinates":[-24.9931602,17.1098031]},"properties":{"name":"Lopes","shop":"convenience"}},
{"type":"Feature","geometry":{"type":"Point","coordinates":[-25.1309348,17.151487500000003]},"properties":{"level":"0","name":"Graça","shop":"convenience"}},
{"type":"Feature","geometry":{"type":"Point","coordinates":[-25.0260993,17.1406658]},"properties":{"name":"Pilar azul","shop":"convenience"}},
{"type":"Feature","geometry":{"type":"Point","coordinates":[-25.0305376,17.138438]},"properties":{"name":"J & M","shop":"convenience"}},
{"type":"Feature","geometry":{"type":"Point","coordinates":[-25.0446643,17.1322097]},"properties":{"shop":"convenience"}},
{"type":"Feature","geometry":{"type":"Point","coordinates":[-24.9877931,16.8868136]},"properties":{"shop":"bakery"}},
{"type":"Feature","geometry":{"type":"Point","coordinates":[-22.9059094,16.5986376]},"properties":{"name":"Liu","shop":"convenience"}},
{"type":"Feature","geometry":{"type":"Point","coordinates":[-22.9067783,16.600545]},"properties":{"name":"TendeTuto","shop":"convenience"}},
{"type":"Feature","geometry":{"type":"Point","coordinates":[-25.2115376,17.0959241]},"properties":{"name":"Santos","shop":"convenience"}},
{"type":"Feature","geometry":{"type":"Point","coordinates":[-25.2113588,17.0960927]},"properties":{"name":"Lopes","shop":"convenience"}},
{"type":"Feature","geometry":{"type":"Point","coordinates":[-25.2088068,17.0443394]},"properties":{"name":"Ribeira das Patas","opening_hours":"Mo-Sa 08:00-13:30,15:30-19:00","shop":"convenience","wheelchair":"no"}},
{"type":"Feature","geometry":{"type":"Point","coordinates":[-25.2105155,17.0440745]},"properties":{"name":"Ramos","shop":"convenience"}},
{"type":"Feature","geometry":{"type":"Point","coordinates":[-24.9869263,16.8921407]},"properties":{"shop":"convenience"}},
{"type":"Feature","geometry":{"type":"Point","coordinates":[-23.2128795,15.2302632]},"properties":{"name":"Mercearia Bar - Lucineno(Moreia Quente)","shop":"convenience"}},
{"type":"Feature","geometry":{"type":"Point","coordinates":[-24.9886388,16.891578]},"properties":{"name":"Mercearia Cuque","shop":"convenience"}},
{"type":"Feature","geometry":{"type":"Point","coordinates":[-24.9885924,16.8903969]},"properties":{"name":"Fragata","shop":"convenience"}},
{"type":"Feature","geometry":{"type":"Point","coordinates":[-24.9869436,16.888182]},"properties":{"shop":"convenience"}},
{"type":"Feature","geometry":{"type":"Point","coordinates":[-24.9861005,16.895366]},"properties":{"name":"Pilar Vermelho","shop":"supermarket"}},
{"type":"Feature","geometry":{"type":"Point","coordinates":[-24.9843789,16.8859759]},"properties":{"shop":"supermarket"}},
{"type":"Feature","geometry":{"type":"Point","coordinates":[-24.9840437,16.886176]},"properties":{"name":"Mini Food Market","shop":"convenience"}},
{"type":"Feature","geometry":{"type":"Point","coordinates":[-24.978216,16.8931083]},"properties":{"name":"Mercearia Ceja Bevindo","shop":"convenience"}},
{"type":"Feature","geometry":{"type":"Point","coordinates":[-24.9780343,16.8928718]},"properties":{"name":"Mini Mercado O Tal","shop":"convenience"}},
{"type":"Feature","geometry":{"type":"Point","coordinates":[-24.9810387,16.8808734]},"properties":{"name":"Mercearia Rudor","shop":"convenience"}},
{"type":"Feature","geometry":{"type":"Point","coordinates":[-24.9797364,16.8810386]},"properties":{"name":"Mercearia Donnah","shop":"convenience"}},
{"type":"Feature","geometry":{"type":"Point","coordinates":[-24.9707431,16.8805143]},"properties":{"shop":"convenience"}},
{"type":"Feature","geometry":{"type":"Point","coordinates":[-24.9704545,16.8804548]},"properties":{"shop":"convenience"}},
{"type":"Feature","geometry":{"type":"Point","coordinates":[-24.9700474,16.8876025]},"properties":{"name":"Mercearia Nanah","shop":"convenience"}},
{"type":"Feature","geometry":{"type":"Point","coordinates":[-24.9746386,16.8866035]},"properties":{"name":"Pina Vulcão","shop":"convenience"}},
{"type":"Feature","geometry":{"type":"Point","coordinates":[-24.9752419,16.8864754]},"properties":{"shop":"convenience"}},
{"type":"Feature","geometry":{"type":"Point","coordinates":[-25.0478153,17.1261601]},"properties":{"check_date":"2024-03-08","name":"Rocha","shop":"convenience"}},
{"type":"Feature","geometry":{"type":"Point","coordinates":[-25.0391429,17.1333774]},"properties":{"check_date":"2024-03-08","name":"Tia Nanda","shop":"convenience"}},
{"type":"Feature","geometry":{"type":"Point","coordinates":[-25.0520927,17.119375]},"properties":{"check_date":"2024-03-09","name":"Monteiro","shop":"convenience"}},
{"type":"Feature","geometry":{"type":"Point","coordinates":[-25.0973079,17.1541154]},"properties":{"check_date":"2024-03-11","name":"Mercearia L&B","shop":"convenience"}},
{"type":"Feature","geometry":{"type":"Point","coordinates":[-25.0988118,17.1542595]},"properties":{"check_date":"2024-03-11","name":"Apollo 77","shop":"convenience"}},
{"type":"Feature","geometry":{"type":"Point","coordinates":[-25.099867,17.1483568]},"properties":{"check_date":"2024-03-11","name":"Aseon","shop":"convenience"}},
{"type":"Feature","geometry":{"type":"Point","coordinates":[-25.099731,17.1536258]},"properties":{"check_date":"2024-03-11","name":"Mecearia do Povo","shop":"convenience"}},
{"type":"Feature","geometry":{"type":"Point","coordinates":[-24.3248654,16.6474567]},"properties":{"name":"Mini Mercado Aliança","shop":"convenience"}},
{"type":"Feature","geometry":{"type":"Point","coordinates":[-24.3267776,16.6469635]},"properties":{"name":"Mercearia Toffer","shop":"convenience"}},
{"type":"Feature","geometry":{"type":"Point","coordinates":[-25.0576381,17.1666453]},"properties":{"check_date":"2024-03-18","contact:phone":"+238 954 64 16; +238 584 30 68","name":"Mercearia Agradável","opening_hours":"Mo-Sa 08:00-20:30; Su 09:00-14:30,15:00-20:30","shop":"convenience"}},
{"type":"Feature","geometry":{"type":"Point","coordinates":[-25.0828695,17.1154506]},"properties":{"name":"Bibia","phone":"9977338","shop":"convenience"}},
{"type":"Feature","geometry":{"type":"Point","coordinates":[-25.0830409,17.1154222]},"properties":{"name":"Soc. da Luz","shop":"convenience"}},
{"type":"Feature","geometry":{"type":"Point","coordinates":[-25.0476914,17.1591706]},"properties":{"shop":"convenience"}},
{"type":"Feature","geometry":{"type":"Point","coordinates":[-23.7589997,15.1389577]},"properties":{"name":"Mercearia Mafalda&Filhos","shop":"supermarket"}},
{"type":"Feature","geometry":{"type":"Point","coordinates":[-24.2981033,16.6152523]},"properties":{"amenity":"marketplace","name":"Mercado Municipal","name:es":"Mercado Municipal"}},
{"type":"Feature","geometry":{"type":"Point","coordinates":[-22.9099904,16.6026323]},"properties":{"shop":"convenience"}},
{"type":"Feature","geometry":{"type":"Point","coordinates":[-23.6053443,14.9155695]},"properties":{"brand":"Handcraft","name":"Shell Shop","shop":"convenience","wheelchair":"yes"}},
{"type":"Feature","geometry":{"type":"Point","coordinates":[-24.990718,16.8982619]},"properties":{"name":"Bäckerei & Gelateria","shop":"bakery"}},
{"type":"Feature","geometry":{"type":"Point","coordinates":[-22.9066319,16.5993653]},"properties":{"name":"Hui Xin","shop":"convenience"}},
{"type":"Feature","geometry":{"type":"Point","coordinates":[-22.8999983,16.5981236]},"properties":{"shop":"convenience"}},
{"type":"Feature","geometry":{"type":"Point","coordinates":[-25.3107629,16.9580204]},"properties":{"name":"Jovem","shop":"convenience"}},
{"type":"Feature","geometry":{"type":"LineString","coordinates":[[-24.4995875,14.8953178],[-24.4995415,14.8950619],[-24.4993515,14.8950938],[-24.4993974,14.8953497],[-24.4995875,14.8953178]]},"properties":{"amenity":"marketplace","building":"yes","name":"Mercado Municipal"}},
{"type":"Feature","geometry":{"type":"LineString","coordinates":[[-24.499611,14.8954749],[-24.4995939,14.8953871],[-24.4994096,14.895395],[-24.4994282,14.8955398],[-24.499611,14.8954749]]},"properties":{"building":"yes","name":"Mini Mercado Cintia II","shop":"supermarket"}},
{"type":"Feature","geometry":{"type":"LineString","coordinates":[[-24.4943278,14.9022608],[-24.4942927,14.9021712],[-24.4944173,14.9020873],[-24.4945443,14.9022805],[-24.4943111,14.9024269],[-24.4940055,14.9026189],[-24.4939121,14.9024981],[-24.4943278,14.9022608]]},"properties":{"building":"yes","name":"Casa Rodrigo","shop":"supermarket"}},
{"type":"Feature","geometry":{"type":"LineString","coordinates":[[-24.9879071,16.8865377],[-24.9879602,16.8863633],[-24.9880164,16.8861784],[-24.9878981,16.8861454],[-24.9878014,16.8861185],[-24.9877461,16.8863],[-24.987692,16.8864778],[-24.9877877,16.8865044],[-24.9879071,16.8865377]]},"properties":{"amenity":"marketplace","building":"yes","name":"Mercado Municipal"}},
{"type":"Feature","geometry":{"type":"LineString","coordinates":[[-22.9181151,16.1765795],[-22.9180592,16.1766813],[-22.9181524,16.1767528],[-22.9181286,16.1768181],[-22.9179235,16.1766798],[-22.9180405,16.1765252],[-22.9181151,16.1765795]]},"properties":{"building":"yes","shop":"convenience"}},
{"type":"Feature","geometry":{"type":"LineString","coordinates":[[-22.9168639,16.175397],[-22.9167975,16.1755279],[-22.9166932,16.1754791],[-22.9167596,16.1753482],[-22.9168639,16.175397]]},"properties":{"amenity":"marketplace","building":"yes","name":"Mercado Municipal"}},
{"type":"Feature","geometry":{"type":"LineString","coordinates":[[-25.1611934,17.1237294],[-25.1611441,17.123728],[-25.161143,17.1237651],[-25.1611922,17.1237665],[-25.1611934,17.1237294]]},"properties":{"building":"yes","shop":"convenience"}},
{"type":"Feature","geometry":{"type":"LineString","coordinates":[[-23.5030543,14.9232369],[-23.5026933,14.9232463],[-23.5026675,14.9230949],[-23.5021663,14.9231258],[-23.5021703,14.9231997],[-23.5021215,14.9231973],[-23.5021435,14.92342],[-23.5026704,14.9233338],[-23.5030743,14.9233486],[-23.5030543,14.9232369]]},"properties":{"addr:city":"Praia","building":"yes","name":"Timoteo","shop":"supermarket"}},
{"type":"Feature","geometry":{"type":"LineString","coordinates":[[-23.5135755,14.925052],[-23.5133346,14.9249831],[-23.5135403,14.9243121],[-23.5137601,14.9243701],[-23.513781,14.924381],[-23.5135755,14.925052]]},"properties":{"building":"yes","name":"Calu e Angela","shop":"supermarket"}},
{"type":"Feature","geometry":{"type":"LineString","coordinates":[[-23.5280825,14.9126303],[-23.527896899999999,14.912604],[-23.5279588,14.9122981],[-23.5281426,14.9123262],[-23.5280825,14.9126303]]},"properties":{"building":"yes","name":"Calu e Angela","shop":"supermarket"}},
{"type":"Feature","geometry":{"type":"LineString","coordinates":[[-24.4970968,14.8959505],[-24.4975707,14.895791],[-24.497392,14.8955813],[-24.4970904,14.8957095],[-24.4970968,14.8959505]]},"properties":{"amenity":"marketplace"}},
{"type":"Feature","geometry":{"type":"LineString","coordinates":[[-23.5207391,14.9203986],[-23.5206228,14.9202612],[-23.5207238,14.9201814],[-23.52084,14.9203188],[-23.5207391,14.9203986]]},"properties":{"building":"yes","name":"Calu e Angela","shop":"supermarket"}},
{"type":"Feature","geometry":{"type":"LineString","coordinates":[[-23.5092296,14.918408],[-23.5093031,14.9182802],[-23.509603,14.9183919],[-23.5096229,14.9183995],[-23.5095557,14.9185381],[-23.5092296,14.918408]]},"properties":{"addr:city":"Praia","addr:street":"Avenida Amilcar Cabral","building":"yes","name":"Fenícia","shop":"supermarket"}},
{"type":"Feature","geometry":{"type":"LineString","coordinates":[[-23.5143229,14.9517369],[-23.5142688,14.9516673],[-23.5143901,14.9515794],[-23.5144442,14.9516491],[-23.5143229,14.9517369]]},"properties":{"building":"yes","shop":"convenience"}},
{"type":"Feature","geometry":{"type":"LineString","coordinates":[[-23.506674,14.9253209],[-23.5065763,14.92535],[-23.5065656,14.9253162],[-23.5065396,14.9252395],[-23.5065158,14.9251601],[-23.5066135,14.9251311],[-23.506674,14.9253209]]},"properties":{"building":"yes","shop":"convenience"}},
{"type":"Feature","geometry":{"type":"LineString","coordinates":[[-23.5098627,14.9177741],[-23.5096821,14.9176707],[-23.5097935,14.9174891],[-23.5099742,14.9175925],[-23.5098627,14.9177741]]},"properties":{"addr:city":"Praia","addr:street":"Avenida Amilcar Cabral","building":"yes","name":"Calu e Angela","shop":"supermarket"}},
{"type":"Feature","geometry":{"type":"LineString","coordinates":[[-22.9165039,16.18161],[-22.9163684,16.1815611],[-22.9164047,16.1814684],[-22.9165401,16.1815173],[-22.9165039,16.18161]]},"properties":{"amenity":"marketplace","building":"yes","name":"Mercado Municipal"}},
{"type":"Feature","geometry":{"type":"LineString","coordinates":[[-22.9172432,16.1811545],[-22.9170893,16.1810965],[-22.9171295,16.1809983],[-22.9172834,16.1810563],[-22.9172432,16.1811545]]},"properties":{"amenity":"marketplace","building":"yes","name":"Mercado Municipal"}},
{"type":"Feature","geometry":{"type":"LineString","coordinates":[[-22.9169252,16.1819131],[-22.9167473,16.1818389],[-22.9167854,16.1817549],[-22.9169632,16.181829],[-22.9169252,16.1819131]]},"properties":{"amenity":"marketplace","building":"yes","name":"Mercado Municipal"}},
{"type":"Feature","geometry":{"type":"LineString","coordinates":[[-22.9169212,16.1807298],[-22.9167762,16.1806749],[-22.9168116,16.1805888],[-22.9169565,16.1806437],[-22.9169212,16.1807298]]},"properties":{"amenity":"marketplace","building":"yes","name":"Mercado Municipal"}},
{"type":"Feature","geometry":{"type":"LineString","coordinates":[[-23.5115662,14.9202316],[-23.5114732,14.9201851],[-23.5113741,14.9201321],[-23.5114456,14.9199948],[-23.5116025,14.9201519],[-23.5115662,14.9202316]]},"properties":{"brand":"Shell","brand:wikidata":"Q154950","brand:wikipedia":"en:Royal Dutch Shell","building":"yes","name":"Shell","shop":"convenience"}},
{"type":"Feature","geometry":{"type":"LineString","coordinates":[[-22.9160945,16.1761286],[-22.916025,16.1760969],[-22.9161312,16.175882],[-22.9162006,16.1759137],[-22.9160945,16.1761286]]},"properties":{"building":"yes","shop":"convenience"}},
{"type":"Feature","geometry":{"type":"LineString","coordinates":[[-22.9168223,16.1764686],[-22.9169168,16.1762816],[-22.9172651,16.176444],[-22.9171945,16.1765836],[-22.9171705,16.176631],[-22.9168223,16.1764686]]},"properties":{"building":"yes","shop":"convenience"}},
{"type":"Feature","geometry":{"type":"LineString","coordinates":[[-22.9188467,16.1772253],[-22.9187394,16.1771557],[-22.9189524,16.1768273],[-22.9190466,16.1768827],[-22.9188467,16.1772253]]},"properties":{"building":"yes","shop":"convenience"}},
{"type":"Feature","geometry":{"type":"LineString","coordinates":[[-25.1397914,17.0856674],[-25.1397163,17.0857187],[-25.1396465,17.0856213],[-25.1397324,17.0855649],[-25.1397914,17.0856674]]},"properties":{"building":"yes","name":"Cooperativa","shop":"convenience"}},
{"type":"Feature","geometry":{"type":"LineString","coordinates":[[-24.9795084,16.8857398],[-24.979057,16.8858592],[-24.978985,16.8856295],[-24.9794363,16.8855101],[-24.9795084,16.8857398]]},"properties":{"amenity":"marketplace","building":"yes","name":"Mercado (da) Ribeirinha"}},
{"type":"Feature","geometry":{"type":"LineString","coordinates":[[-24.9885138,16.8774298],[-24.9883445,16.8773425],[-24.9885268,16.8769498],[-24.9887157,16.8770371],[-24.9885138,16.8774298]]},"properties":{"amenity":"marketplace","building":"yes","name":"Mercado Monte Sossego"}},
{"type":"Feature","geometry":{"type":"LineString","coordinates":[[-22.9052339,16.5984662],[-22.9051957,16.5985955],[-22.9051053,16.5985726],[-22.9051446,16.598443],[-22.9052339,16.5984662]]},"properties":{"amenity":"marketplace","name":"Mercado"}},
{"type":"Feature","geometry":{"type":"LineString","coordinates":[[-23.6682396,15.0966767],[-23.6680485,15.0968764],[-23.6677046,15.0965834],[-23.6679451,15.0963295],[-23.6682845,15.0966225],[-23.6682396,15.0966767]]},"properties":{"amenity":"marketplace","name":"Merc. Municipal"}},
{"type":"Feature","geometry":{"type":"MultiPolygon","coordinates":[[[[-24.4995875,14.8953178],[-24.4995415,14.8950619],[-24.4993515,14.8950938],[-24.4993974,14.8953497],[-24.4995875,14.8953178]]]]},"properties":{"amenity":"marketplace","building":"yes","name":"Mercado Municipal"}},
{"type":"Feature","geometry":{"type":"MultiPolygon","coordinates":[[[[-24.499611,14.8954749],[-24.4995939,14.8953871],[-24.4994096,14.895395],[-24.4994282,14.8955398],[-24.499611,14.8954749]]]]},"properties":{"building":"yes","name":"Mini Mercado Cintia II","shop":"supermarket"}},
{"type":"Feature","geometry":{"type":"MultiPolygon","coordinates":[[[[-24.4945443,14.9022805],[-24.4944173,14.9020873],[-24.4942927,14.9021712],[-24.4943278,14.9022608],[-24.4939121,14.9024981],[-24.4940055,14.9026189],[-24.4943111,14.9024269],[-24.4945443,14.9022805]]]]},"properties":{"building":"yes","name":"Casa Rodrigo","shop":"supermarket"}},
{"type":"Feature","geometry":{"type":"MultiPolygon","coordinates":[[[[-24.9880164,16.8861784],[-24.9878981,16.8861454],[-24.9878014,16.8861185],[-24.9877461,16.8863],[-24.987692,16.8864778],[-24.9877877,16.8865044],[-24.9879071,16.8865377],[-24.9879602,16.8863633],[-24.9880164,16.8861784]]]]},"properties":{"amenity":"marketplace","building":"yes","name":"Mercado Municipal"}},
{"type":"Feature","geometry":{"type":"MultiPolygon","coordinates":[[[[-22.9181524,16.1767528],[-22.9180592,16.1766813],[-22.9181151,16.1765795],[-22.9180405,16.1765252],[-22.9179235,16.1766798],[-22.9181286,16.1768181],[-22.9181524,16.1767528]]]]},"properties":{"building":"yes","shop":"convenience"}},
{"type":"Feature","geometry":{"type":"MultiPolygon","coordinates":[[[[-22.9168639,16.175397],[-22.9167596,16.1753482],[-22.9166932,16.1754791],[-22.9167975,16.1755279],[-22.9168639,16.175397]]]]},"properties":{"amenity":"marketplace","building":"yes","name":"Mercado Municipal"}},
{"type":"Feature","geometry":{"type":"MultiPolygon","coordinates":[[[[-25.1611934,17.1237294],[-25.1611441,17.123728],[-25.161143,17.1237651],[-25.1611922,17.1237665],[-25.1611934,17.1237294]]]]},"properties":{"building":"yes","shop":"convenience"}},
{"type":"Feature","geometry":{"type":"MultiPolygon","coordinates":[[[[-23.5030743,14.9233486],[-23.5030543,14.9232369],[-23.5026933,14.9232463],[-23.5026675,14.9230949],[-23.5021663,14.9231258],[-23.5021703,14.9231997],[-23.5021215,14.9231973],[-23.5021435,14.92342],[-23.5026704,14.9233338],[-23.5030743,14.9233486]]]]},"properties":{"addr:city":"Praia","building":"yes","name":"Timoteo","shop":"supermarket"}},
{"type":"Feature","geometry":{"type":"MultiPolygon","coordinates":[[[[-23.513781,14.924381],[-23.5137601,14.9243701],[-23.5135403,14.9243121],[-23.5133346,14.9249831],[-23.5135755,14.925052],[-23.513781,14.924381]]]]},"properties":{"building":"yes","name":"Calu e Angela","shop":"supermarket"}},
{"type":"Feature","geometry":{"type":"MultiPolygon","coordinates":[[[[-23.5281426,14.9123262],[-23.5279588,14.9122981],[-23.527896899999999,14.912604],[-23.5280825,14.9126303],[-23.5281426,14.9123262]]]]},"properties":{"building":"yes","name":"Calu e Angela","shop":"supermarket"}},
{"type":"Feature","geometry":{"type":"MultiPolygon","coordinates":[[[[-24.4975707,14.895791],[-24.497392,14.8955813],[-24.4970904,14.8957095],[-24.4970968,14.8959505],[-24.4975707,14.895791]]]]},"properties":{"amenity":"marketplace"}},
{"type":"Feature","geometry":{"type":"MultiPolygon","coordinates":[[[[-23.52084,14.9203188],[-23.5207238,14.9201814],[-23.5206228,14.9202612],[-23.5207391,14.9203986],[-23.52084,14.9203188]]]]},"properties":{"building":"yes","name":"Calu e Angela","shop":"supermarket"}},
{"type":"Feature","geometry":{"type":"MultiPolygon","coordinates":[[[[-23.5096229,14.9183995],[-23.509603,14.9183919],[-23.5093031,14.9182802],[-23.5092296,14.918408],[-23.5095557,14.9185381],[-23.5096229,14.9183995]]]]},"properties":{"addr:city":"Praia","addr:street":"Avenida Amilcar Cabral","building":"yes","name":"Fenícia","shop":"supermarket"}},
{"type":"Feature","geometry":{"type":"MultiPolygon","coordinates":[[[[-23.5144442,14.9516491],[-23.5143901,14.9515794],[-23.5142688,14.9516673],[-23.5143229,14.9517369],[-23.5144442,14.9516491]]]]},"properties":{"building":"yes","shop":"convenience"}},
{"type":"Feature","geometry":{"type":"MultiPolygon","coordinates":[[[[-23.506674,14.9253209],[-23.5066135,14.9251311],[-23.5065158,14.9251601],[-23.5065396,14.9252395],[-23.5065656,14.9253162],[-23.5065763,14.92535],[-23.506674,14.9253209]]]]},"properties":{"building":"yes","shop":"convenience"}},
{"type":"Feature","geometry":{"type":"MultiPolygon","coordinates":[[[[-23.5099742,14.9175925],[-23.5097935,14.9174891],[-23.5096821,14.9176707],[-23.5098627,14.9177741],[-23.5099742,14.9175925]]]]},"properties":{"addr:city":"Praia","addr:street":"Avenida Amilcar Cabral","building":"yes","name":"Calu e Angela","shop":"supermarket"}},
{"type":"Feature","geometry":{"type":"MultiPolygon","coordinates":[[[[-22.9165401,16.1815173],[-22.9164047,16.1814684],[-22.9163684,16.1815611],[-22.9165039,16.18161],[-22.9165401,16.1815173]]]]},"properties":{"amenity":"marketplace","building":"yes","name":"Mercado Municipal"}},
{"type":"Feature","geometry":{"type":"MultiPolygon","coordinates":[[[[-22.9172834,16.1810563],[-22.9171295,16.1809983],[-22.9170893,16.1810965],[-22.9172432,16.1811545],[-22.9172834,16.1810563]]]]},"properties":{"amenity":"marketplace","building":"yes","name":"Mercado Municipal"}},
{"type":"Feature","geometry":{"type":"MultiPolygon","coordinates":[[[[-22.9169632,16.181829],[-22.9167854,16.1817549],[-22.9167473,16.1818389],[-22.9169252,16.1819131],[-22.9169632,16.181829]]]]},"properties":{"amenity":"marketplace","building":"yes","name":"Mercado Municipal"}},
{"type":"Feature","geometry":{"type":"MultiPolygon","coordinates":[[[[-22.9169565,16.1806437],[-22.9168116,16.1805888],[-22.9167762,16.1806749],[-22.9169212,16.1807298],[-22.9169565,16.1806437]]]]},"properties":{"amenity":"marketplace","building":"yes","name":"Mercado Municipal"}},
{"type":"Feature","geometry":{"type":"MultiPolygon","coordinates":[[[[-23.5116025,14.9201519],[-23.5114456,14.9199948],[-23.5113741,14.9201321],[-23.5114732,14.9201851],[-23.5115662,14.9202316],[-23.5116025,14.9201519]]]]},"properties":{"brand":"Shell","brand:wikidata":"Q154950","brand:wikipedia":"en:Royal Dutch Shell","building":"yes","name":"Shell","shop":"convenience"}},
{"type":"Feature","geometry":{"type":"MultiPolygon","coordinates":[[[[-22.9162006,16.1759137],[-22.9161312,16.175882],[-22.916025,16.1760969],[-22.9160945,16.1761286],[-22.9162006,16.1759137]]]]},"properties":{"building":"yes","shop":"convenience"}},
{"type":"Feature","geometry":{"type":"MultiPolygon","coordinates":[[[[-22.9172651,16.176444],[-22.9169168,16.1762816],[-22.9168223,16.1764686],[-22.9171705,16.176631],[-22.9171945,16.1765836],[-22.9172651,16.176444]]]]},"properties":{"building":"yes","shop":"convenience"}},
{"type":"Feature","geometry":{"type":"MultiPolygon","coordinates":[[[[-22.9190466,16.1768827],[-22.9189524,16.1768273],[-22.9187394,16.1771557],[-22.9188467,16.1772253],[-22.9190466,16.1768827]]]]},"properties":{"building":"yes","shop":"convenience"}},
{"type":"Feature","geometry":{"type":"MultiPolygon","coordinates":[[[[-25.1397914,17.0856674],[-25.1397324,17.0855649],[-25.1396465,17.0856213],[-25.1397163,17.0857187],[-25.1397914,17.0856674]]]]},"properties":{"building":"yes","name":"Cooperativa","shop":"convenience"}},
{"type":"Feature","geometry":{"type":"MultiPolygon","coordinates":[[[[-24.9795084,16.8857398],[-24.9794363,16.8855101],[-24.978985,16.8856295],[-24.979057,16.8858592],[-24.9795084,16.8857398]]]]},"properties":{"amenity":"marketplace","building":"yes","name":"Mercado (da) Ribeirinha"}},
{"type":"Feature","geometry":{"type":"MultiPolygon","coordinates":[[[[-24.9887157,16.8770371],[-24.9885268,16.8769498],[-24.9883445,16.8773425],[-24.9885138,16.8774298],[-24.9887157,16.8770371]]]]},"properties":{"amenity":"marketplace","building":"yes","name":"Mercado Monte Sossego"}},
{"type":"Feature","geometry":{"type":"MultiPolygon","coordinates":[[[[-22.9052339,16.5984662],[-22.9051446,16.598443],[-22.9051053,16.5985726],[-22.9051957,16.5985955],[-22.9052339,16.5984662]]]]},"properties":{"amenity":"marketplace","name":"Mercado"}},
{"type":"Feature","geometry":{"type":"MultiPolygon","coordinates":[[[[-23.6682845,15.0966225],[-23.6679451,15.0963295],[-23.6677046,15.0965834],[-23.6680485,15.0968764],[-23.6682396,15.0966767],[-23.6682845,15.0966225]]]]},"properties":{"amenity":"marketplace","name":"Merc. Municipal"}}
]}
