{"type":"FeatureCollection","features":[
{"type":"Feature","geometry":{"type":"Point","coordinates":[43.152834,11.5720212]},"properties":{"addr:city":"جيبوتي","name":"AL GAMIL الجميل","name:ar":"الجميل","name:fr":"AL GAMIL","shop":"convenience"}},
{"type":"Feature","geometry":{"type":"Point","coordinates":[43.1603857,11.5717372]},"properties":{"addr:city":"جيبوتي","addr:housename":"Casino Supermarché Haramous","addr:postcode":"BP 105","addr:street":"طريق القيلولة","name":"Casino كازينو","name:ar":"كازينو","name:en":"Casino","name:fr":"Casino","shop":"supermarket","source":"survey"}},
{"type":"Feature","geometry":{"type":"Point","coordinates":[43.1493544,11.6139125]},"properties":{"addr:city":"جيبوتي","shop":"convenience"}},
{"type":"Feature","geometry":{"type":"Point","coordinates":[43.1497773,11.5430419]},"properties":{"addr:city":"جيبوتي","name":"Navy Exchange البحرية","name:ar":"البحرية","name:fr":"Navy Exchange","shop":"convenience"}},
{"type":"Feature","geometry":{"type":"Point","coordinates":[43.1490188,11.6118537]},"properties":{"addr:city":"Djibouti","addr:city:ar":"جيبوتي","addr:city:fr":"Djibouti","brand":"Carrefour","brand:ar":"كارفور","brand:fr":"Carrefour","brand:wikidata":"Q217599","brand:wikipedia":"fr:Carrefour (enseigne)","name":"Carrefour","name:ar":"كارفور","name:fr":"Carrefour","shop":"convenience"}},
{"type":"Feature","geometry":{"type":"Point","coordinates":[43.1038255,11.5673156]},"properties":{"addr:city":"جيبوتي","amenity":"marketplace","name":"Marché de Hayableh السوق هيابلي","name:ar":"السوق هيابلي","name:fr":"Marché de Hayableh"}},
{"type":"Feature","geometry":{"type":"Point","coordinates":[43.1050711,11.5667267]},"properties":{"addr:city":"جيبوتي","name":"Boulangerie de Hayableh مخبز هيابلي","name:ar":"مخبز هيابلي","name:fr":"Boulangerie de Hayableh","shop":"bakery"}},
{"type":"Feature","geometry":{"type":"Point","coordinates":[43.1472177,11.609791]},"properties":{"addr:city":"جيبوتي","name":"Cash Centre","name:ar":"مركز النقد","name:fr":"Cash Centre","opening_hours":"Sa - Th","operator":"Établissements Coubeche","operator:ar":"المؤسسات كوبيش","operator:fr":"Établissements Coubeche","shop":"supermarket","website":"http://www.coubeche.com/cash-center-leader-price/"}},
{"type":"Feature","geometry":{"type":"Point","coordinates":[43.1453952,11.5938393]},"properties":{"addr:city":"جيبوتي","name":"De Pâtisserie Le Château المعجنات القلعة","name:ar":"المعجنات القلعة","name:fr":"De Pâtisserie Le Château","shop":"bakery"}},
{"type":"Feature","geometry":{"type":"Point","coordinates":[43.1054847,11.5572073]},"properties":{"amenity":"marketplace","name":"maché wahle"}},
{"type":"Feature","geometry":{"type":"Point","coordinates":[43.1005139,11.5576554]},"properties":{"addr:city":"Balbala","addr:city:ar":"بلبالا","addr:city:fr":"Balbala","name":"Al-Maïda","name:ar":"المائدة","name:fr":"Al-Maïda","shop":"supermarket"}},
{"type":"Feature","geometry":{"type":"Point","coordinates":[43.089899,11.552721]},"properties":{"addr:city":"بلبالا","amenity":"marketplace","name":"Marche de FABTACH متجر فابتاش","name:ar":"متجر فابتاش","name:fr":"Marche de FABTACH"}},
{"type":"Feature","geometry":{"type":"Point","coordinates":[43.0983974,11.5524554]},"properties":{"name":"Boucherie جزار","name:ar":"جزار","name:es":"Carniceria","name:fr":"Boucherie","shop":"butcher"}},
{"type":"Feature","geometry":{"type":"Point","coordinates":[43.0998266,11.5551281]},"properties":{"name":"Supérette Hodan 1","name:ar":"سوبرات هودان 1","name:fr":"Supérette Hodan 1","shop":"supermarket"}},
{"type":"Feature","geometry":{"type":"Point","coordinates":[43.1016243,11.5574143]},"properties":{"addr:city":"بلبالا","addr:city:ar":"بلبالا","amenity":"marketplace","clothes":"yes"}},
{"type":"Feature","geometry":{"type":"Point","coordinates":[43.1015388,11.555766]},"properties":{"addr:city":"بلبالا","shop":"bakery"}},
{"type":"Feature","geometry":{"type":"Point","coordinates":[43.1078189,11.5582966]},"properties":{"name":"boulangerie wahle-daba","shop":"bakery"}},
{"type":"Feature","geometry":{"type":"Point","coordinates":[43.1462509,11.565262]},"properties":{"name":"Boulangerie du Moulin","shop":"bakery"}},
{"type":"Feature","geometry":{"type":"Point","coordinates":[43.1527227,11.5709304]},"properties":{"name":"Kioske Douda","shop":"convenience"}},
{"type":"Feature","geometry":{"type":"Point","coordinates":[43.1521818,11.5717296]},"properties":{"name":"Bambis","operator":"Le Bafena","shop":"convenience"}},
{"type":"Feature","geometry":{"type":"Point","coordinates":[43.1521091,11.5875256]},"properties":{"addr:city":"جيبوتي","addr:street":"شارع الجنرال ديغول","name":"Napoléon نابليون","name:ar":"نابليون","name:fr":"Napoléon","phone":"+253 21 35 48 19","shop":"convenience"}},
{"type":"Feature","geometry":{"type":"Point","coordinates":[43.153016,11.5599691]},"properties":{"addr:street":"Route Nationale 2 / الطريق الوطني٢","name":"La 5","shop":"convenience"}},
{"type":"Feature","geometry":{"type":"Point","coordinates":[43.1467622,11.5966584]},"properties":{"addr:city":"جيبوتي","name":"Casino كازينو","name:ar":"كازينو","name:en":"Casino","shop":"convenience"}},
{"type":"Feature","geometry":{"type":"Point","coordinates":[43.1510314,11.5914645]},"properties":{"addr:city":"جيبوتي","name":"Les Halles القاعات","name:ar":"القاعات","name:fr":"Les Halles","shop":"convenience"}},
{"type":"Feature","geometry":{"type":"Point","coordinates":[43.1447925,11.5929974]},"properties":{"addr:city":"جيبوتي","name":"Boucherie Bonne Viande اللحوم جيد جزار","name:ar":"اللحوم جيد جزار","name:fr":"Boucherie Bonne Viande","shop":"butcher"}},
{"type":"Feature","geometry":{"type":"Point","coordinates":[43.1526508,11.5696819]},"properties":{"name":"Boulangerie du CPE","shop":"bakery"}},
{"type":"Feature","geometry":{"type":"Point","coordinates":[43.1147537,11.5621307]},"properties":{"name":"Marché Ousley","name:fr":"Marché Ousley","shop":"supermarket"}},
{"type":"Feature","geometry":{"type":"Point","coordinates":[42.8603892,11.502064]},"properties":{"shop":"supermarket"}},
{"type":"Feature","geometry":{"type":"Point","coordinates":[43.1158389,11.5633862]},"properties":{"name":"Boulangerie de Cheick Moussa","shop":"bakery"}},
{"type":"Feature","geometry":{"type":"Point","coordinates":[43.1460514,11.5940257]},"properties":{"addr:street":"Rue de Bir Hakeim شارع بئر حكيم","name":"Boutique Adn","name:ar":"بقالة عدن","shop":"supermarket"}},
{"type":"Feature","geometry":{"type":"Point","coordinates":[43.1525411,11.5684519]},"properties":{"name":"Epicerie Al-Moulk","name:ar":"بقالة","name:en":"Al-Moulk grocery","name:fr":"Epicerie Al-Moulk","shop":"convenience"}},
{"type":"Feature","geometry":{"type":"Point","coordinates":[43.1358937,11.5674802]},"properties":{"shop":"bakery"}},
{"type":"Feature","geometry":{"type":"Point","coordinates":[43.1359019,11.5673526]},"properties":{"name":"Nouvelle Génération","shop":"convenience"}},
{"type":"Feature","geometry":{"type":"Point","coordinates":[43.1341171,11.5697734]},"properties":{"name":"Boulangerie du CES","name:fr":"Boulangerie du CES","shop":"bakery"}},
{"type":"Feature","geometry":{"type":"Point","coordinates":[43.144455,11.5910837]},"properties":{"name":"Supérette d'Einguella","shop":"convenience"}},
{"type":"Feature","geometry":{"type":"Point","coordinates":[43.2477489,11.465025]},"properties":{"addr:city":"لويعدا","addr:city:ar":"لويعدا","addr:postcode":"00253","amenity":"marketplace","email":"info@djibah.com","name":"جيبة جيبوتي","name:ar":"جيبة جيبوتي","name:fr":"Djiba Djibouti","operator":"شركة جيبة للمأكولات البحرية","operator:ar":"شركة جيبة للمأكولات البحرية","operator:fr":"Entreprise de Fruits de Mer Djiba","phone":"+253 77 73 08 67","shop":"seafood"}},
{"type":"Feature","geometry":{"type":"Point","coordinates":[43.1084063,11.558064]},"properties":{"amenity":"marketplace"}},
{"type":"Feature","geometry":{"type":"Point","coordinates":[43.0371723,11.5547326]},"properties":{"name":"Jerrma","name:fr":"Jerrma","shop":"supermarket"}},
{"type":"Feature","geometry":{"type":"Point","coordinates":[43.0351149,11.5548076]},"properties":{"name":"Mohammed Saïd Aljamil","name:fr":"Mohammed Saïd Aljamil","shop":"supermarket"}},
{"type":"Feature","geometry":{"type":"Point","coordinates":[43.1458635,11.5924117]},"properties":{"name:en":"Mrkato Djibouti","shop":"supermarket"}},
{"type":"Feature","geometry":{"type":"LineString","coordinates":[[42.881954,11.7845911],[42.8819235,11.7844218],[42.8817393,11.7844537],[42.8817699,11.784623],[42.881954,11.7845911]]},"properties":{"addr:city":"Tadjourah تاجورة","building":"yes","shop":"bakery"}},
{"type":"Feature","geometry":{"type":"LineString","coordinates":[[43.1439908,11.5918892],[43.1439975,11.5918979],[43.1444602,11.5915567],[43.1445426,11.5915482],[43.1445563,11.5914941],[43.1443995,11.59129],[43.1442641,11.5912879],[43.1441869,11.5912532],[43.144147,11.5912826],[43.144099,11.5912202],[43.1441146,11.5912087],[43.1439909,11.5911938],[43.1436422,11.5914509],[43.1437077,11.5915362],[43.1439472,11.5918479],[43.1439144,11.5918721],[43.1439504,11.5919189],[43.1439908,11.5918892]]},"properties":{"addr:city":"جيبوتي","building":"yes","name":"Nougaprix نوكابري","name:ar":"نوجابري","name:fr":"Nougaprix","shop":"supermarket"}},
{"type":"Feature","geometry":{"type":"LineString","coordinates":[[43.1473096,11.5947782],[43.147262,11.5946246],[43.1474211,11.5945772],[43.1474497,11.5946695],[43.1473814,11.5946898],[43.1474005,11.5947512],[43.1473096,11.5947782]]},"properties":{"addr:city":"جيبوتي","amenity":"marketplace","building":"retail","name":"Marché de l'artisanat سوق الحرفية","name:ar":"سوق الحرفية","name:fr":"Marché de l'artisanat"}},
{"type":"Feature","geometry":{"type":"LineString","coordinates":[[43.1521661,11.5596105],[43.1521902,11.5595207],[43.1523725,11.5595677],[43.1523484,11.5596575],[43.1521661,11.5596105]]},"properties":{"building":"yes","name":"Proxy Shop","shop":"convenience"}},
{"type":"Feature","geometry":{"type":"LineString","coordinates":[[43.1361553,11.5782805],[43.1352011,11.5770001],[43.1352057,11.5767828],[43.1363404,11.5759599],[43.1373962,11.5774707],[43.1369665,11.5777511],[43.1361553,11.5782805]]},"properties":{"addr:city":"جيبوتي","amenity":"marketplace","name":"Marché Riyaad سوق الرياض","name:ar":"سوق الرياض","name:en":"Ar-Riyadh Market","name:fr":"Marché Riyaad","name:so":"Sarimada Riyad"}},
{"type":"Feature","geometry":{"type":"MultiPolygon","coordinates":[[[[42.8817393,11.7844537],[42.8819235,11.7844218],[42.881954,11.7845911],[42.8817699,11.784623],[42.8817393,11.7844537]]]]},"properties":{"addr:city":"Tadjourah تاجورة","building":"yes","shop":"bakery"}},
{"type":"Feature","geometry":{"type":"MultiPolygon","coordinates":[[[[43.1436422,11.5914509],[43.1439909,11.5911938],[43.1441146,11.5912087],[43.144099,11.5912202],[43.144147,11.5912826],[43.1441869,11.5912532],[43.1442641,11.5912879],[43.1443995,11.59129],[43.1445563,11.5914941],[43.1445426,11.5915482],[43.1444602,11.5915567],[43.1439975,11.5918979],[43.1439908,11.5918892],[43.1439504,11.5919189],[43.1439144,11.5918721],[43.1439472,11.5918479],[43.1437077,11.5915362],[43.1436422,11.5914509]]]]},"properties":{"addr:city":"جيبوتي","building":"yes","name":"Nougaprix نوكابري","name:ar":"نوجابري","name:fr":"Nougaprix","shop":"supermarket"}},
{"type":"Feature","geometry":{"type":"MultiPolygon","coordinates":[[[[43.147262,11.5946246],[43.1474211,11.5945772],[43.1474497,11.5946695],[43.1473814,11.5946898],[43.1474005,11.5947512],[43.1473096,11.5947782],[43.147262,11.5946246]]]]},"properties":{"addr:city":"جيبوتي","amenity":"marketplace","building":"retail","name":"Marché de l'artisanat سوق الحرفية","name:ar":"سوق الحرفية","name:fr":"Marché de l'artisanat"}},
{"type":"Feature","geometry":{"type":"MultiPolygon","coordinates":[[[[43.1521661,11.5596105],[43.1521902,11.5595207],[43.1523725,11.5595677],[43.1523484,11.5596575],[43.1521661,11.5596105]]]]},"properties":{"building":"yes","name":"Proxy Shop","shop":"convenience"}},
{"type":"Feature","geometry":{"type":"MultiPolygon","coordinates":[[[[43.1352011,11.5770001],[43.1352057,11.5767828],[43.1363404,11.5759599],[43.1373962,11.5774707],[43.1369665,11.5777511],[43.1361553,11.5782805],[43.1352011,11.5770001]]]]},"properties":{"addr:city":"جيبوتي","amenity":"marketplace","name":"Marché Riyaad سوق الرياض","name:ar":"سوق الرياض","name:en":"Ar-Riyadh Market","name:fr":"Marché Riyaad","name:so":"Sarimada Riyad"}}
]}
