{"type":"FeatureCollection","features":[
{"type":"Feature","geometry":{"type":"Point","coordinates":[38.9418156,15.3367705]},"properties":{"addr:city":"أسمرة","addr:street":"شارع الحرية","name":"Wikianos Supermarket سوبرماركت ويكيانس","name:ar":"سوبرماركت ويكيانس","name:en":"Wikianos Supermarket","shop":"supermarket"}},
{"type":"Feature","geometry":{"type":"Point","coordinates":[38.9365761,15.3369377]},"properties":{"addr:city":"أسمرة","name":"Senay Supermarket سوبر ماركت سني","name:ar":"سوبر ماركت سني","name:en":"Senay Supermarket","phone":"122593","shop":"supermarket"}},
{"type":"Feature","geometry":{"type":"Point","coordinates":[38.9248213,15.3324129]},"properties":{"addr:city":"أسمرة","addr:city:ar":"أسمرة","name":"سوپرمارکت غيروي","name:ar":"سوپرمارکت غيروي","shop":"convenience"}},
{"type":"Feature","geometry":{"type":"Point","coordinates":[38.814785,14.8871158]},"properties":{"name":"Restaurant and Butcher","shop":"butcher"}},
{"type":"Feature","geometry":{"type":"Point","coordinates":[39.3752383,14.842626]},"properties":{"addr:city":"عدي قيح","name":"سوبرماركت عدي قيح","name:ar":"سوبرماركت عدي قيح","shop":"supermarket"}},
{"type":"Feature","geometry":{"type":"Point","coordinates":[38.4564365,15.7816342]},"properties":{"addr:city":"كرن","amenity":"marketplace","name":"ركن الحلو","name:ar":"ركن الحلو"}},
{"type":"Feature","geometry":{"type":"Point","coordinates":[38.9362265,15.3381637]},"properties":{"addr:city":"أسمرة","addr:city:ar":"أسمرة","name":"Alpha Bakery مخبز ألفا","name:ar":"مخبز ألفا","name:en":"Alpha Bakery","shop":"bakery"}},
{"type":"Feature","geometry":{"type":"Point","coordinates":[38.9370152,15.3376533]},"properties":{"name":"Barka","shop":"butcher"}},
{"type":"Feature","geometry":{"type":"Point","coordinates":[38.922466,15.326013]},"properties":{"name":"Daniel Super Market","shop":"supermarket"}},
{"type":"Feature","geometry":{"type":"Point","coordinates":[38.9216742,15.3255035]},"properties":{"name":"Family Grocery","shop":"supermarket"}},
{"type":"Feature","geometry":{"type":"Point","coordinates":[38.922149,15.3260225]},"properties":{"addr:street":"Warsay Street شارع وراسى","name":"Haddas Gebretu","name:en":"Haddas Gebretu Supermarket","shop":"supermarket"}},
{"type":"Feature","geometry":{"type":"Point","coordinates":[38.9189353,15.3224687]},"properties":{"addr:street":"Warsay Street","name":"Alfa","name:en":"Alfa Supermarket","shop":"supermarket"}},
{"type":"Feature","geometry":{"type":"Point","coordinates":[38.9382321,15.326319]},"properties":{"name":"Enda Tesfamariam","name:en":"Enda Tesfamariam","shop":"supermarket"}},
{"type":"Feature","geometry":{"type":"Point","coordinates":[38.9193713,15.3227966]},"properties":{"name":"Alpha","name:en":"Alpha","shop":"supermarket"}},
{"type":"Feature","geometry":{"type":"Point","coordinates":[38.9306962,15.3304176]},"properties":{"addr:street":"171-1","name":"Gola Butchery","shop":"butcher"}},
{"type":"Feature","geometry":{"type":"Point","coordinates":[38.4590056,15.7789014]},"properties":{"name":"Monday General Market","opening_hours":"Mo 09:00-18:00","shop":"convenience"}},
{"type":"Feature","geometry":{"type":"Point","coordinates":[39.1518107,15.5218857]},"properties":{"name":"بقالة الإخلاص","name:ar":"بقالة الإخلاص","shop":"convenience"}},
{"type":"Feature","geometry":{"type":"Point","coordinates":[39.1528658,15.5219376]},"properties":{"name":"بقالة نوراي","name:ar":"بقالة نوراي","shop":"convenience"}},
{"type":"Feature","geometry":{"type":"Point","coordinates":[38.698963,16.4312269]},"properties":{"name":"فرن محمدسعيد ادريس مقاحاي / Muhammad Saeed Idris Maqhay's bakery.","name:fr":"Le Fournil de Mohammed Saïd Idriss Maqhay","shop":"bakery"}},
{"type":"Feature","geometry":{"type":"LineString","coordinates":[[38.9397716,15.3393537],[38.9392575,15.3393804],[38.9392673,15.3395562],[38.9397814,15.3395296],[38.9397716,15.3393537]]},"properties":{"addr:city":"أسمرة","addr:city:ar":"أسمرة","amenity":"marketplace","name":"السوق المغطاة للفواكه","name:ar":"السوق المغطاة للفواكه","name:en":"Covered Market for fruits"}},
{"type":"Feature","geometry":{"type":"LineString","coordinates":[[38.9417515,15.3399123],[38.9417723,15.3403501],[38.9415527,15.3403598],[38.9415319,15.339922],[38.9417515,15.3399123]]},"properties":{"addr:city":"أسمرة","addr:city:ar":"أسمرة","amenity":"marketplace","name":"سوق مغطى للفواكه والخضروات والحقائب","name:ar":"سوق مغطى للفواكه والخضروات والحقائب","name:en":"Covered Market - fruits, vegetables, bags"}},
{"type":"Feature","geometry":{"type":"LineString","coordinates":[[38.9415197,15.3395843],[38.9417369,15.3395768],[38.9417453,15.3398044],[38.9415281,15.3398119],[38.9415197,15.3395843]]},"properties":{"addr:city":"أسمرة","addr:city:ar":"أسمرة","amenity":"marketplace","name":"السوق المغطاة للأثاث","name:ar":"السوق المغطاة للأثاث","name:en":"Covered Market - furniture"}},
{"type":"Feature","geometry":{"type":"LineString","coordinates":[[38.9449343,15.343636],[38.9447757,15.3438124],[38.9448164,15.3447337],[38.9458543,15.3447558],[38.9459317,15.3447575],[38.9459261,15.344497],[38.9459071,15.3436047],[38.9458108,15.3436078],[38.9449343,15.343636]]},"properties":{"addr:city":"أسمرة","amenity":"marketplace","name":"መደበር","name:ar":"سوق مدبر","name:en":"Medeber Market"}},
{"type":"Feature","geometry":{"type":"LineString","coordinates":[[38.9464089,15.3443438],[38.9463912,15.3437025],[38.9459071,15.3436047],[38.9459626,15.3436876],[38.9460333,15.3437814],[38.9460687,15.343824],[38.9461173,15.3438666],[38.9461504,15.3439198],[38.9462034,15.3439795],[38.9462388,15.344037],[38.946305,15.3441222],[38.9463382,15.3441797],[38.9463496,15.3442425],[38.9463536,15.3442649],[38.946351,15.3442892],[38.9463448,15.3443459],[38.9464089,15.3443438]]},"properties":{"addr:city":"أسمرة","amenity":"marketplace","building":"yes","name":"Medeber secondhand market سوق المستعملة مدبر","name:ar":"سوق المستعملة مدبر","name:en":"Medeber secondhand market"}},
{"type":"Feature","geometry":{"type":"LineString","coordinates":[[38.2663088,15.7031073],[38.266329,15.7033746],[38.2658448,15.7033991],[38.2658529,15.7030454],[38.2659937,15.7030389],[38.2660004,15.7031267],[38.2663088,15.7031073]]},"properties":{"addr:city":"حقاز","addr:city:ar":"حقاز","amenity":"marketplace","building":"yes","name":"ንመሸጣ ኣቕረበ Haqaz Market سوق حقاز","name:ar":"سوق حقاز","name:en":"Haqaz Market","name:ti":"ንመሸጣ ኣቕረበ"}},
{"type":"Feature","geometry":{"type":"LineString","coordinates":[[36.6607696,15.0990413],[36.6611696,15.0990902],[36.6612081,15.098813],[36.6608067,15.0987673],[36.6607696,15.0990413]]},"properties":{"building":"yes","shop":"supermarket"}},
{"type":"Feature","geometry":{"type":"LineString","coordinates":[[39.4746574,15.6093386],[39.4742475,15.6092759],[39.4742687,15.6091474],[39.4744737,15.6091788],[39.4746786,15.6092101],[39.4746574,15.6093386]]},"properties":{"addr:city":"ምጽዋዕ Massawa مصوع","addr:city:ar":"مصوع","amenity":"marketplace","name":"Old Market ናይ ቀደም ዕዳጋ السوق القديم","name:ar":"السوق القديم","name:en":"Old Market","name:ti":"ናይ ቀደም ዕዳጋ"}},
{"type":"Feature","geometry":{"type":"LineString","coordinates":[[37.5745994,14.6440467],[37.5742802,14.6439351],[37.57413,14.6441064],[37.573835,14.6440986],[37.5735506,14.6441868],[37.5734487,14.6443062],[37.573218,14.6442777],[37.5732046,14.6446877],[37.5730973,14.6449005],[37.5730893,14.6453468],[37.5731805,14.6453494],[37.5733629,14.6452378],[37.5733575,14.6449602],[37.5734219,14.6447785],[37.5738215,14.6448356],[37.5739905,14.6445528],[37.5742051,14.64434],[37.5743553,14.6442232],[37.5745994,14.6440467]]},"properties":{"amenity":"marketplace"}},
{"type":"Feature","geometry":{"type":"LineString","coordinates":[[38.4582354,15.7809834],[38.4581218,15.7808373],[38.4582472,15.7807469],[38.4583609,15.7808929],[38.4582354,15.7809834]]},"properties":{"addr:city":"كرن","amenity":"marketplace","building":"yes","name":"السوق المغطى للالفواكة والخضروات","name:ar":"السوق المغطى للالفواكة والخضروات","name:de":"Überdachter Gemüse- /Obstmarkt","name:en":"Covered Fruit and Vegetable Market"}},
{"type":"Feature","geometry":{"type":"LineString","coordinates":[[38.4584611,15.7813022],[38.4583398,15.7811294],[38.458471,15.781044],[38.4585924,15.7812168],[38.4584611,15.7813022]]},"properties":{"addr:city":"كرن","amenity":"marketplace","building":"yes","name":"السوق المغطى للملابس","name:ar":"السوق المغطى للملابس","name:de":"Überdachter Markt (Kleidung)","name:en":"Covered Clothes Market"}},
{"type":"Feature","geometry":{"type":"LineString","coordinates":[[37.5907111,15.1152434],[37.5906458,15.1150354],[37.5905708,15.1148721],[37.5911765,15.1145806],[37.5913804,15.1149771],[37.5910188,15.1151208],[37.5907111,15.1152434]]},"properties":{"amenity":"marketplace","name":"Enda Tokharir (old market)"}},
{"type":"Feature","geometry":{"type":"LineString","coordinates":[[39.3750563,14.8427755],[39.3752079,14.8423762],[39.3754251,14.842454],[39.3752897,14.8428507],[39.3750563,14.8427755]]},"properties":{"amenity":"marketplace","building":"yes","name":"ዕዳጋ ኣሕምልቲ"}},
{"type":"Feature","geometry":{"type":"LineString","coordinates":[[39.3749799,14.842826],[39.3751582,14.8423101],[39.3755083,14.8424268],[39.3753366,14.8429362],[39.3749799,14.842826]]},"properties":{"amenity":"marketplace"}},
{"type":"Feature","geometry":{"type":"LineString","coordinates":[[39.3745682,14.8432629],[39.3746406,14.843285],[39.3746209,14.8433369],[39.3746111,14.8433627],[39.3745413,14.8433394],[39.3745682,14.8432629]]},"properties":{"building":"yes","name":"ቤት መሸጣ ስጋ","shop":"butcher"}},
{"type":"Feature","geometry":{"type":"LineString","coordinates":[[39.3745326,14.843095],[39.3745071,14.8431741],[39.3744555,14.8431521],[39.374485,14.8430762],[39.3745326,14.843095]]},"properties":{"building":"yes","business":"shops","name":"ቤት መሸጣ ስጋ","shop":"butcher"}},
{"type":"Feature","geometry":{"type":"LineString","coordinates":[[39.3794498,14.843294],[39.3795631,14.8425416],[39.3795705,14.8424929],[39.379794,14.8425386],[39.3802679,14.8426355],[39.3801606,14.8434185],[39.3794498,14.843294]]},"properties":{"amenity":"marketplace","name":"ዕዳጋ እንስሳታት (ከብቲ)","name:en":"Animals Market"}},
{"type":"Feature","geometry":{"type":"LineString","coordinates":[[39.1969615,14.6239392],[39.1968405,14.6235439],[39.1963905,14.623673],[39.1965116,14.6240682],[39.1969615,14.6239392]]},"properties":{"amenity":"marketplace"}},
{"type":"Feature","geometry":{"type":"LineString","coordinates":[[39.3910991,14.5486913],[39.3913906,14.5486408],[39.3913825,14.5485811],[39.3913222,14.5482826],[39.3913101,14.5481995],[39.3913114,14.5481059],[39.3916449,14.5480309],[39.3916856,14.5479],[39.3917559,14.5476623],[39.3917711,14.547603],[39.3917723,14.5475381],[39.3917964,14.5474419],[39.391836,14.5473992],[39.3919293,14.5473373],[39.3919931,14.5473056],[39.3920837,14.547284],[39.3919204,14.5466227],[39.3918166,14.5466377],[39.3907048,14.5467985],[39.3907653,14.5470493],[39.3907017,14.5470481],[39.390535,14.5470449],[39.3904527,14.5470496],[39.3904374,14.5472129],[39.3904584,14.5474315],[39.3905109,14.5475994],[39.390574,14.5477875],[39.3906002,14.5479401],[39.3905477,14.5481028],[39.3905313,14.548136],[39.3905662,14.5483194],[39.3910081,14.5482543],[39.3910991,14.5486913]]},"properties":{"amenity":"marketplace"}},
{"type":"Feature","geometry":{"type":"LineString","coordinates":[[39.4274455,14.7068554],[39.4275362,14.7065822],[39.4277277,14.7066417],[39.427637,14.7069149],[39.4274455,14.7068554]]},"properties":{"amenity":"marketplace"}},
{"type":"Feature","geometry":{"type":"LineString","coordinates":[[39.4275828,14.7064316],[39.4276928,14.7061084],[39.4278944,14.7061726],[39.4277845,14.7064958],[39.4275828,14.7064316]]},"properties":{"amenity":"marketplace"}},
{"type":"Feature","geometry":{"type":"MultiPolygon","coordinates":[[[[38.9392575,15.3393804],[38.9397716,15.3393537],[38.9397814,15.3395296],[38.9392673,15.3395562],[38.9392575,15.3393804]]]]},"properties":{"addr:city":"أسمرة","addr:city:ar":"أسمرة","amenity":"marketplace","name":"السوق المغطاة للفواكه","name:ar":"السوق المغطاة للفواكه","name:en":"Covered Market for fruits"}},
{"type":"Feature","geometry":{"type":"MultiPolygon","coordinates":[[[[38.9415319,15.339922],[38.9417515,15.3399123],[38.9417723,15.3403501],[38.9415527,15.3403598],[38.9415319,15.339922]]]]},"properties":{"addr:city":"أسمرة","addr:city:ar":"أسمرة","amenity":"marketplace","name":"سوق مغطى للفواكه والخضروات والحقائب","name:ar":"سوق مغطى للفواكه والخضروات والحقائب","name:en":"Covered Market - fruits, vegetables, bags"}},
{"type":"Feature","geometry":{"type":"MultiPolygon","coordinates":[[[[38.9415197,15.3395843],[38.9417369,15.3395768],[38.9417453,15.3398044],[38.9415281,15.3398119],[38.9415197,15.3395843]]]]},"properties":{"addr:city":"أسمرة","addr:city:ar":"أسمرة","amenity":"marketplace","name":"السوق المغطاة للأثاث","name:ar":"السوق المغطاة للأثاث","name:en":"Covered Market - furniture"}},
{"type":"Feature","geometry":{"type":"MultiPolygon","coordinates":[[[[38.9447757,15.3438124],[38.9449343,15.343636],[38.9458108,15.3436078],[38.9459071,15.3436047],[38.9459261,15.344497],[38.9459317,15.3447575],[38.9458543,15.3447558],[38.9448164,15.3447337],[38.9447757,15.3438124]]]]},"properties":{"addr:city":"أسمرة","amenity":"marketplace","name":"መደበር","name:ar":"سوق مدبر","name:en":"Medeber Market"}},
{"type":"Feature","geometry":{"type":"MultiPolygon","coordinates":[[[[38.9459071,15.3436047],[38.9463912,15.3437025],[38.9464089,15.3443438],[38.9463448,15.3443459],[38.946351,15.3442892],[38.9463536,15.3442649],[38.9463496,15.3442425],[38.9463382,15.3441797],[38.946305,15.3441222],[38.9462388,15.344037],[38.9462034,15.3439795],[38.9461504,15.3439198],[38.9461173,15.3438666],[38.9460687,15.343824],[38.9460333,15.3437814],[38.9459626,15.3436876],[38.9459071,15.3436047]]]]},"properties":{"addr:city":"أسمرة","amenity":"marketplace","building":"yes","name":"Medeber secondhand market سوق المستعملة مدبر","name:ar":"سوق المستعملة مدبر","name:en":"Medeber secondhand market"}},
{"type":"Feature","geometry":{"type":"MultiPolygon","coordinates":[[[[38.2658448,15.7033991],[38.2658529,15.7030454],[38.2659937,15.7030389],[38.2660004,15.7031267],[38.2663088,15.7031073],[38.266329,15.7033746],[38.2658448,15.7033991]]]]},"properties":{"addr:city":"حقاز","addr:city:ar":"حقاز","amenity":"marketplace","building":"yes","name":"ንመሸጣ ኣቕረበ Haqaz Market سوق حقاز","name:ar":"سوق حقاز","name:en":"Haqaz Market","name:ti":"ንመሸጣ ኣቕረበ"}},
{"type":"Feature","geometry":{"type":"MultiPolygon","coordinates":[[[[36.6607696,15.0990413],[36.6608067,15.0987673],[36.6612081,15.098813],[36.6611696,15.0990902],[36.6607696,15.0990413]]]]},"properties":{"building":"yes","shop":"supermarket"}},
{"type":"Feature","geometry":{"type":"MultiPolygon","coordinates":[[[[39.4742475,15.6092759],[39.4742687,15.6091474],[39.4744737,15.6091788],[39.4746786,15.6092101],[39.4746574,15.6093386],[39.4742475,15.6092759]]]]},"properties":{"addr:city":"ምጽዋዕ Massawa مصوع","addr:city:ar":"مصوع","amenity":"marketplace","name":"Old Market ናይ ቀደም ዕዳጋ السوق القديم","name:ar":"السوق القديم","name:en":"Old Market","name:ti":"ናይ ቀደም ዕዳጋ"}},
{"type":"Feature","geometry":{"type":"MultiPolygon","coordinates":[[[[37.5730893,14.6453468],[37.5730973,14.6449005],[37.5732046,14.6446877],[37.573218,14.6442777],[37.5734487,14.6443062],[37.5735506,14.6441868],[37.573835,14.6440986],[37.57413,14.6441064],[37.5742802,14.6439351],[37.5745994,14.6440467],[37.5743553,14.6442232],[37.5742051,14.64434],[37.5739905,14.6445528],[37.5738215,14.6448356],[37.5734219,14.6447785],[37.5733575,14.6449602],[37.5733629,14.6452378],[37.5731805,14.6453494],[37.5730893,14.6453468]]]]},"properties":{"amenity":"marketplace"}},
{"type":"Feature","geometry":{"type":"MultiPolygon","coordinates":[[[[38.4581218,15.7808373],[38.4582472,15.7807469],[38.4583609,15.7808929],[38.4582354,15.7809834],[38.4581218,15.7808373]]]]},"properties":{"addr:city":"كرن","amenity":"marketplace","building":"yes","name":"السوق المغطى للالفواكة والخضروات","name:ar":"السوق المغطى للالفواكة والخضروات","name:de":"Überdachter Gemüse- /Obstmarkt","name:en":"Covered Fruit and Vegetable Market"}},
{"type":"Feature","geometry":{"type":"MultiPolygon","coordinates":[[[[38.4583398,15.7811294],[38.458471,15.781044],[38.4585924,15.7812168],[38.4584611,15.7813022],[38.4583398,15.7811294]]]]},"properties":{"addr:city":"كرن","amenity":"marketplace","building":"yes","name":"السوق المغطى للملابس","name:ar":"السوق المغطى للملابس","name:de":"Überdachter Markt (Kleidung)","name:en":"Covered Clothes Market"}},
{"type":"Feature","geometry":{"type":"MultiPolygon","coordinates":[[[[37.5905708,15.1148721],[37.5911765,15.1145806],[37.5913804,15.1149771],[37.5910188,15.1151208],[37.5907111,15.1152434],[37.5906458,15.1150354],[37.5905708,15.1148721]]]]},"properties":{"amenity":"marketplace","name":"Enda Tokharir (old market)"}},
{"type":"Feature","geometry":{"type":"MultiPolygon","coordinates":[[[[39.3750563,14.8427755],[39.3752079,14.8423762],[39.3754251,14.842454],[39.3752897,14.8428507],[39.3750563,14.8427755]]]]},"properties":{"amenity":"marketplace","building":"yes","name":"ዕዳጋ ኣሕምልቲ"}},
{"type":"Feature","geometry":{"type":"MultiPolygon","coordinates":[[[[39.3749799,14.842826],[39.3751582,14.8423101],[39.3755083,14.8424268],[39.3753366,14.8429362],[39.3749799,14.842826]]]]},"properties":{"amenity":"marketplace"}},
{"type":"Feature","geometry":{"type":"MultiPolygon","coordinates":[[[[39.3745413,14.8433394],[39.3745682,14.8432629],[39.3746406,14.843285],[39.3746209,14.8433369],[39.3746111,14.8433627],[39.3745413,14.8433394]]]]},"properties":{"building":"yes","name":"ቤት መሸጣ ስጋ","shop":"butcher"}},
{"type":"Feature","geometry":{"type":"MultiPolygon","coordinates":[[[[39.3744555,14.8431521],[39.374485,14.8430762],[39.3745326,14.843095],[39.3745071,14.8431741],[39.3744555,14.8431521]]]]},"properties":{"building":"yes","business":"shops","name":"ቤት መሸጣ ስጋ","shop":"butcher"}},
{"type":"Feature","geometry":{"type":"MultiPolygon","coordinates":[[[[39.3794498,14.843294],[39.3795631,14.8425416],[39.3795705,14.8424929],[39.379794,14.8425386],[39.3802679,14.8426355],[39.3801606,14.8434185],[39.3794498,14.843294]]]]},"properties":{"amenity":"marketplace","name":"ዕዳጋ እንስሳታት (ከብቲ)","name:en":"Animals Market"}},
{"type":"Feature","geometry":{"type":"MultiPolygon","coordinates":[[[[39.1963905,14.623673],[39.1968405,14.6235439],[39.1969615,14.6239392],[39.1965116,14.6240682],[39.1963905,14.623673]]]]},"properties":{"amenity":"marketplace"}},
{"type":"Feature","geometry":{"type":"MultiPolygon","coordinates":[[[[39.3904374,14.5472129],[39.3904527,14.5470496],[39.390535,14.5470449],[39.3907017,14.5470481],[39.3907653,14.5470493],[39.3907048,14.5467985],[39.3918166,14.5466377],[39.3919204,14.5466227],[39.3920837,14.547284],[39.3919931,14.5473056],[39.3919293,14.5473373],[39.391836,14.5473992],[39.3917964,14.5474419],[39.3917723,14.5475381],[39.3917711,14.547603],[39.3917559,14.5476623],[39.3916856,14.5479],[39.3916449,14.5480309],[39.3913114,14.5481059],[39.3913101,14.5481995],[39.3913222,14.5482826],[39.3913825,14.5485811],[39.3913906,14.5486408],[39.3910991,14.5486913],[39.3910081,14.5482543],[39.3905662,14.5483194],[39.3905313,14.548136],[39.3905477,14.5481028],[39.3906002,14.5479401],[39.390574,14.5477875],[39.3905109,14.5475994],[39.3904584,14.5474315],[39.3904374,14.5472129]]]]},"properties":{"amenity":"marketplace"}},
{"type":"Feature","geometry":{"type":"MultiPolygon","coordinates":[[[[39.4274455,14.7068554],[39.4275362,14.7065822],[39.4277277,14.7066417],[39.427637,14.7069149],[39.4274455,14.7068554]]]]},"properties":{"amenity":"marketplace"}},
{"type":"Feature","geometry":{"type":"MultiPolygon","coordinates":[[[[39.4275828,14.7064316],[39.4276928,14.7061084],[39.4278944,14.7061726],[39.4277845,14.7064958],[39.4275828,14.7064316]]]]},"properties":{"amenity":"marketplace"}}
]}
