{"type":"FeatureCollection","features":[
{"type":"Feature","geometry":{"type":"Point","coordinates":[-13.2340182,27.1516869]},"properties":{"name":"Samir","name:fr":"Samir","shop":"supermarket"}},
{"type":"Feature","geometry":{"type":"Point","coordinates":[-11.0526174,26.1410196]},"properties":{"addr:city":"امهيريز","addr:city:ar":"امهيريز","diet:halal":"yes","language:ar":"main","name":"Mercado de Meharizze سوق امهيريز","name:ar":"سوق امهيريز","name:es":"Mercado de Meharizze","shop":"supermarket"}},
{"type":"Feature","geometry":{"type":"Point","coordinates":[-13.1720561,27.1289823]},"properties":{"shop":"supermarket"}},
{"type":"Feature","geometry":{"type":"Point","coordinates":[-14.8718757,24.6667062]},"properties":{"shop":"butcher"}},
{"type":"Feature","geometry":{"type":"Point","coordinates":[-15.9370878,23.6937547]},"properties":{"name":"Wanny","name:en":"Wanny","shop":"supermarket"}},
{"type":"Feature","geometry":{"type":"Point","coordinates":[-16.7475151,22.0545572]},"properties":{"shop":"convenience"}},
{"type":"Feature","geometry":{"type":"Point","coordinates":[-14.8200269,24.9109565]},"properties":{"shop":"convenience"}},
{"type":"Feature","geometry":{"type":"Point","coordinates":[-14.7707172,25.3777945]},"properties":{"shop":"convenience"}},
{"type":"Feature","geometry":{"type":"Point","coordinates":[-14.4856976,26.1251494]},"properties":{"shop":"convenience"}},
{"type":"Feature","geometry":{"type":"Point","coordinates":[-13.3962641,27.1784048]},"properties":{"shop":"convenience"}},
{"type":"Feature","geometry":{"type":"Point","coordinates":[-14.87165,24.6667134]},"properties":{"shop":"convenience"}},
{"type":"Feature","geometry":{"type":"Point","coordinates":[-15.9306219,23.7008191]},"properties":{"addr:city":"Dakhla","addr:postcode":"73002","addr:street":"Boulevard Al Moukaouama شارع ا؛مقاومة","name":"Mod مود","name:ar":"مود","name:fr":"Mod","note:fr":"Mini Marché Oued Eddahab","payment:cash":"yes","payment:mastercard":"yes","payment:notes":"yes","payment:visa":"administrative","shop":"supermarket","wheelchair":"yes"}},
{"type":"Feature","geometry":{"type":"Point","coordinates":[-15.915484,23.7357014]},"properties":{"name":"El Kassam القسم","name:ar":"القسم","name:fr":"El Kassam","shop":"convenience"}},
{"type":"Feature","geometry":{"type":"Point","coordinates":[-15.92779,23.7033108]},"properties":{"shop":"convenience"}},
{"type":"Feature","geometry":{"type":"Point","coordinates":[-15.9253943,23.7075636]},"properties":{"shop":"convenience"}},
{"type":"Feature","geometry":{"type":"Point","coordinates":[-15.9312426,23.6970009]},"properties":{"name":"Dakhla Shop","shop":"convenience","toilets:wheelchair":"limited"}},
{"type":"Feature","geometry":{"type":"Point","coordinates":[-15.9277655,23.703367]},"properties":{"shop":"butcher"}},
{"type":"Feature","geometry":{"type":"Point","coordinates":[-15.9278274,23.7032002]},"properties":{"shop":"butcher"}},
{"type":"Feature","geometry":{"type":"Point","coordinates":[-15.9353667,23.6965104]},"properties":{"shop":"butcher"}},
{"type":"Feature","geometry":{"type":"Point","coordinates":[-15.935517,23.6962464]},"properties":{"shop":"convenience","wheelchair":"yes"}},
{"type":"Feature","geometry":{"type":"Point","coordinates":[-15.9393373,23.6901684]},"properties":{"shop":"convenience"}},
{"type":"Feature","geometry":{"type":"Point","coordinates":[-15.9192617,23.7307227]},"properties":{"shop":"convenience"}},
{"type":"Feature","geometry":{"type":"Point","coordinates":[-15.918305,23.7330837]},"properties":{"shop":"butcher"}},
{"type":"Feature","geometry":{"type":"Point","coordinates":[-15.9192918,23.7310865]},"properties":{"shop":"convenience"}},
{"type":"Feature","geometry":{"type":"Point","coordinates":[-15.9267161,23.7058343]},"properties":{"shop":"convenience","toilets:wheelchair":"yes"}},
{"type":"Feature","geometry":{"type":"Point","coordinates":[-15.9176645,23.7348276]},"properties":{"shop":"convenience"}},
{"type":"Feature","geometry":{"type":"Point","coordinates":[-15.9178489,23.7348674]},"properties":{"shop":"convenience"}},
{"type":"Feature","geometry":{"type":"Point","coordinates":[-15.9267869,23.7055983]},"properties":{"shop":"convenience","toilets:wheelchair":"yes"}},
{"type":"Feature","geometry":{"type":"Point","coordinates":[-15.9181823,23.7335963]},"properties":{"shop":"convenience"}},
{"type":"Feature","geometry":{"type":"Point","coordinates":[-15.917767,23.7342256]},"properties":{"shop":"convenience"}},
{"type":"Feature","geometry":{"type":"Point","coordinates":[-15.917926,23.7340105]},"properties":{"shop":"convenience"}},
{"type":"Feature","geometry":{"type":"Point","coordinates":[-15.9182554,23.7333943]},"properties":{"shop":"convenience"}},
{"type":"Feature","geometry":{"type":"Point","coordinates":[-15.9185085,23.733109]},"properties":{"shop":"convenience"}},
{"type":"Feature","geometry":{"type":"Point","coordinates":[-15.924176,23.7085904]},"properties":{"shop":"convenience"}},
{"type":"Feature","geometry":{"type":"Point","coordinates":[-15.9418179,23.6889456]},"properties":{"internet_access":"wlan","name":"Ait Oubaha","shop":"supermarket"}},
{"type":"Feature","geometry":{"type":"Point","coordinates":[-15.9445319,23.6897432]},"properties":{"shop":"convenience"}},
{"type":"Feature","geometry":{"type":"Point","coordinates":[-16.7488902,22.0548455]},"properties":{"shop":"convenience"}},
{"type":"Feature","geometry":{"type":"Point","coordinates":[-16.749646,22.0543165]},"properties":{"shop":"convenience"}},
{"type":"Feature","geometry":{"type":"Point","coordinates":[-16.7505891,22.0529903]},"properties":{"shop":"convenience"}},
{"type":"Feature","geometry":{"type":"Point","coordinates":[-16.7487442,22.0548548]},"properties":{"shop":"convenience"}},
{"type":"Feature","geometry":{"type":"Point","coordinates":[-16.7495544,22.0536797]},"properties":{"shop":"convenience"}},
{"type":"Feature","geometry":{"type":"Point","coordinates":[-16.9459766,21.3315518]},"properties":{"addr:city":"نواذيبو","addr:city:ar":"نواذيبو","language:ar":"main","name":"بقالة الحدود","name:ar":"بقالة الحدود","shop":"convenience"}},
{"type":"Feature","geometry":{"type":"Point","coordinates":[-16.9600971,21.3650516]},"properties":{"addr:city":"الكركرات","addr:city:ar":"الكركرات","language:ar":"main","name":"بقالة الحدود","name:ar":"بقالة الحدود","name:es":"Supermercado fronterizo","shop":"convenience"}},
{"type":"Feature","geometry":{"type":"Point","coordinates":[-11.6754095,26.7367737]},"properties":{"addr:city":"السمارة","addr:postcode":"72000","name":"مخبزة الساقية الحمراء","name:ar":"مخبزة الساقية الحمراء","shop":"bakery"}},
{"type":"Feature","geometry":{"type":"Point","coordinates":[-15.9972852,23.6395548]},"properties":{"addr:city":"لاساركا","amenity":"marketplace","name":"متاجر الجملة","name:ar":"متاجر الجملة"}},
{"type":"Feature","geometry":{"type":"Point","coordinates":[-15.9967416,23.6391534]},"properties":{"addr:city":"لاساركا","amenity":"marketplace","name":"سوق السمك","name:ar":"سوق السمك"}},
{"type":"Feature","geometry":{"type":"Point","coordinates":[-15.9972098,23.6387436]},"properties":{"addr:city":"لاساركا","amenity":"marketplace","name":"معدات الصيد","name:ar":"معدات الصيد"}},
{"type":"Feature","geometry":{"type":"Point","coordinates":[-15.9979417,23.6382135]},"properties":{"addr:city":"لاساركا","amenity":"marketplace","name":"محلات الصيادين","name:ar":"محلات الصيادين"}},
{"type":"Feature","geometry":{"type":"Point","coordinates":[-15.9487848,23.6971824]},"properties":{"addr:city":"dakhla","name":"متجر سعيد للمواد الغذائية","name:ar":"متجر سعيد للمواد الغذائية","payment:cash":"yes","shop":"supermarket"}},
{"type":"Feature","geometry":{"type":"Point","coordinates":[-15.9161187,23.7336259]},"properties":{"name":"mini market","shop":"supermarket"}},
{"type":"Feature","geometry":{"type":"Point","coordinates":[-13.2031747,27.1610901]},"properties":{"name:en":"Kedai Roti","shop":"bakery"}},
{"type":"Feature","geometry":{"type":"Point","coordinates":[-13.1993797,27.1573694]},"properties":{"name":"Kedai Unta","name:fr":"Kedai Unta","shop":"butcher"}},
{"type":"Feature","geometry":{"type":"Point","coordinates":[-15.9416308,23.6896007]},"properties":{"shop":"supermarket"}},
{"type":"Feature","geometry":{"type":"Point","coordinates":[-15.9402267,23.6911162]},"properties":{"amenity":"marketplace","name":"Marché couvert Municipal El Massira"}},
{"type":"Feature","geometry":{"type":"Point","coordinates":[-13.265834,27.4063529]},"properties":{"shop":"convenience"}},
{"type":"Feature","geometry":{"type":"Point","coordinates":[-13.4111756,27.0966856]},"properties":{"shop":"supermarket"}},
{"type":"Feature","geometry":{"type":"Point","coordinates":[-13.8373336,26.5402865]},"properties":{"shop":"convenience"}},
{"type":"Feature","geometry":{"type":"Point","coordinates":[-11.7519174,26.8228266]},"properties":{"addr:city":"Sidi Ahmed Laarosi","addr:city:ar":"سيدي أحمد العروسي","addr:city:es":"Sidi Ahmed Laarosi","name":"Supermercado de Sidi Ahmed Laarosi","name:ar":"سوبرماركت سيدي أحمد العروسي","name:es":"Supermercado de Sidi Ahmed Laarosi","shop":"supermarket"}},
{"type":"Feature","geometry":{"type":"Point","coordinates":[-12.3134289,23.3481799]},"properties":{"name":"متجر عالي ٱحفير","name:en":"matGar ali","shop":"convenience"}},
{"type":"Feature","geometry":{"type":"Point","coordinates":[-13.3687659,27.1729287]},"properties":{"shop":"convenience"}},
{"type":"Feature","geometry":{"type":"Point","coordinates":[-15.9791454,23.6778008]},"properties":{"amenity":"marketplace","name":"Marché Du Moutons"}},
{"type":"Feature","geometry":{"type":"Point","coordinates":[-16.7706255,22.040254]},"properties":{"name":"Boucherie Boulangerie Supermarché","shop":"supermarket"}},
{"type":"Feature","geometry":{"type":"Point","coordinates":[-13.1720532,27.1289899]},"properties":{"shop":"supermarket"}},
{"type":"Feature","geometry":{"type":"LineString","coordinates":[[-13.2181586,27.1604654],[-13.2174639,27.1603962],[-13.2174343,27.1603079],[-13.2175022,27.1602448],[-13.2175881,27.1601923],[-13.2178045,27.160117],[-13.2182077,27.1600873],[-13.2185583,27.1600669],[-13.2185856,27.1601549],[-13.218533,27.1601957],[-13.2181586,27.1604654]]},"properties":{"addr:city":"العيون","amenity":"marketplace","name":"Marché Municipal سوق البلدية","name:ar":"سوق البلدية","name:fr":"Marché Municipal"}},
{"type":"Feature","geometry":{"type":"LineString","coordinates":[[-15.940487,23.6910129],[-15.9399902,23.6914154],[-15.9395962,23.6910076],[-15.940093,23.6906051],[-15.940487,23.6910129]]},"properties":{"amenity":"marketplace","name":"Marché Couvert Municipal El Massira السوق البلدي المغطاة المسيرة","name:ar":"السوق البلدي المغطاة المسيرة","name:fr":"Marché Couvert Municipal El Massira"}},
{"type":"Feature","geometry":{"type":"LineString","coordinates":[[-11.6750848,26.7369243],[-11.6750421,26.7366847],[-11.6752779,26.736652],[-11.6753145,26.7368989],[-11.6750848,26.7369243]]},"properties":{"addr:city":"السمارة","addr:postcode":"72000","amenity":"marketplace","name":"السوق الصغير بحي الطنطان","name:ar":"السوق الصغير بحي الطنطان"}},
{"type":"Feature","geometry":{"type":"LineString","coordinates":[[-13.207922,27.1110992],[-13.2080427,27.1126034],[-13.2050252,27.1127848],[-13.2048938,27.1112783],[-13.207922,27.1110992]]},"properties":{"amenity":"marketplace","name":"سوق الماشية Marché aux Bestiaux"}},
{"type":"Feature","geometry":{"type":"LineString","coordinates":[[-13.1852329,27.1530518],[-13.1835562,27.1526342],[-13.1839156,27.1514552],[-13.185504,27.1518802],[-13.1855813,27.1518944],[-13.1852329,27.1530518]]},"properties":{"amenity":"marketplace","name":"Marché aux légumes et fruits en gros"}},
{"type":"Feature","geometry":{"type":"MultiPolygon","coordinates":[[[[-13.2185856,27.1601549],[-13.2185583,27.1600669],[-13.2182077,27.1600873],[-13.2178045,27.160117],[-13.2175881,27.1601923],[-13.2175022,27.1602448],[-13.2174343,27.1603079],[-13.2174639,27.1603962],[-13.2181586,27.1604654],[-13.218533,27.1601957],[-13.2185856,27.1601549]]]]},"properties":{"addr:city":"العيون","amenity":"marketplace","name":"Marché Municipal سوق البلدية","name:ar":"سوق البلدية","name:fr":"Marché Municipal"}},
{"type":"Feature","geometry":{"type":"MultiPolygon","coordinates":[[[[-15.940487,23.6910129],[-15.940093,23.6906051],[-15.9395962,23.6910076],[-15.9399902,23.6914154],[-15.940487,23.6910129]]]]},"properties":{"amenity":"marketplace","name":"Marché Couvert Municipal El Massira السوق البلدي المغطاة المسيرة","name:ar":"السوق البلدي المغطاة المسيرة","name:fr":"Marché Couvert Municipal El Massira"}},
{"type":"Feature","geometry":{"type":"MultiPolygon","coordinates":[[[[-11.6753145,26.7368989],[-11.6752779,26.736652],[-11.6750421,26.7366847],[-11.6750848,26.7369243],[-11.6753145,26.7368989]]]]},"properties":{"addr:city":"السمارة","addr:postcode":"72000","amenity":"marketplace","name":"السوق الصغير بحي الطنطان","name:ar":"السوق الصغير بحي الطنطان"}},
{"type":"Feature","geometry":{"type":"MultiPolygon","coordinates":[[[[-13.2080427,27.1126034],[-13.207922,27.1110992],[-13.2048938,27.1112783],[-13.2050252,27.1127848],[-13.2080427,27.1126034]]]]},"properties":{"amenity":"marketplace","name":"سوق الماشية Marché aux Bestiaux"}},
{"type":"Feature","geometry":{"type":"MultiPolygon","coordinates":[[[[-13.1855813,27.1518944],[-13.185504,27.1518802],[-13.1839156,27.1514552],[-13.1835562,27.1526342],[-13.1852329,27.1530518],[-13.1855813,27.1518944]]]]},"properties":{"amenity":"marketplace","name":"Marché aux légumes et fruits en gros"}}
]}
