{"type":"FeatureCollection","features":[
{"type":"Feature","geometry":{"type":"Point","coordinates":[10.337204,-0.0054409]},"properties":{"shop":"supermarket"}},
{"type":"Feature","geometry":{"type":"Point","coordinates":[8.7854155,-0.7160232]},"properties":{"name":"Super CKdo","shop":"supermarket"}},
{"type":"Feature","geometry":{"type":"Point","coordinates":[9.4458484,0.3884206]},"properties":{"addr:street":"Rue Lafond","name":"Casino","shop":"supermarket"}},
{"type":"Feature","geometry":{"type":"Point","coordinates":[9.4585052,0.3726182]},"properties":{"shop":"supermarket"}},
{"type":"Feature","geometry":{"type":"Point","coordinates":[10.2232727,-0.7047056]},"properties":{"name":"Cecado","shop":"supermarket"}},
{"type":"Feature","geometry":{"type":"Point","coordinates":[8.7857871,-0.7151929]},"properties":{"name":"Daron - Quai Riviere","shop":"supermarket"}},
{"type":"Feature","geometry":{"type":"Point","coordinates":[8.7745337,-0.7238256]},"properties":{"name":"Boulangerie Patisserie de la Balise","shop":"bakery"}},
{"type":"Feature","geometry":{"type":"Point","coordinates":[8.7855047,-0.7200505]},"properties":{"name":"Casino","opening_hours":"Mo-Sa 08:30-20:00;Su 08:30-13:00","shop":"supermarket"}},
{"type":"Feature","geometry":{"type":"Point","coordinates":[10.2358778,-0.7006059]},"properties":{"name":"Cecado","shop":"supermarket"}},
{"type":"Feature","geometry":{"type":"Point","coordinates":[10.2345748,-0.5191896]},"properties":{"name":"Fruit Market","shop":"convenience"}},
{"type":"Feature","geometry":{"type":"Point","coordinates":[10.2343673,-0.7009662]},"properties":{"name":"O.D. Distribution","shop":"supermarket"}},
{"type":"Feature","geometry":{"type":"Point","coordinates":[10.2244037,-0.7002523]},"properties":{"name":"O.D. Market","shop":"supermarket"}},
{"type":"Feature","geometry":{"type":"Point","coordinates":[10.2362924,-0.7008793]},"properties":{"shop":"convenience"}},
{"type":"Feature","geometry":{"type":"Point","coordinates":[10.2304024,-0.7022257]},"properties":{"shop":"supermarket"}},
{"type":"Feature","geometry":{"type":"Point","coordinates":[9.4383993,0.4006997]},"properties":{"addr:city":"Libreville","addr:postcode":"89","addr:street":"Boulevard Monseigneur Jean-Rémi Bessieux","branch":"CECA-GADIS","contact:facebook":"Supergros","contact:website":"https://cecagadis.com/enseigne-supergros","currency:XAF":"yes","description":"Magasin de référence avec une activité cash & carry  dédié à la vente en gros et demi-gros.","email":"contact.supergroslbv@cecagadis.com","image":"https://cecagadis.com/wp-content/uploads/2023/07/1-3-2-scaled.jpg","name":"SuperGros","payment:cards":"yes","payment:cash":"yes","phone":"011 74 33 56 / 011 74 33 57","shop":"supermarket","source":"survey","start_date":"1968","stroller":"yes","wheelchair":"yes"}},
{"type":"Feature","geometry":{"type":"Point","coordinates":[9.4801592,0.4224928]},"properties":{"name":"Bogato","shop":"bakery"}},
{"type":"Feature","geometry":{"type":"Point","coordinates":[9.7622852,0.3884391]},"properties":{"addr:city":"Ntoum","addr:province":"Estuaire","addr:street":"RN1","name":"CECADO","nohousenumber":"yes","shop":"supermarket"}},
{"type":"Feature","geometry":{"type":"Point","coordinates":[8.7813753,-0.716356]},"properties":{"name":"Nautilus-Chaud","shop":"bakery"}},
{"type":"Feature","geometry":{"type":"Point","coordinates":[9.4968864,0.3288231]},"properties":{"shop":"convenience"}},
{"type":"Feature","geometry":{"type":"Point","coordinates":[9.498049,0.3262628]},"properties":{"shop":"convenience"}},
{"type":"Feature","geometry":{"type":"Point","coordinates":[9.4981103,0.3263372]},"properties":{"shop":"convenience"}},
{"type":"Feature","geometry":{"type":"Point","coordinates":[9.4240005,0.4331755]},"properties":{"addr:city":"Libreville","addr:housenumber":"1348","addr:street":"Avenue Paul MOUKAMBI","name":"Cecado","shop":"supermarket","source":"survey"}},
{"type":"Feature","geometry":{"type":"Point","coordinates":[9.4379555,0.4320857]},"properties":{"addr:city":"Libreville","addr:postcode":"2176","addr:street":"Avenue Jean Pierre AMBOUROUET DEMBA","air_conditioning":"yes","alt_name":"Prix Import - Bas de Gué-Gué","branch":"Carrefour Market","brand":"Carrefour","brand:wikidata":"Q217599","contact:facebook":"Prix Import","currency:XAF":"yes","description":"Gros, demi-gros, détail. Alimentation générale. Produits frais. Produits ménagers. Grand choix de vins, alcools et spiritueux.","dog":"no","mobile":"066 00 90 09","name":"Carrefour","payment:cards":"yes","payment:cash":"yes","payment:electronic_purses":"yes","payment:mastercard":"yes","payment:visa":"yes","shop":"supermarket","smoking":"no","source":"survey","stroller":"yes","toilets":"yes","website":"https://www.priximport.com","wheelchair":"yes"}},
{"type":"Feature","geometry":{"type":"Point","coordinates":[9.4396635,0.4375466]},"properties":{"name":"Mall","shop":"supermarket"}},
{"type":"Feature","geometry":{"type":"Point","coordinates":[11.5746529,1.599129]},"properties":{"addr:city":"Oyem","addr:province":"Woleu-Ntem","name":"CECADO","shop":"supermarket"}},
{"type":"Feature","geometry":{"type":"Point","coordinates":[11.5703238,1.5770259]},"properties":{"name":"Marche Moridial","name:en":"Moridial Walk","shop":"supermarket"}},
{"type":"Feature","geometry":{"type":"Point","coordinates":[9.4327831,0.4139663]},"properties":{"addr:city":"Libreville","name":"Marché de Louis","shop":"supermarket"}},
{"type":"Feature","geometry":{"type":"Point","coordinates":[9.5232231,0.4012383]},"properties":{"name":"Cecado PK12","shop":"supermarket"}},
{"type":"Feature","geometry":{"type":"Point","coordinates":[9.4774824,0.3984029]},"properties":{"shop":"convenience"}},
{"type":"Feature","geometry":{"type":"Point","coordinates":[9.4796344,0.3996363]},"properties":{"shop":"convenience"}},
{"type":"Feature","geometry":{"type":"Point","coordinates":[9.4800061,0.3996929]},"properties":{"shop":"convenience"}},
{"type":"Feature","geometry":{"type":"Point","coordinates":[9.4878516,0.3317489]},"properties":{"name":"Super Ckdo","shop":"supermarket"}},
{"type":"Feature","geometry":{"type":"Point","coordinates":[9.4184715,0.4747236]},"properties":{"name":"convenience store","shop":"convenience"}},
{"type":"Feature","geometry":{"type":"Point","coordinates":[9.4008807,0.4791531]},"properties":{"name":"Pelisson","name:fr":"Le Moulin de Pelisson","shop":"bakery"}},
{"type":"Feature","geometry":{"type":"Point","coordinates":[9.3977818,0.4924474]},"properties":{"name":"fruit & vegetables","shop":"supermarket"}},
{"type":"Feature","geometry":{"type":"Point","coordinates":[9.4013936,0.4799123]},"properties":{"name":"Fruit & veg stalls","shop":"supermarket"}},
{"type":"Feature","geometry":{"type":"Point","coordinates":[9.5002294,0.3355368]},"properties":{"name":"Supergab","name:fr":"Supergab","shop":"supermarket"}},
{"type":"Feature","geometry":{"type":"Point","coordinates":[9.4980669,0.3374068]},"properties":{"name":"Chez moustapha","name:fr":"Chez moustapha","shop":"convenience"}},
{"type":"Feature","geometry":{"type":"Point","coordinates":[9.3993527,0.4825715]},"properties":{"branch":"Prix Import d'Okala","brand":"Carrefour","brand:wikidata":"Q217599","name":"Carrefour","name:fr":"Prix Import d'Okala","shop":"supermarket"}},
{"type":"Feature","geometry":{"type":"Point","coordinates":[9.3995373,0.4821922]},"properties":{"name":"SanGel","name:fr":"SanGel","shop":"supermarket"}},
{"type":"Feature","geometry":{"type":"Point","coordinates":[10.2340225,-0.7013297]},"properties":{"shop":"supermarket"}},
{"type":"Feature","geometry":{"type":"Point","coordinates":[9.4392853,0.398877]},"properties":{"branch":"Prix Import","brand":"Carrefour","brand:fr":"Carrefour","brand:wikidata":"Q217599","brand:wikipedia":"fr:Carrefour (enseigne)","name":"Carrefour","name:fr":"Carrefour","operator":"Carrefour","operator:fr":"Carrefour","operator:wikidata":"Q217599","operator:wikipedia":"fr:Carrefour (enseigne)","shop":"supermarket"}},
{"type":"Feature","geometry":{"type":"Point","coordinates":[9.4483346,0.3905676]},"properties":{"addr:city":"Libreville","name":"La Parisienne","shop":"bakery"}},
{"type":"Feature","geometry":{"type":"Point","coordinates":[9.3984108,0.4919794]},"properties":{"name":"Maxi CKDO","opening_hours":"Mo-Sa 08:30-20:00; Su 09:00-13:00","phone":"01451158","shop":"supermarket"}},
{"type":"Feature","geometry":{"type":"Point","coordinates":[9.4864733,0.32761]},"properties":{"shop":"butcher"}},
{"type":"Feature","geometry":{"type":"Point","coordinates":[8.775302,-0.7221315]},"properties":{"amenity":"marketplace","name":"Marché de la Balise"}},
{"type":"Feature","geometry":{"type":"Point","coordinates":[8.7835738,-0.7206289]},"properties":{"name":"Boulangerie Patisserie Sogabi","shop":"bakery"}},
{"type":"Feature","geometry":{"type":"Point","coordinates":[8.7845623,-0.7203351]},"properties":{"name":"Épicerie Du Centre De Mandji","shop":"convenience"}},
{"type":"Feature","geometry":{"type":"Point","coordinates":[8.781341,-0.7187257]},"properties":{"shop":"convenience"}},
{"type":"Feature","geometry":{"type":"Point","coordinates":[8.7776436,-0.7285016]},"properties":{"amenity":"marketplace","name":"Marché du Grang Village"}},
{"type":"Feature","geometry":{"type":"Point","coordinates":[9.5943331,0.3981743]},"properties":{"shop":"convenience"}},
{"type":"Feature","geometry":{"type":"Point","coordinates":[9.4088054,0.4588088]},"properties":{"name":"Cécado","shop":"supermarket"}},
{"type":"Feature","geometry":{"type":"Point","coordinates":[9.4871096,0.3310785]},"properties":{"contact:mobile":"066 77 97 47","delivery":"yes","name":"La Fôret Noire","shop":"bakery"}},
{"type":"Feature","geometry":{"type":"Point","coordinates":[9.4817903,0.3372918]},"properties":{"name":"La Forêt Noire","shop":"bakery"}},
{"type":"Feature","geometry":{"type":"Point","coordinates":[8.7605017,-0.7341598]},"properties":{"amenity":"marketplace","name":"Marché de CIBI"}},
{"type":"Feature","geometry":{"type":"Point","coordinates":[10.2236908,-0.7010107]},"properties":{"amenity":"marketplace","name":"Materiaux Market"}},
{"type":"Feature","geometry":{"type":"Point","coordinates":[11.0525631,-1.8763921]},"properties":{"name":"CECADO","shop":"supermarket"}},
{"type":"Feature","geometry":{"type":"Point","coordinates":[11.4315235,-0.1154459]},"properties":{"shop":"convenience"}},
{"type":"Feature","geometry":{"type":"Point","coordinates":[11.6086761,-0.107307]},"properties":{"shop":"convenience"}},
{"type":"Feature","geometry":{"type":"Point","coordinates":[9.7613165,0.3904876]},"properties":{"addr:city":"Ntoum","addr:province":"Estuaire","brand":"Groupe CECA GADIS","name":"Gaboprix 930","opening_hours":"Mo-Su 08:00-22:00","shop":"supermarket"}},
{"type":"Feature","geometry":{"type":"Point","coordinates":[9.7942493,-1.8432258]},"properties":{"name":"ckdo cbg","name:fr":"ckdo cbg","shop":"supermarket"}},
{"type":"Feature","geometry":{"type":"Point","coordinates":[9.4385458,0.4010555]},"properties":{"addr:city":"Libreville","addr:housenumber":"134","addr:street":"Boulevard Monseigneur Jean-Rémi Bessieux","air_conditioning":"yes","contact:email":"gourmetescale@gmail.com","contact:facebook":"L'Escale Gourmet","contact:mobile":"077 41 14 12","cuisine":"cake;tea;cafe;bakery;chocolate","indoor_seating":"yes","inscription":"Boulangerie - Patisserie - Saon de thé - Traiteur","name":"L'Escale Gourmet","payment:cash":"yes","payment:notes":"yes","shop":"bakery","source":"survey"}},
{"type":"Feature","geometry":{"type":"Point","coordinates":[9.4773469,0.3710444]},"properties":{"addr:street":"Avenue Sophie Ntoutoume Emane","name":"CKDO IAI","shop":"supermarket"}},
{"type":"Feature","geometry":{"type":"Point","coordinates":[9.4796895,0.4240605]},"properties":{"addr:city":"Libreville","addr:province":"Estuaire","addr:street":"Avenue Dr. Moise ABESSOLO EDO","addr:suburb":"Nzeng Ayong","currency:XAF":"yes","description":"Le meilleur de Nzeng imité mais jamais égalé.","inscription":"Boucherie - Alimentation générale - Cosmétique","level":"0","name":"Escale d'Or","organic":"yes","payment:notes":"yes","shop":"supermarket","source":"survey","stroller":"yes","wheelchair":"limited"}},
{"type":"Feature","geometry":{"type":"Point","coordinates":[10.7677953,-0.1848404]},"properties":{"shop":"supermarket"}},
{"type":"Feature","geometry":{"type":"Point","coordinates":[10.2254277,-0.6984694]},"properties":{"name":"Gaboprix","shop":"supermarket"}},
{"type":"Feature","geometry":{"type":"Point","coordinates":[10.0953273,0.1956768]},"properties":{"name":"Boulangerie","shop":"bakery"}},
{"type":"Feature","geometry":{"type":"Point","coordinates":[10.2347769,-0.7008841]},"properties":{"name":"Boulangerie","shop":"bakery"}},
{"type":"Feature","geometry":{"type":"Point","coordinates":[11.0531284,-1.8765948]},"properties":{"shop":"supermarket"}},
{"type":"Feature","geometry":{"type":"Point","coordinates":[11.0529231,-1.8771406]},"properties":{"name":"Boulangerie","shop":"bakery"}},
{"type":"Feature","geometry":{"type":"Point","coordinates":[9.4097966,0.4568657]},"properties":{"brand":"Paul","brand:wikidata":"Q3370417","brand:wikipedia":"en:Paul (bakery)","name":"Paul","payment:cash":"yes","payment:credit_cards":"yes","payment:debit_cards":"yes","payment:visa":"yes","shop":"bakery"}},
{"type":"Feature","geometry":{"type":"Point","coordinates":[9.4284064,0.4231303]},"properties":{"addr:city":"Libreville","addr:housenumber":"833","addr:street":"Avenue Félix HOUPHOUET BOIGNY","addr:suburb":"Trois quartiers","air_conditioning":"yes","branch":"AGASA","brand":"Paul","brand:wikidata":"Q3370417","brand:wikipedia":"en:Paul (bakery)","name":"Paul","opening_hours":"Mo-Su 07:00-23:00","shop":"bakery","toilets":"yes"}},
{"type":"Feature","geometry":{"type":"Point","coordinates":[9.4363241,0.404253]},"properties":{"shop":"bakery"}},
{"type":"Feature","geometry":{"type":"Point","coordinates":[9.4132236,0.4718865]},"properties":{"shop":"convenience"}},
{"type":"Feature","geometry":{"type":"Point","coordinates":[9.4133983,0.4726801]},"properties":{"shop":"convenience"}},
{"type":"Feature","geometry":{"type":"Point","coordinates":[9.4043283,0.4948613]},"properties":{"shop":"bakery"}},
{"type":"Feature","geometry":{"type":"Point","coordinates":[13.2198723,-1.5618493]},"properties":{"name":"Cecado","shop":"supermarket"}},
{"type":"Feature","geometry":{"type":"Point","coordinates":[9.4063335,0.4959521]},"properties":{"name":"Ali bon prix","opening_hours":"Mo-Su 07:00-20:00","operator":"des libanais","shop":"supermarket"}},
{"type":"Feature","geometry":{"type":"Point","coordinates":[9.442146,0.4032643]},"properties":{"addr:city":"Libreville","addr:street":"Boulevard Monseigneur Jean-Rémi Bessieux","air_conditioning":"yes","contact:facebook":"SANgel","contact:mobile":"065 99 77 55","currency:XAF":"yes","description":"Votre magasin Sangel Bessieux libre-service et demi-gros vous offre toute l’étendue de la gamme Sangel de l’entrée au dessert en passant par les produits frais.","email":"bessieux@san-gabon.com","image":"https://www.san-gel.com/images/PM2/bessieux-accueil.jpg","name":"Sangel Bessieux","operator":"SANGel","organic":"yes","payment:cards":"yes","payment:cash":"yes","shop":"supermarket","source":"survey","stroller":"yes","website":"https://www.san-gel.com/","wheelchair":"yes"}},
{"type":"Feature","geometry":{"type":"Point","coordinates":[10.3881936,-1.6987856]},"properties":{"shop":"convenience"}},
{"type":"Feature","geometry":{"type":"Point","coordinates":[10.3873422,-1.7006641]},"properties":{"name":"Point Final","shop":"supermarket"}},
{"type":"Feature","geometry":{"type":"Point","coordinates":[10.3875691,-1.7002336]},"properties":{"shop":"supermarket"}},
{"type":"Feature","geometry":{"type":"Point","coordinates":[10.3882798,-1.6983822]},"properties":{"shop":"supermarket"}},
{"type":"Feature","geometry":{"type":"Point","coordinates":[10.3864457,-1.7027518]},"properties":{"shop":"supermarket"}},
{"type":"Feature","geometry":{"type":"Point","coordinates":[10.3882104,-1.7079107]},"properties":{"name":"Melendeo & frères","shop":"supermarket"}},
{"type":"Feature","geometry":{"type":"Point","coordinates":[10.3894891,-1.7082332]},"properties":{"shop":"supermarket"}},
{"type":"Feature","geometry":{"type":"Point","coordinates":[10.4554093,-2.0091182]},"properties":{"shop":"supermarket"}},
{"type":"Feature","geometry":{"type":"Point","coordinates":[9.4830171,0.4239697]},"properties":{"addr:city":"Libreville","addr:housenumber":"283","addr:postcode":"2176","addr:province":"Estuaire","addr:street":"Avenue du Stade","addr:suburb":"Nzeng Ayong","air_conditioning":"yes","alt_name":"Carrefour market-Prix import","branch":"AGASA","brand":"Carrefour","brand:wikidata":"Q217599","contact:mobile":"074 55 55 42","description":"Gros, demi-gros, détail. Alimentation générale. Produits frais. Produits ménagers. Grand choix de vins, alcools et spiritueux.","name":"Carrefour","opening_hours":"Mo-Sa 08:00-20:00; Su 09:00-13:30","shop":"supermarket","stroller":"yes","wheelchair":"yes"}},
{"type":"Feature","geometry":{"type":"Point","coordinates":[9.2611957,-1.5676226]},"properties":{"air_conditioning":"no","brand":"CKDO","check_date":"2023-03-09","currency:XAF":"yes","internet_access":"no","name":"Cecado","opening_hours":"Mo-Sa 08:00-18:00","operator":"Groupe CECA GADIS","organic":"yes","second_hand":"no","shop":"supermarket","source":"local knowledge","stroller":"yes"}},
{"type":"Feature","geometry":{"type":"Point","coordinates":[9.2693844,-1.5788836]},"properties":{"name":"Sancta Maria","shop":"bakery"}},
{"type":"Feature","geometry":{"type":"Point","coordinates":[9.4976971,0.3807203]},"properties":{"name":"Epicerie ETS  et freres","opening_hours":"Mo-Sa 08:00-21:00","opening_hours:covid19":"Mo-Sa 08:00-19:00","payment:cash":"yes","shop":"convenience"}},
{"type":"Feature","geometry":{"type":"Point","coordinates":[9.4978547,0.3809624]},"properties":{"shop":"convenience"}},
{"type":"Feature","geometry":{"type":"Point","coordinates":[9.5029737,0.3874988]},"properties":{"shop":"convenience"}},
{"type":"Feature","geometry":{"type":"Point","coordinates":[9.503022,0.3880406]},"properties":{"shop":"convenience"}},
{"type":"Feature","geometry":{"type":"Point","coordinates":[9.5026706,0.3882284]},"properties":{"shop":"convenience"}},
{"type":"Feature","geometry":{"type":"Point","coordinates":[9.5044945,0.3857527]},"properties":{"shop":"convenience"}},
{"type":"Feature","geometry":{"type":"Point","coordinates":[9.5042129,0.3860665]},"properties":{"shop":"convenience"}},
{"type":"Feature","geometry":{"type":"Point","coordinates":[9.5056803,0.3852026]},"properties":{"shop":"convenience"}},
{"type":"Feature","geometry":{"type":"Point","coordinates":[10.8301786,-1.6554883]},"properties":{"name":"OPG Supermarket","shop":"supermarket"}},
{"type":"Feature","geometry":{"type":"Point","coordinates":[9.4370791,0.442969]},"properties":{"name":"Devanture rouge","payment:cash":"yes","shop":"supermarket"}},
{"type":"Feature","geometry":{"type":"Point","coordinates":[9.4663309,0.3630993]},"properties":{"name":"Maman Djabi","shop":"supermarket"}},
{"type":"Feature","geometry":{"type":"Point","coordinates":[9.4188789,0.4351805]},"properties":{"shop":"convenience"}},
{"type":"Feature","geometry":{"type":"Point","coordinates":[9.4179575,0.4398227]},"properties":{"addr:city":"Libreville","addr:housenumber":"400","addr:postcode":"5041","addr:street":"Boulevard HASSAN II","bakehouse":"yes","contact:email":"escaleroyale@gmail.com","contact:facebook":"L'Escale Royale","contact:instagram":"escale.royale.ga","contact:mobile":"062 03 29 29 /062 45 51 51","cuisine":"juice;breakfast;french;cake;bakery;pizza;burger;crepe;sandwich;salad;tea;pasta","delivery":"yes","drink":"water","drink:beer":"yes","food:croissant":"yes","ice_cream":"yes","indoor_seating":"yes","name":"L'Escale Royale","opening_hours":"Mo-Su 07:30-21:30","outdoor_seating":"terrace","outdoor_seating:comfort":"cushion_chair","pastry":"yes","payment:cash":"yes","payment:electronic_purses":"yes","payment:notes":"yes","produced_on_site":"yes","shop":"bakery","smoking":"outside","source":"survey","takeaway":"yes"}},
{"type":"Feature","geometry":{"type":"Point","coordinates":[9.4548147,0.3763709]},"properties":{"brand":"Paul","brand:wikidata":"Q3370417","name":"Paul","phone":"+24111449999","shop":"bakery"}},
{"type":"Feature","geometry":{"type":"Point","coordinates":[10.348985,-0.3957426]},"properties":{"amenity":"marketplace"}},
{"type":"Feature","geometry":{"type":"Point","coordinates":[9.4774199,0.432888]},"properties":{"addr:city":"Libreville","addr:housenumber":"53","addr:street":"Avenue Célestin NDONG OTOGHO","addr:suburb":"Nzeng Ayong","air_conditioning":"no","branch":"Groupe CECA GADIS","brand":"CECA GADIS","check_date":"2024-06-18","contact:email":"contact.gaboprix@cecagadis.com","currency:XAF":"yes","loc_name":"Maillot jaune","name":"Gaboprix 979","opening_hours":"Mo-Sa 08:00-19:30; Su 08:30-13:00","operator":"Entreprise","organic":"yes","outdoor_seating":"yes","payment:coins":"yes","payment:notes":"yes","phone":"11 70 46 89/90/91","shop":"supermarket","source":"survey","stroller":"yes","website":"https://cecagadis.com/enseigne-gaboprix/","wheelchair":"yes"}},
{"type":"Feature","geometry":{"type":"Point","coordinates":[9.4763643,0.4325019]},"properties":{"addr:city":"Libreville","addr:street":"Avenue Jean-Léon MENGUIRE","brand":"NIDO","check_date":"2023-07-27","inscription":"Alimentation générale - Boucherie et Parfumerie","name":"Escale Nzeng Ayong","shop":"convenience","source":"survey"}},
{"type":"Feature","geometry":{"type":"Point","coordinates":[9.4872616,0.4290395]},"properties":{"addr:city":"Libreville","addr:street":"Avenue Jean-Baptiste AYONG NGUEMA","addr:suburb":"Nzeng Ayong","air_conditioning":"yes","branch":"AGASA","check_date":"2023-04-14","description":"Vente de pains et viennoiseries","inscription":"Boulangerie - Pâtisserie","name":"Génoise-Fin goudron","operator":"GENOISE","payment:cash":"yes","shop":"bakery","source":"survey"}},
{"type":"Feature","geometry":{"type":"Point","coordinates":[9.4870203,0.4286288]},"properties":{"addr:city":"Libreville","addr:housenumber":"602","addr:street":"Avenue Jean-Baptiste AYONG NGUEMA","addr:suburb":"Nzeng Ayong","brand":"Nestlé NIDO","check_date":"2023-04-14","inscription":"Alimentation générale - Boucherie et Parfumerie","name":"Supérette Mori Center","shop":"convenience","source":"survey","stroller":"yes","wheelchair":"limited"}},
{"type":"Feature","geometry":{"type":"Point","coordinates":[9.755867,0.3910624]},"properties":{"amenity":"marketplace","description":"Inauguré par Casemir OYE MBA.","name":"Marché municipal","operator":"government","start_date":"1993-09-03"}},
{"type":"Feature","geometry":{"type":"Point","coordinates":[9.5033877,0.4173061]},"properties":{"name":"CECADO","shop":"supermarket"}},
{"type":"Feature","geometry":{"type":"Point","coordinates":[9.469234,0.425007]},"properties":{"addr:city":"Libreville","addr:housenumber":"63","addr:street":"Avenue Aime MONDJOT","brand":"NIDO","inscription":"Alimentation générale - Boucherie et Parfumerie","name":"Mini CENTER","shop":"convenience"}},
{"type":"Feature","geometry":{"type":"Point","coordinates":[9.4693808,0.4251807]},"properties":{"addr:city":"Libreville","addr:street":"Avenue Aimé MONDJOT","addr:suburb":"Nzeng Ayong","branch":"Groupe CECA GADIS","brand":"CECA GADIS","name":"CECADO","operator":"Entreprise","shop":"supermarket"}},
{"type":"Feature","geometry":{"type":"Point","coordinates":[9.4794596,0.4376795]},"properties":{"addr:city":"Libreville","addr:street":"Rue Georges NDONG ENGONE","addr:suburb":"Nzeng Ayong","description":"Certifié par l'AGASA","name":"Supérette Maurice CENTER","shop":"convenience"}},
{"type":"Feature","geometry":{"type":"Point","coordinates":[9.502628,0.4174895]},"properties":{"addr:city":"Libreville","addr:country":"GA","addr:hamlet":"Bambouchine","addr:province":"ESTUAIRE","addr:state":"GA","addr:street":"Rue Jean-Baptiste OTTOGHE EKOMIE","description":"Boucherie - Poissonnerie - Alimentation générale et divers","name":"Bambougel","shop":"convenience"}},
{"type":"Feature","geometry":{"type":"Point","coordinates":[9.4658093,0.4430697]},"properties":{"branch":"AGASA","inscription":"Alimentation générale - Boucherie et Parfumerie","name":"Supérette NAIM","shop":"convenience"}},
{"type":"Feature","geometry":{"type":"Point","coordinates":[9.4697609,0.4412346]},"properties":{"addr:city":"Libreville","addr:province":"Estuaire","addr:street":"Rue Simon OYONO ABA'A","addr:suburb":"Ondogo","inscription":"Alimentation générale - Boucherie et Parfumerie","name":"Supérette Joker","shop":"convenience"}},
{"type":"Feature","geometry":{"type":"Point","coordinates":[9.4661361,0.4428041]},"properties":{"addr:city":"Libreville","addr:province":"Estuaire","addr:street":"Rue Simon OYONO ABA'A","addr:suburb":"Ondogo","inscription":"Boulangerie - Patisserie","name":"Oasis du désert","shop":"bakery"}},
{"type":"Feature","geometry":{"type":"Point","coordinates":[9.4707657,0.4279969]},"properties":{"addr:city":"Libreville","addr:street":"Avenue Aime MONDJOT","addr:suburb":"Nzeng Ayong","air_conditioning":"yes","bakehouse":"yes","brand":"GENOISE","inscription":"Boulangerie - Pâtisserie","name":"Génoise-GP","shop":"bakery","stroller":"yes"}},
{"type":"Feature","geometry":{"type":"Point","coordinates":[9.7559748,0.3915872]},"properties":{"branch":"AGASA","check_date":"2023-03-22","name":"Supérette Ntoum plus","organic":"limited","payment:cash":"yes","shop":"convenience","source":"local knowledge","stroller":"limited"}},
{"type":"Feature","geometry":{"type":"Point","coordinates":[9.7581745,0.392435]},"properties":{"addr:city":"Ntoum","branch":"AGASA","check_date":"2023-04-09","currency:XAF":"yes","currency:others":"yes","name":"Supérette Ali Plus","payment:mobile_phone":"yes","shop":"convenience","source":"local knowledge"}},
{"type":"Feature","geometry":{"type":"Point","coordinates":[9.7616978,0.3887324]},"properties":{"name":"Carrefour Royal","shop":"convenience"}},
{"type":"Feature","geometry":{"type":"Point","coordinates":[9.4407523,0.4369448]},"properties":{"name":"CECADO","opening_hours":"Mo-Sa 08:00-20:00; Su 08:00-12:00","shop":"supermarket"}},
{"type":"Feature","geometry":{"type":"Point","coordinates":[9.4415682,0.4373609]},"properties":{"description":"Surgelés-les friandises","name":"SIPAGEL","opening_hours":"Mo-Sa 08:00-18:00; Su 08:00-12:00","shop":"convenience"}},
{"type":"Feature","geometry":{"type":"Point","coordinates":[9.4413643,0.4379306]},"properties":{"description":"gâteau touts évènements","name":"Carnaval","opening_hours":"Mo-Su 07:00-21:00","shop":"bakery"}},
{"type":"Feature","geometry":{"type":"Point","coordinates":[13.0102062,-1.82523]},"properties":{"addr:city":"Bakoumba","addr:province":"Haut-Ogooué","amenity":"marketplace","name":"Marché municipal"}},
{"type":"Feature","geometry":{"type":"Point","coordinates":[13.0112322,-1.8271282]},"properties":{"addr:city":"Bakoumba","addr:province":"Haut-Ogooué","shop":"convenience"}},
{"type":"Feature","geometry":{"type":"Point","coordinates":[12.7280479,-0.8104649]},"properties":{"name":"Promo Gros","shop":"convenience"}},
{"type":"Feature","geometry":{"type":"Point","coordinates":[12.7289814,-0.8105142]},"properties":{"addr:city":"Lartoursville","addr:province":"Ogooué-Lolo","brand":"Groupe CECA GADIS","name":"CECADO","payment:coins":"no","payment:notes":"yes","shop":"supermarket"}},
{"type":"Feature","geometry":{"type":"Point","coordinates":[12.7284667,-0.8102689]},"properties":{"addr:city":"Lartoursville","addr:province":"Ogooué-Lolo","brand":"Groupe CECA GADIS","name":"InterGROS","payment:notes":"yes","shop":"supermarket"}},
{"type":"Feature","geometry":{"type":"Point","coordinates":[12.7249784,-0.8115855]},"properties":{"name":"ACHENE","shop":"convenience"}},
{"type":"Feature","geometry":{"type":"Point","coordinates":[12.7268238,-0.8140787]},"properties":{"name":"Carla","shop":"bakery"}},
{"type":"Feature","geometry":{"type":"Point","coordinates":[12.4642213,-1.1325279]},"properties":{"name":"Gare Routière","shop":"supermarket"}},
{"type":"Feature","geometry":{"type":"Point","coordinates":[12.4645069,-1.1324662]},"properties":{"name":"Marché de koulamoutou","shop":"supermarket"}},
{"type":"Feature","geometry":{"type":"Point","coordinates":[12.4672803,-1.136183]},"properties":{"name":"Gaboprix","name:en":"Gaboprix","shop":"supermarket"}},
{"type":"Feature","geometry":{"type":"Point","coordinates":[13.792313,-1.4989451]},"properties":{"name":"Cecado 078 Ngouoni","shop":"supermarket"}},
{"type":"Feature","geometry":{"type":"Point","coordinates":[8.7539873,-0.7455633]},"properties":{"name":"Chez SOGLO","shop":"supermarket"}},
{"type":"Feature","geometry":{"type":"Point","coordinates":[9.3954117,0.5184671]},"properties":{"name":"La Fournée de Maïlys","shop":"bakery"}},
{"type":"Feature","geometry":{"type":"Point","coordinates":[9.4911535,0.4313481]},"properties":{"noname":"yes","shop":"convenience"}},
{"type":"Feature","geometry":{"type":"Point","coordinates":[9.4945959,0.4198961]},"properties":{"noname":"yes","shop":"convenience"}},
{"type":"Feature","geometry":{"type":"Point","coordinates":[9.50194,0.433469]},"properties":{"name":"Supérette","shop":"convenience"}},
{"type":"Feature","geometry":{"type":"Point","coordinates":[9.486882,0.4288935]},"properties":{"addr:city":"Libreville","addr:street":"Avenue Jean-Baptiste AYONG NGUEMA","addr:suburb":"Nzeng Ayong","description":"Superette - Alimentation générale","mobile":"076 510 186 / 060 426 082","name":"FairPrice Croceries","payment:cash":"yes","payment:electronic_purses":"yes","shop":"convenience"}},
{"type":"Feature","geometry":{"type":"Point","coordinates":[9.4880448,0.428967]},"properties":{"noname":"yes","shop":"convenience"}},
{"type":"Feature","geometry":{"type":"Point","coordinates":[9.4875023,0.4287925]},"properties":{"name":"Supérette","shop":"convenience"}},
{"type":"Feature","geometry":{"type":"Point","coordinates":[9.4821717,0.4254864]},"properties":{"addr:city":"Libreville","addr:street":"Avenue Coeur Immaculé de Marie","name":"Diallo et Frères","shop":"convenience"}},
{"type":"Feature","geometry":{"type":"Point","coordinates":[9.4793537,0.4369376]},"properties":{"addr:city":"Libreville","addr:street":"Impasse Antoine MBA NGUEME","addr:suburb":"Nzeng Ayong","name":"Sarah","nohousenumber":"yes","shop":"bakery"}},
{"type":"Feature","geometry":{"type":"Point","coordinates":[9.4808912,0.4247656]},"properties":{"addr:city":"Libreville","addr:housenumber":"375","addr:street":"Avenue Coeur Immaculé de Marie","addr:suburb":"Nzeng Ayong","inscription":"Magasin d'ameublement et de décoration","name":"Metro 1000","shop":"convenience"}},
{"type":"Feature","geometry":{"type":"Point","coordinates":[9.480658,0.4246783]},"properties":{"addr:city":"Libreville","addr:housenumber":"349","addr:street":"Avenue Coeur Immaculé de Marie","addr:suburb":"Nzeng Ayong","name":"Bon Shop","shop":"convenience"}},
{"type":"Feature","geometry":{"type":"Point","coordinates":[9.472032,0.4290133]},"properties":{"addr:city":"Libreville","addr:housenumber":"81","addr:street":"Avenue Jean-Léon MENGUIRE","addr:suburb":"Nzeng Ayong","branch":"AGASA","description":"Vente de la viande fraîche","noname":"yes","shop":"butcher"}},
{"type":"Feature","geometry":{"type":"Point","coordinates":[9.4713467,0.4290931]},"properties":{"name":"Dallas Bazar","shop":"convenience"}},
{"type":"Feature","geometry":{"type":"Point","coordinates":[9.4714621,0.4286707]},"properties":{"addr:city":"Libreville","addr:street":"Avenue Aime MONDJOT","addr:suburb":"Nzeng Ayong","noname":"yes","shop":"convenience"}},
{"type":"Feature","geometry":{"type":"Point","coordinates":[9.4796251,0.4242067]},"properties":{"addr:city":"Libreville","addr:province":"Estuaire","addr:street":"Avenue Dr. Moise ABESSOLO EDO","addr:suburb":"Nzeng Ayong","name":"Roi du bon prix","shop":"supermarket"}},
{"type":"Feature","geometry":{"type":"Point","coordinates":[9.4779482,0.4211396]},"properties":{"addr:city":"Libreville","addr:street":"Avenue Jean Hilaire AUBAME EYEGHE","addr:suburb":"Nzeng Ayong","branch":"AGASA","brand":"Super Éléphant","currency:XAF":"yes","level":"0","name":"Supérette de Nzeng Ayong","organic":"yes","payment:notes":"yes","shop":"supermarket","source":"survey","stroller":"yes","wheelchair":"limited"}},
{"type":"Feature","geometry":{"type":"Point","coordinates":[9.4771797,0.42109]},"properties":{"addr:city":"Libreville","addr:street":"Avenue Jean Hilaire AUBAME EYEGHE","addr:suburb":"Nzeng Ayong","inscription":"Boulangerie - Pâtisserie et Salon de thé","name":"Caramel","shop":"bakery"}},
{"type":"Feature","geometry":{"type":"Point","coordinates":[9.4733668,0.4229315]},"properties":{"addr:city":"Libreville","addr:housenumber":"822","addr:street":"Avenue Jean Hilaire AUBAME EYEGHE","addr:suburb":"Nzeng Ayong","name":"Epicerie Gondjala","shop":"convenience"}},
{"type":"Feature","geometry":{"type":"Point","coordinates":[9.4776271,0.4213699]},"properties":{"addr:city":"Libreville","addr:street":"Avenue Jean Hilaire AUBAME EYEGHE","addr:suburb":"Nzeng Ayong","description":"Acheter plus Payer moins","inscription":"Décoration - Jouets - Produits d'entretien","name":"Bonus","nohousenumber":"yes","shop":"convenience"}},
{"type":"Feature","geometry":{"type":"Point","coordinates":[9.4792899,0.4217084]},"properties":{"name":"Supérette","shop":"convenience"}},
{"type":"Feature","geometry":{"type":"Point","coordinates":[9.4792805,0.4213348]},"properties":{"name":"Supérette","name:fr":"Supérette Bazar","shop":"convenience"}},
{"type":"Feature","geometry":{"type":"Point","coordinates":[9.479393,0.4363902]},"properties":{"shop":"convenience"}},
{"type":"Feature","geometry":{"type":"Point","coordinates":[9.5576086,0.4105022]},"properties":{"name":"Sans-Gel","shop":"supermarket"}},
{"type":"Feature","geometry":{"type":"Point","coordinates":[9.5571918,0.4106548]},"properties":{"addr:city":"Ntoum","air_conditioning":"yes","name":"Prix Import","shop":"supermarket","stroller":"yes"}},
{"type":"Feature","geometry":{"type":"Point","coordinates":[9.5562534,0.4119256]},"properties":{"name":"Supérette","shop":"convenience"}},
{"type":"Feature","geometry":{"type":"Point","coordinates":[9.4659588,0.4220721]},"properties":{"name":"Santa Maria","shop":"bakery"}},
{"type":"Feature","geometry":{"type":"Point","coordinates":[9.4663221,0.4223534]},"properties":{"brand":"Nescafé","name":"Original","shop":"convenience"}},
{"type":"Feature","geometry":{"type":"Point","coordinates":[9.4666368,0.4225326]},"properties":{"addr:city":"Libreville","addr:province":"Estuaire","addr:street":"Boulevard de la Conférence Nationale","addr:suburb":"Nzeng Ayong","inscription":"Electroménagers - Alimentation - Boucherie - Alcools - Divers","name":"Galaxy Shopping Center","nohousenumber":"yes","shop":"convenience"}},
{"type":"Feature","geometry":{"type":"Point","coordinates":[9.4799446,0.4244772]},"properties":{"amenity":"marketplace","name":"Marché municipal de Nzeng Ayong","opening_hours":"Mo-We, Fr-Su 07:30-18:00"}},
{"type":"Feature","geometry":{"type":"Point","coordinates":[9.761344,0.3898948]},"properties":{"name":"Supérette G5","shop":"convenience"}},
{"type":"Feature","geometry":{"type":"Point","coordinates":[9.7615824,0.3903205]},"properties":{"name":"Supérette Shalem bon prix","shop":"convenience"}},
{"type":"Feature","geometry":{"type":"Point","coordinates":[9.7609119,0.3903677]},"properties":{"name":"Royal boucherie plus","shop":"convenience"}},
{"type":"Feature","geometry":{"type":"Point","coordinates":[9.761363,0.388944]},"properties":{"name":"Supérette Prix Idéal","shop":"convenience"}},
{"type":"Feature","geometry":{"type":"Point","coordinates":[9.7580078,0.3921861]},"properties":{"name":"Supérette Soleil","shop":"convenience"}},
{"type":"Feature","geometry":{"type":"Point","coordinates":[9.4789887,0.4163275]},"properties":{"addr:city":"Libreville","addr:street":"Avenue Jean Baptiste OBIANG ETOUGHE","contact:mobile":"066 39 31 04","name":"Prix'Bah","shop":"convenience","source":"survey"}},
{"type":"Feature","geometry":{"type":"Point","coordinates":[9.4695444,0.4100892]},"properties":{"addr:housenumber":"252","addr:street":"Avenue Jean Baptiste OBIANG ETOUGHE","description":"Alimentation générale - Boucherie et Parfumerie","name":"Vadel Commerce","shop":"convenience"}},
{"type":"Feature","geometry":{"type":"Point","coordinates":[9.4910118,0.4091996]},"properties":{"shop":"supermarket"}},
{"type":"Feature","geometry":{"type":"Point","coordinates":[10.5913501,-1.2182146]},"properties":{"name":"Épicerie SIMBARA (SEEG)","opening_hours":"Mo-Su 06:00-23:00","shop":"convenience"}},
{"type":"Feature","geometry":{"type":"Point","coordinates":[10.5867874,-1.2239168]},"properties":{"name":"Épicerie WAGUE YOUSSOUF","shop":"convenience"}},
{"type":"Feature","geometry":{"type":"Point","coordinates":[9.4762881,0.3862604]},"properties":{"name":"Le Cho'Pain","shop":"bakery"}},
{"type":"Feature","geometry":{"type":"Point","coordinates":[9.4462032,0.4303311]},"properties":{"amenity":"marketplace","name":"Marché GRAINE-Lac Bleu"}},
{"type":"Feature","geometry":{"type":"Point","coordinates":[9.4774809,0.3882997]},"properties":{"amenity":"marketplace","name":"Marché GRAINE-Cité Damas"}},
{"type":"Feature","geometry":{"type":"Point","coordinates":[9.4672251,0.4061166]},"properties":{"name":"CECADO","shop":"supermarket"}},
{"type":"Feature","geometry":{"type":"Point","coordinates":[9.5108404,0.3166438]},"properties":{"amenity":"marketplace","name":"Marché municipal"}},
{"type":"Feature","geometry":{"type":"Point","coordinates":[9.4276998,0.4201811]},"properties":{"addr:city":"Libreville","addr:housenumber":"09","addr:street":"Impasse Eugène Amogho","bin":"yes","name":"Mac Donald","payment:cash":"yes","payment:electronic_purses":"yes","shop":"convenience","source":"survey"}},
{"type":"Feature","geometry":{"type":"Point","coordinates":[9.433764,0.4174657]},"properties":{"addr:city":"Libreville","name":"Gaboprix","shop":"convenience"}},
{"type":"Feature","geometry":{"type":"Point","coordinates":[9.431654,0.4098251]},"properties":{"name":"Top Louis","shop":"convenience"}},
{"type":"Feature","geometry":{"type":"Point","coordinates":[9.4346495,0.4197555]},"properties":{"name":"Chez Ali","shop":"convenience"}},
{"type":"Feature","geometry":{"type":"Point","coordinates":[9.4325848,0.4139973]},"properties":{"amenity":"marketplace","inscription":"Jean-Pierre AMBOUROUET DEMBA","name":"Marché municipal"}},
{"type":"Feature","geometry":{"type":"Point","coordinates":[9.4843015,0.4335216]},"properties":{"noname":"yes","shop":"convenience"}},
{"type":"Feature","geometry":{"type":"Point","coordinates":[9.4797945,0.4371539]},"properties":{"addr:housenumber":"357","addr:street":"Rue Gabriel NGOUA OBIANG","branch":"SYNOPEG","description":"Alimentation générale - Boucherie et Parfumerie","name":"Escale Dragage","shop":"convenience"}},
{"type":"Feature","geometry":{"type":"Point","coordinates":[9.4796688,0.4370527]},"properties":{"addr:city":"Libreville","addr:suburb":"Nzeng Ayong","noname":"yes","shop":"bakery"}},
{"type":"Feature","geometry":{"type":"Point","coordinates":[9.4094407,0.5266321]},"properties":{"addr:city":"Libreville","name":"Carrefour Amissa","shop":"bakery"}},
{"type":"Feature","geometry":{"type":"Point","coordinates":[9.506773,0.4023096]},"properties":{"noname":"yes","shop":"convenience"}},
{"type":"Feature","geometry":{"type":"Point","coordinates":[9.4369383,0.4383711]},"properties":{"addr:city":"Libreville","addr:street":"Boulevard des BANTU","amenity":"fuel","brand":"TotalEnergies","brand:wikidata":"Q154037","capacity":"4","car_wash":"yes","compressed_air":"yes","contact:facebook":"TotalEnergies","fuel:diesel":"yes","fuel:octane_95":"yes","fuel:octane_98":"yes","fuel:petrol":"yes","name":"TotalEnergies-Ambowé","operator":"TotalEnergies Marketing Gabon","payment:cash":"yes","payment:dkv":"yes","payment:notes":"yes","self_service":"no","service:vehicle:inspection":"yes","shop":"convenience","source":"survey","toilets":"customers","vending":"fuel","website":"https://totalenergies.ga","wheelchair":"yes"}},
{"type":"Feature","geometry":{"type":"Point","coordinates":[9.4287882,0.4229061]},"properties":{"addr:city":"Libreville","addr:street":"Avenue Félix HOUPHOUET BOIGNY","air_conditioning":"yes","branch":"AGASA","name":"Marina Market","shop":"convenience"}},
{"type":"Feature","geometry":{"type":"Point","coordinates":[9.4794006,0.436641]},"properties":{"noname":"yes","shop":"convenience"}},
{"type":"Feature","geometry":{"type":"Point","coordinates":[9.4420163,0.4031247]},"properties":{"addr:city":"Libreville","addr:street":"Boulevard Monseigneur Jean-Rémi Bessieux","air_conditioning":"yes","contact:facebook":"Okira Market","contact:mobile":"077 34 40 71","currency:XAF":"yes","email":"okira.market241@gmail.com","loc_name":"Le marché","name":"OKIRA Market","payment:cards":"yes","payment:cash":"yes","payment:electronic_purses":"yes","payment:mastercard":"yes","payment:visa":"yes","shop":"supermarket","source":"survey","start_date":"2024","stroller":"yes","wheelchair":"yes"}},
{"type":"Feature","geometry":{"type":"Point","coordinates":[9.4446389,0.4026783]},"properties":{"addr:city":"Libreville","addr:housenumber":"846","addr:street":"Boulevard Monseigneur Jean-Rémi Bessieux","bin":"yes","branch":"CECA-GADIS","currency:XAF":"yes","email":"contact.gaboprix@cecagadis.com","loc_name":"Le maillot jaune","name":"Gaboprix 922","payment:cash":"yes","payment:coins":"yes","payment:notes":"yes","phone":"011 70 46 89/90/91","shop":"convenience","source":"survey","start_date":"1968","stroller":"yes","wheelchair":"yes"}},
{"type":"Feature","geometry":{"type":"Point","coordinates":[13.0051512,-1.8259452]},"properties":{"addr:city":"Bakoumba","name":"Lepika","shop":"convenience","source":"survey"}},
{"type":"Feature","geometry":{"type":"Point","coordinates":[9.4347493,0.4270522]},"properties":{"addr:city":"Libreville","amenity":"marketplace","name":"Marché"}},
{"type":"Feature","geometry":{"type":"Point","coordinates":[9.4344902,0.426879]},"properties":{"addr:city":"Libreville","noname":"yes","shop":"convenience"}},
{"type":"Feature","geometry":{"type":"Point","coordinates":[9.4346016,0.4262544]},"properties":{"addr:city":"Libreville","name":"Gaboprix 974","shop":"supermarket"}},
{"type":"Feature","geometry":{"type":"LineString","coordinates":[[9.4375464,0.4013565],[9.4379552,0.4017177],[9.4375677,0.4021563],[9.4376578,0.402236],[9.4375176,0.4023947],[9.437296,0.4021989],[9.4373144,0.4021781],[9.4372452,0.402117],[9.4373582,0.4019891],[9.43715,0.4018052],[9.4373248,0.4016073],[9.4375464,0.4013565]]},"properties":{"brand":"Intermarché","brand:fr":"Intermarché","brand:wikidata":"Q3153200","brand:wikipedia":"fr:Intermarché","building":"yes","name":"Intermarché","operator":"Intermarché","operator:fr":"Intermarché","operator:wikidata":"Q3153200","operator:wikipedia":"fr:Intermarché","shop":"supermarket"}},
{"type":"Feature","geometry":{"type":"LineString","coordinates":[[9.4464363,0.3868902],[9.4465862,0.3867271],[9.4467017,0.3868333],[9.4465518,0.3869963],[9.4464363,0.3868902]]},"properties":{"amenity":"marketplace","name":"Village Artisanal","shop":"gift"}},
{"type":"Feature","geometry":{"type":"LineString","coordinates":[[10.2289579,-0.677905],[10.2290849,-0.6782343],[10.2291704,-0.6782013],[10.2291375,-0.678116],[10.2291738,-0.678102],[10.229151,-0.678043],[10.229117,-0.6780561],[10.2290457,-0.6778711],[10.2289579,-0.677905]]},"properties":{"building":"yes","name":"Epicerie","shop":"convenience"}},
{"type":"Feature","geometry":{"type":"LineString","coordinates":[[9.585191,1.0069838],[9.5850584,1.0071755],[9.585019,1.0071584],[9.5849638,1.0072319],[9.5849061,1.0071952],[9.5849153,1.0071807],[9.5848496,1.0071335],[9.5850347,1.006867],[9.585191,1.0069838]]},"properties":{"amenity":"marketplace"}},
{"type":"Feature","geometry":{"type":"LineString","coordinates":[[9.4547071,0.4121069],[9.4546719,0.4120439],[9.4546682,0.411929],[9.4545681,0.411766],[9.4548016,0.4116085],[9.4549202,0.4117567],[9.4549851,0.4117901],[9.455024,0.4118419],[9.4547071,0.4121069]]},"properties":{"amenity":"marketplace","name":"N'kembo Market"}},
{"type":"Feature","geometry":{"type":"LineString","coordinates":[[9.4464326,0.3857086],[9.4467867,0.3858749],[9.4469852,0.3854833],[9.4465936,0.3852741],[9.4464326,0.3857086]]},"properties":{"amenity":"marketplace","building":"yes","name":"Village Artisanal mini"}},
{"type":"Feature","geometry":{"type":"LineString","coordinates":[[9.4551006,0.3771129],[9.4549502,0.3770535],[9.454867,0.3772713],[9.4548868,0.3773109],[9.454966,0.3773505],[9.4549818,0.3773227],[9.4550294,0.3773425],[9.4551006,0.3771129]]},"properties":{"addr:street":"Boulevard de l'Indépendance","building":"yes","name":"Ckdo Glass","shop":"supermarket"}},
{"type":"Feature","geometry":{"type":"LineString","coordinates":[[9.4485387,0.4162187],[9.4485937,0.4162468],[9.4486272,0.4161919],[9.4485682,0.4161556],[9.4485387,0.4162187]]},"properties":{"building":"yes","shop":"supermarket"}},
{"type":"Feature","geometry":{"type":"LineString","coordinates":[[9.4010057,0.4793357],[9.4011315,0.4791291],[9.4008895,0.4789807],[9.400783,0.4792195],[9.4008379,0.4792195],[9.4008798,0.4792292],[9.4008927,0.4792679],[9.4008605,0.4792937],[9.4009702,0.4793518],[9.4010057,0.4793357]]},"properties":{"building":"yes","name":"Pélisson d'Okala","shop":"bakery"}},
{"type":"Feature","geometry":{"type":"LineString","coordinates":[[13.603002,-1.620955],[13.6029027,-1.6212821],[13.6030476,-1.6217487],[13.6033855,-1.6221347],[13.6035277,-1.6225744],[13.6037637,-1.6225342],[13.6039488,-1.6223868],[13.6040293,-1.6221347],[13.6040936,-1.6218827],[13.6043297,-1.6213787],[13.6043833,-1.6213063],[13.6043055,-1.6211266],[13.6039354,-1.6209792],[13.6035062,-1.6209524],[13.603002,-1.620955]]},"properties":{"amenity":"marketplace","landuse":"retail","name":"Marché de Poto Poto"}},
{"type":"Feature","geometry":{"type":"LineString","coordinates":[[12.4673209,-1.1349977],[12.4673575,-1.1350171],[12.4673208,-1.1350863],[12.467524,-1.135194],[12.4675503,-1.1351445],[12.4676357,-1.1351897],[12.4676918,-1.1350839],[12.4676111,-1.1350412],[12.4676163,-1.1350314],[12.4673717,-1.1349017],[12.4673209,-1.1349977]]},"properties":{"building":"yes","name":"Le Géant Hebah","shop":"supermarket"}},
{"type":"Feature","geometry":{"type":"LineString","coordinates":[[12.466473,-1.134743],[12.4665266,-1.1346303],[12.4666196,-1.1346746],[12.466566,-1.1347872],[12.466473,-1.134743]]},"properties":{"building":"yes","name":"Manga Shop","shop":"supermarket"}},
{"type":"Feature","geometry":{"type":"LineString","coordinates":[[12.7311065,-0.808682],[12.7311722,-0.8087048],[12.7312245,-0.8085935],[12.731309,-0.8085144],[12.7312406,-0.80845],[12.731144,-0.8085519],[12.7311065,-0.808682]]},"properties":{"building":"yes","name":"Promo Gros","shop":"convenience"}},
{"type":"Feature","geometry":{"type":"LineString","coordinates":[[13.6039469,-1.6229499],[13.6041641,-1.6228654],[13.604226,-1.6230255],[13.6042204,-1.6230705],[13.6041333,-1.6231335],[13.6041225,-1.6231054],[13.6040222,-1.6231435],[13.6039469,-1.6229499]]},"properties":{"building":"yes","name":"Géant CKdo","shop":"supermarket"}},
{"type":"Feature","geometry":{"type":"LineString","coordinates":[[13.2177356,-1.5594583],[13.2187629,-1.5603833],[13.2197285,-1.5592787],[13.2186958,-1.5583429],[13.2177356,-1.5594583]]},"properties":{"amenity":"marketplace","landuse":"retail","name":"Marché Central"}},
{"type":"Feature","geometry":{"type":"LineString","coordinates":[[9.5034443,0.334859],[9.5032092,0.3348379],[9.5028361,0.3347982],[9.5029129,0.334222],[9.5034867,0.3342364],[9.5034443,0.334859]]},"properties":{"amenity":"marketplace","landuse":"retail","name":"Marché Akournam"}},
{"type":"Feature","geometry":{"type":"LineString","coordinates":[[11.0571486,-1.8641439],[11.0582508,-1.8640066],[11.0582658,-1.8641651],[11.0589566,-1.8640854],[11.0590546,-1.8648837],[11.0582041,-1.8649952],[11.0572734,-1.8651868],[11.0571486,-1.8641439]]},"properties":{"amenity":"marketplace","landuse":"retail","name":"Marché central"}},
{"type":"Feature","geometry":{"type":"LineString","coordinates":[[11.5701007,1.577006],[11.5701097,1.5770759],[11.5701817,1.5770667],[11.5701751,1.5770153],[11.5701727,1.5769968],[11.5701007,1.577006]]},"properties":{"building":"yes","shop":"bakery"}},
{"type":"Feature","geometry":{"type":"LineString","coordinates":[[9.2665409,-1.5714381],[9.266303,-1.5716522],[9.2666516,-1.5720395],[9.2668896,-1.5718254],[9.2665409,-1.5714381]]},"properties":{"amenity":"marketplace","landuse":"retail","name":"Marché d'Omboué"}},
{"type":"Feature","geometry":{"type":"LineString","coordinates":[[11.5712294,1.6018734],[11.5713206,1.6019565],[11.5715459,1.6020704],[11.5716759,1.6021402],[11.5717953,1.6022099],[11.5719603,1.601931],[11.5724377,1.600986],[11.572136,1.6007634],[11.5719482,1.6010074],[11.5716129,1.6012246],[11.5714278,1.6013801],[11.5712857,1.6015356],[11.5712253,1.6016281],[11.5711717,1.6017648],[11.5712294,1.6018734]]},"properties":{"amenity":"marketplace","landuse":"retail","name":"Foire Centrale","name:en":"Central Fair Marketplace"}},
{"type":"Feature","geometry":{"type":"LineString","coordinates":[[11.5699339,1.5768392],[11.5699225,1.5767627],[11.5698612,1.5761571],[11.5698381,1.5760143],[11.5703347,1.575943],[11.5702986,1.5755576],[11.5704622,1.5755603],[11.5704998,1.5757507],[11.5711006,1.5757654],[11.5710939,1.5759638],[11.5713595,1.5763647],[11.5710041,1.5765859],[11.5705695,1.5767427],[11.5702825,1.5768124],[11.5699339,1.5768392]]},"properties":{"amenity":"marketplace","landuse":"retail","name":"Marché Ngouéma","name:en":"Ngouéma market"}},
{"type":"Feature","geometry":{"type":"LineString","coordinates":[[11.4945555,2.0794987],[11.4947025,2.0793473],[11.4949988,2.0796345],[11.4953653,2.079257],[11.4952384,2.0791339],[11.4950403,2.0789405],[11.494919,2.0788233],[11.4948236,2.0787308],[11.4943095,2.0792602],[11.4945555,2.0794987]]},"properties":{"addr:city":"Bitam","amenity":"marketplace","landuse":"retail","name":"Marché"}},
{"type":"Feature","geometry":{"type":"LineString","coordinates":[[9.4565807,0.4075897],[9.4563916,0.4074879],[9.456544,0.407205],[9.4566458,0.4072598],[9.4567414,0.4073113],[9.4567211,0.407349],[9.4567333,0.4073641],[9.4567632,0.4073803],[9.456694,0.4075085],[9.4566401,0.4074794],[9.4565807,0.4075897]]},"properties":{"building":"yes","name":"San Gel","shop":"supermarket"}},
{"type":"Feature","geometry":{"type":"LineString","coordinates":[[9.4080884,0.4587947],[9.4081324,0.458716],[9.4079402,0.4586048],[9.4078985,0.4586859],[9.4080884,0.4587947]]},"properties":{"building":"yes","shop":"bakery"}},
{"type":"Feature","geometry":{"type":"LineString","coordinates":[[11.6102512,-0.1067329],[11.6103313,-0.1068468],[11.6104032,-0.1067962],[11.6103231,-0.1066823],[11.6102512,-0.1067329]]},"properties":{"building":"yes","shop":"convenience"}},
{"type":"Feature","geometry":{"type":"LineString","coordinates":[[14.2553723,-1.5855953],[14.2554937,-1.5856342],[14.2554635,-1.5857361],[14.2553374,-1.5857006],[14.2553723,-1.5855953]]},"properties":{"building":"yes","shop":"convenience"}},
{"type":"Feature","geometry":{"type":"LineString","coordinates":[[10.5886176,-1.2102648],[10.5887824,-1.2101584],[10.5895117,-1.2102278],[10.5894397,-1.2108861],[10.5886547,-1.2108128],[10.5885853,-1.2106207],[10.5886176,-1.2102648]]},"properties":{"amenity":"marketplace","name":"Marché"}},
{"type":"Feature","geometry":{"type":"LineString","coordinates":[[9.4019449,-1.6422196],[9.4019336,-1.6422888],[9.4020086,-1.642301],[9.4020199,-1.6422318],[9.4019449,-1.6422196]]},"properties":{"building":"yes","shop":"bakery"}},
{"type":"Feature","geometry":{"type":"LineString","coordinates":[[9.3929134,0.4991651],[9.3930465,0.4992515],[9.3931773,0.4990682],[9.393015,0.498976],[9.3929134,0.4991651]]},"properties":{"addr:city":"Libreville","addr:street":"Rte d'Avorbam","building":"yes","name":"Blé Doré","opening_hours":"06:00-20:30","payment:cash":"yes","phone":"077 22 22 16","shop":"bakery"}},
{"type":"Feature","geometry":{"type":"LineString","coordinates":[[10.2288777,-0.7012876],[10.2289893,-0.7013289],[10.2289353,-0.7014499],[10.2291096,-0.7018307],[10.2295321,-0.7019903],[10.229775,-0.7016158],[10.2298835,-0.7016577],[10.2296287,-0.7024436],[10.2288915,-0.7021582],[10.2289394,-0.7020842],[10.2288307,-0.7019245],[10.2288777,-0.7012876]]},"properties":{"amenity":"marketplace"}},
{"type":"Feature","geometry":{"type":"LineString","coordinates":[[9.3924151,0.4992438],[9.3925284,0.4993195],[9.392561,0.4992768],[9.3924416,0.4992067],[9.3924151,0.4992438]]},"properties":{"building":"yes","shop":"supermarket"}},
{"type":"Feature","geometry":{"type":"MultiPolygon","coordinates":[[[[9.43715,0.4018052],[9.4373248,0.4016073],[9.4375464,0.4013565],[9.4379552,0.4017177],[9.4375677,0.4021563],[9.4376578,0.402236],[9.4375176,0.4023947],[9.437296,0.4021989],[9.4373144,0.4021781],[9.4372452,0.402117],[9.4373582,0.4019891],[9.43715,0.4018052]]]]},"properties":{"brand":"Intermarché","brand:fr":"Intermarché","brand:wikidata":"Q3153200","brand:wikipedia":"fr:Intermarché","building":"yes","name":"Intermarché","operator":"Intermarché","operator:fr":"Intermarché","operator:wikidata":"Q3153200","operator:wikipedia":"fr:Intermarché","shop":"supermarket"}},
{"type":"Feature","geometry":{"type":"MultiPolygon","coordinates":[[[[9.4464363,0.3868902],[9.4465862,0.3867271],[9.4467017,0.3868333],[9.4465518,0.3869963],[9.4464363,0.3868902]]]]},"properties":{"amenity":"marketplace","name":"Village Artisanal","shop":"gift"}},
{"type":"Feature","geometry":{"type":"MultiPolygon","coordinates":[[[[10.2289579,-0.677905],[10.2290849,-0.6782343],[10.2291704,-0.6782013],[10.2291375,-0.678116],[10.2291738,-0.678102],[10.229151,-0.678043],[10.229117,-0.6780561],[10.2290457,-0.6778711],[10.2289579,-0.677905]]]]},"properties":{"building":"yes","name":"Epicerie","shop":"convenience"}},
{"type":"Feature","geometry":{"type":"MultiPolygon","coordinates":[[[[9.5848496,1.0071335],[9.5850347,1.006867],[9.585191,1.0069838],[9.5850584,1.0071755],[9.585019,1.0071584],[9.5849638,1.0072319],[9.5849061,1.0071952],[9.5849153,1.0071807],[9.5848496,1.0071335]]]]},"properties":{"amenity":"marketplace"}},
{"type":"Feature","geometry":{"type":"MultiPolygon","coordinates":[[[[9.4545681,0.411766],[9.4548016,0.4116085],[9.4549202,0.4117567],[9.4549851,0.4117901],[9.455024,0.4118419],[9.4547071,0.4121069],[9.4546719,0.4120439],[9.4546682,0.411929],[9.4545681,0.411766]]]]},"properties":{"amenity":"marketplace","name":"N'kembo Market"}},
{"type":"Feature","geometry":{"type":"MultiPolygon","coordinates":[[[[9.4464326,0.3857086],[9.4465936,0.3852741],[9.4469852,0.3854833],[9.4467867,0.3858749],[9.4464326,0.3857086]]]]},"properties":{"amenity":"marketplace","building":"yes","name":"Village Artisanal mini"}},
{"type":"Feature","geometry":{"type":"MultiPolygon","coordinates":[[[[9.454867,0.3772713],[9.4549502,0.3770535],[9.4551006,0.3771129],[9.4550294,0.3773425],[9.4549818,0.3773227],[9.454966,0.3773505],[9.4548868,0.3773109],[9.454867,0.3772713]]]]},"properties":{"addr:street":"Boulevard de l'Indépendance","building":"yes","name":"Ckdo Glass","shop":"supermarket"}},
{"type":"Feature","geometry":{"type":"MultiPolygon","coordinates":[[[[9.4485387,0.4162187],[9.4485682,0.4161556],[9.4486272,0.4161919],[9.4485937,0.4162468],[9.4485387,0.4162187]]]]},"properties":{"building":"yes","shop":"supermarket"}},
{"type":"Feature","geometry":{"type":"MultiPolygon","coordinates":[[[[9.400783,0.4792195],[9.4008895,0.4789807],[9.4011315,0.4791291],[9.4010057,0.4793357],[9.4009702,0.4793518],[9.4008605,0.4792937],[9.4008927,0.4792679],[9.4008798,0.4792292],[9.4008379,0.4792195],[9.400783,0.4792195]]]]},"properties":{"building":"yes","name":"Pélisson d'Okala","shop":"bakery"}},
{"type":"Feature","geometry":{"type":"MultiPolygon","coordinates":[[[[13.6029027,-1.6212821],[13.6030476,-1.6217487],[13.6033855,-1.6221347],[13.6035277,-1.6225744],[13.6037637,-1.6225342],[13.6039488,-1.6223868],[13.6040293,-1.6221347],[13.6040936,-1.6218827],[13.6043297,-1.6213787],[13.6043833,-1.6213063],[13.6043055,-1.6211266],[13.6039354,-1.6209792],[13.6035062,-1.6209524],[13.603002,-1.620955],[13.6029027,-1.6212821]]]]},"properties":{"amenity":"marketplace","landuse":"retail","name":"Marché de Poto Poto"}},
{"type":"Feature","geometry":{"type":"MultiPolygon","coordinates":[[[[12.4673208,-1.1350863],[12.467524,-1.135194],[12.4675503,-1.1351445],[12.4676357,-1.1351897],[12.4676918,-1.1350839],[12.4676111,-1.1350412],[12.4676163,-1.1350314],[12.4673717,-1.1349017],[12.4673209,-1.1349977],[12.4673575,-1.1350171],[12.4673208,-1.1350863]]]]},"properties":{"building":"yes","name":"Le Géant Hebah","shop":"supermarket"}},
{"type":"Feature","geometry":{"type":"MultiPolygon","coordinates":[[[[12.466473,-1.134743],[12.466566,-1.1347872],[12.4666196,-1.1346746],[12.4665266,-1.1346303],[12.466473,-1.134743]]]]},"properties":{"building":"yes","name":"Manga Shop","shop":"supermarket"}},
{"type":"Feature","geometry":{"type":"MultiPolygon","coordinates":[[[[12.7311065,-0.808682],[12.7311722,-0.8087048],[12.7312245,-0.8085935],[12.731309,-0.8085144],[12.7312406,-0.80845],[12.731144,-0.8085519],[12.7311065,-0.808682]]]]},"properties":{"building":"yes","name":"Promo Gros","shop":"convenience"}},
{"type":"Feature","geometry":{"type":"MultiPolygon","coordinates":[[[[13.6039469,-1.6229499],[13.6040222,-1.6231435],[13.6041225,-1.6231054],[13.6041333,-1.6231335],[13.6042204,-1.6230705],[13.604226,-1.6230255],[13.6041641,-1.6228654],[13.6039469,-1.6229499]]]]},"properties":{"building":"yes","name":"Géant CKdo","shop":"supermarket"}},
{"type":"Feature","geometry":{"type":"MultiPolygon","coordinates":[[[[13.2177356,-1.5594583],[13.2187629,-1.5603833],[13.2197285,-1.5592787],[13.2186958,-1.5583429],[13.2177356,-1.5594583]]]]},"properties":{"amenity":"marketplace","landuse":"retail","name":"Marché Central"}},
{"type":"Feature","geometry":{"type":"MultiPolygon","coordinates":[[[[9.5028361,0.3347982],[9.5029129,0.334222],[9.5034867,0.3342364],[9.5034443,0.334859],[9.5032092,0.3348379],[9.5028361,0.3347982]]]]},"properties":{"amenity":"marketplace","landuse":"retail","name":"Marché Akournam"}},
{"type":"Feature","geometry":{"type":"MultiPolygon","coordinates":[[[[11.0571486,-1.8641439],[11.0572734,-1.8651868],[11.0582041,-1.8649952],[11.0590546,-1.8648837],[11.0589566,-1.8640854],[11.0582658,-1.8641651],[11.0582508,-1.8640066],[11.0571486,-1.8641439]]]]},"properties":{"amenity":"marketplace","landuse":"retail","name":"Marché central"}},
{"type":"Feature","geometry":{"type":"MultiPolygon","coordinates":[[[[11.5701007,1.577006],[11.5701727,1.5769968],[11.5701751,1.5770153],[11.5701817,1.5770667],[11.5701097,1.5770759],[11.5701007,1.577006]]]]},"properties":{"building":"yes","shop":"bakery"}},
{"type":"Feature","geometry":{"type":"MultiPolygon","coordinates":[[[[9.266303,-1.5716522],[9.2666516,-1.5720395],[9.2668896,-1.5718254],[9.2665409,-1.5714381],[9.266303,-1.5716522]]]]},"properties":{"amenity":"marketplace","landuse":"retail","name":"Marché d'Omboué"}},
{"type":"Feature","geometry":{"type":"MultiPolygon","coordinates":[[[[11.5711717,1.6017648],[11.5712253,1.6016281],[11.5712857,1.6015356],[11.5714278,1.6013801],[11.5716129,1.6012246],[11.5719482,1.6010074],[11.572136,1.6007634],[11.5724377,1.600986],[11.5719603,1.601931],[11.5717953,1.6022099],[11.5716759,1.6021402],[11.5715459,1.6020704],[11.5713206,1.6019565],[11.5712294,1.6018734],[11.5711717,1.6017648]]]]},"properties":{"amenity":"marketplace","landuse":"retail","name":"Foire Centrale","name:en":"Central Fair Marketplace"}},
{"type":"Feature","geometry":{"type":"MultiPolygon","coordinates":[[[[11.5698381,1.5760143],[11.5703347,1.575943],[11.5702986,1.5755576],[11.5704622,1.5755603],[11.5704998,1.5757507],[11.5711006,1.5757654],[11.5710939,1.5759638],[11.5713595,1.5763647],[11.5710041,1.5765859],[11.5705695,1.5767427],[11.5702825,1.5768124],[11.5699339,1.5768392],[11.5699225,1.5767627],[11.5698612,1.5761571],[11.5698381,1.5760143]]]]},"properties":{"amenity":"marketplace","landuse":"retail","name":"Marché Ngouéma","name:en":"Ngouéma market"}},
{"type":"Feature","geometry":{"type":"MultiPolygon","coordinates":[[[[11.4943095,2.0792602],[11.4948236,2.0787308],[11.494919,2.0788233],[11.4950403,2.0789405],[11.4952384,2.0791339],[11.4953653,2.079257],[11.4949988,2.0796345],[11.4947025,2.0793473],[11.4945555,2.0794987],[11.4943095,2.0792602]]]]},"properties":{"addr:city":"Bitam","amenity":"marketplace","landuse":"retail","name":"Marché"}},
{"type":"Feature","geometry":{"type":"MultiPolygon","coordinates":[[[[9.4563916,0.4074879],[9.456544,0.407205],[9.4566458,0.4072598],[9.4567414,0.4073113],[9.4567211,0.407349],[9.4567333,0.4073641],[9.4567632,0.4073803],[9.456694,0.4075085],[9.4566401,0.4074794],[9.4565807,0.4075897],[9.4563916,0.4074879]]]]},"properties":{"building":"yes","name":"San Gel","shop":"supermarket"}},
{"type":"Feature","geometry":{"type":"MultiPolygon","coordinates":[[[[9.4078985,0.4586859],[9.4079402,0.4586048],[9.4081324,0.458716],[9.4080884,0.4587947],[9.4078985,0.4586859]]]]},"properties":{"building":"yes","shop":"bakery"}},
{"type":"Feature","geometry":{"type":"MultiPolygon","coordinates":[[[[11.6102512,-0.1067329],[11.6103313,-0.1068468],[11.6104032,-0.1067962],[11.6103231,-0.1066823],[11.6102512,-0.1067329]]]]},"properties":{"building":"yes","shop":"convenience"}},
{"type":"Feature","geometry":{"type":"MultiPolygon","coordinates":[[[[14.2553374,-1.5857006],[14.2554635,-1.5857361],[14.2554937,-1.5856342],[14.2553723,-1.5855953],[14.2553374,-1.5857006]]]]},"properties":{"building":"yes","shop":"convenience"}},
{"type":"Feature","geometry":{"type":"MultiPolygon","coordinates":[[[[10.5885853,-1.2106207],[10.5886547,-1.2108128],[10.5894397,-1.2108861],[10.5895117,-1.2102278],[10.5887824,-1.2101584],[10.5886176,-1.2102648],[10.5885853,-1.2106207]]]]},"properties":{"amenity":"marketplace","name":"Marché"}},
{"type":"Feature","geometry":{"type":"MultiPolygon","coordinates":[[[[9.4019336,-1.6422888],[9.4020086,-1.642301],[9.4020199,-1.6422318],[9.4019449,-1.6422196],[9.4019336,-1.6422888]]]]},"properties":{"building":"yes","shop":"bakery"}},
{"type":"Feature","geometry":{"type":"MultiPolygon","coordinates":[[[[9.3929134,0.4991651],[9.393015,0.498976],[9.3931773,0.4990682],[9.3930465,0.4992515],[9.3929134,0.4991651]]]]},"properties":{"addr:city":"Libreville","addr:street":"Rte d'Avorbam","building":"yes","name":"Blé Doré","opening_hours":"06:00-20:30","payment:cash":"yes","phone":"077 22 22 16","shop":"bakery"}},
{"type":"Feature","geometry":{"type":"MultiPolygon","coordinates":[[[[10.2288307,-0.7019245],[10.2289394,-0.7020842],[10.2288915,-0.7021582],[10.2296287,-0.7024436],[10.2298835,-0.7016577],[10.229775,-0.7016158],[10.2295321,-0.7019903],[10.2291096,-0.7018307],[10.2289353,-0.7014499],[10.2289893,-0.7013289],[10.2288777,-0.7012876],[10.2288307,-0.7019245]]]]},"properties":{"amenity":"marketplace"}},
{"type":"Feature","geometry":{"type":"MultiPolygon","coordinates":[[[[9.3924151,0.4992438],[9.3924416,0.4992067],[9.392561,0.4992768],[9.3925284,0.4993195],[9.3924151,0.4992438]]]]},"properties":{"building":"yes","shop":"supermarket"}}
]}
