{"type":"FeatureCollection","features":[
{"type":"Feature","geometry":{"type":"Point","coordinates":[-16.7299847,13.4068274]},"properties":{"shop":"convenience"}},
{"type":"Feature","geometry":{"type":"Point","coordinates":[-16.7292539,13.4065274]},"properties":{"shop":"convenience"}},
{"type":"Feature","geometry":{"type":"Point","coordinates":[-16.7207083,13.4418713]},"properties":{"brand":"Safeway","brand:wikidata":"Q1508234","brand:wikipedia":"en:Safeway Inc.","name":"Safeway","shop":"supermarket"}},
{"type":"Feature","geometry":{"type":"Point","coordinates":[-16.65714,13.2893321]},"properties":{"amenity":"marketplace","name":"Brikama Craft Market"}},
{"type":"Feature","geometry":{"type":"Point","coordinates":[-16.7201709,13.4411064]},"properties":{"amenity":"marketplace","name":"Sennegambia Craft Market"}},
{"type":"Feature","geometry":{"type":"Point","coordinates":[-16.7213546,13.4420278]},"properties":{"name":"Right Choice","shop":"convenience"}},
{"type":"Feature","geometry":{"type":"Point","coordinates":[-14.7626259,13.5424956]},"properties":{"amenity":"marketplace","name":"Janjanbureh Market"}},
{"type":"Feature","geometry":{"type":"Point","coordinates":[-15.8776803,13.5884889]},"properties":{"name":"Bidtik (Gambian Owned)","operator":"Wolof Owned and Wolof (Operated)","shop":"supermarket"}},
{"type":"Feature","geometry":{"type":"Point","coordinates":[-15.8776526,13.5885773]},"properties":{"name":"Bidtik (Mauritanian Owned)","operator":"Mauritanian Owned and Operated","shop":"supermarket"}},
{"type":"Feature","geometry":{"type":"Point","coordinates":[-15.8666191,13.5717706]},"properties":{"name":"Bitik (Mandinka Owned and Operated)","shop":"supermarket"}},
{"type":"Feature","geometry":{"type":"Point","coordinates":[-16.7641467,13.1822655]},"properties":{"shop":"bakery"}},
{"type":"Feature","geometry":{"type":"Point","coordinates":[-16.6763263,13.4458027]},"properties":{"name":"A-Z Supermarket","shop":"supermarket"}},
{"type":"Feature","geometry":{"type":"Point","coordinates":[-13.8476373,13.3786414]},"properties":{"name":"Bakery","shop":"bakery"}},
{"type":"Feature","geometry":{"type":"Point","coordinates":[-16.7616206,13.1885163]},"properties":{"opening_hours":"5am to midnight","operator":"Lamin","shop":"supermarket"}},
{"type":"Feature","geometry":{"type":"Point","coordinates":[-14.1568784,13.3757869]},"properties":{"name":"Bitiko","shop":"convenience"}},
{"type":"Feature","geometry":{"type":"Point","coordinates":[-16.7218303,13.4422013]},"properties":{"shop":"supermarket"}},
{"type":"Feature","geometry":{"type":"Point","coordinates":[-16.7222167,13.4424757]},"properties":{"shop":"supermarket"}},
{"type":"Feature","geometry":{"type":"Point","coordinates":[-15.877866,13.5884323]},"properties":{"name":"Bidtik (Gambian Owned)","operator":"Wolof Owned (Mauritanian Operated)","shop":"supermarket"}},
{"type":"Feature","geometry":{"type":"Point","coordinates":[-16.7178782,13.4445923]},"properties":{"addr:housenumber":"7","addr:street":"Bertil Harding Highway","email":"thevillagepiazza@gmail.com","name":"The Village Shopping & Dining","name:en":"The Village Shopping & Dining","phone":"+220 770 6100","shop":"supermarket"}},
{"type":"Feature","geometry":{"type":"Point","coordinates":[-15.0112252,13.7194353]},"properties":{"name":"Bitiko","operator":"Mbemba Danso","shop":"convenience"}},
{"type":"Feature","geometry":{"type":"Point","coordinates":[-16.7165351,13.4483217]},"properties":{"name":"Right Choice","shop":"supermarket"}},
{"type":"Feature","geometry":{"type":"Point","coordinates":[-16.0875303,13.4947091]},"properties":{"name":"Bah's Bitiko","shop":"convenience"}},
{"type":"Feature","geometry":{"type":"Point","coordinates":[-16.0899265,13.4910233]},"properties":{"name":"Foday's Bitiko","shop":"convenience"}},
{"type":"Feature","geometry":{"type":"Point","coordinates":[-16.0871517,13.4953948]},"properties":{"name":"Fatty's Bitiko","shop":"convenience"}},
{"type":"Feature","geometry":{"type":"Point","coordinates":[-16.0871094,13.495698]},"properties":{"name":"Bitiko","shop":"convenience"}},
{"type":"Feature","geometry":{"type":"Point","coordinates":[-16.6821634,13.4408488]},"properties":{"amenity":"marketplace","name":"Serrekunda Market"}},
{"type":"Feature","geometry":{"type":"Point","coordinates":[-15.5956595,13.5657254]},"properties":{"name":"Bitik","shop":"supermarket"}},
{"type":"Feature","geometry":{"type":"Point","coordinates":[-15.5955485,13.5622299]},"properties":{"name":"Bitik","shop":"supermarket"}},
{"type":"Feature","geometry":{"type":"Point","coordinates":[-15.5955352,13.5627078]},"properties":{"name":"Bitik","shop":"supermarket"}},
{"type":"Feature","geometry":{"type":"Point","coordinates":[-15.5945175,13.5684012]},"properties":{"name":"Bitik","shop":"supermarket"}},
{"type":"Feature","geometry":{"type":"Point","coordinates":[-16.6801732,13.4519696]},"properties":{"name":"Chop Shop","shop":"convenience"}},
{"type":"Feature","geometry":{"type":"Point","coordinates":[-16.0838287,13.4970785]},"properties":{"name":"Market","shop":"supermarket"}},
{"type":"Feature","geometry":{"type":"Point","coordinates":[-16.6875238,13.463031]},"properties":{"addr:housenumber":"123","addr:street":"Kairaba Avenue","level":"1","name":"Harris Teeter","opening_hours":"24/7","payment:cash":"yes","shop":"supermarket"}},
{"type":"Feature","geometry":{"type":"Point","coordinates":[-16.6836412,13.4398815]},"properties":{"name":"Tie Dye","shop":"supermarket"}},
{"type":"Feature","geometry":{"type":"Point","coordinates":[-16.6810846,13.3799919]},"properties":{"name":"Yatma Njie shop","shop":"supermarket"}},
{"type":"Feature","geometry":{"type":"Point","coordinates":[-16.7272795,13.4062132]},"properties":{"name":"RedLand Mart Grocery and more","opening_hours":"Mo-Sa 09:00-21:00","shop":"supermarket"}},
{"type":"Feature","geometry":{"type":"Point","coordinates":[-16.6730488,13.386373]},"properties":{"name":"Sulayman Boutique","shop":"supermarket"}},
{"type":"Feature","geometry":{"type":"Point","coordinates":[-14.3095479,13.2397399]},"properties":{"shop":"supermarket"}},
{"type":"Feature","geometry":{"type":"Point","coordinates":[-14.3093736,13.2421754]},"properties":{"shop":"convenience"}},
{"type":"Feature","geometry":{"type":"Point","coordinates":[-14.3101167,13.2398111]},"properties":{"shop":"convenience"}},
{"type":"Feature","geometry":{"type":"Point","coordinates":[-14.3096371,13.2405229]},"properties":{"shop":"convenience"}},
{"type":"Feature","geometry":{"type":"Point","coordinates":[-14.3090525,13.2431032]},"properties":{"name":"Hamidou Bitiki","shop":"convenience"}},
{"type":"Feature","geometry":{"type":"Point","coordinates":[-14.3090161,13.2435958]},"properties":{"name":"Ousainou Rice","shop":"supermarket"}},
{"type":"Feature","geometry":{"type":"Point","coordinates":[-14.3089782,13.2447337]},"properties":{"name":"Isa Bitiki","shop":"convenience"}},
{"type":"Feature","geometry":{"type":"Point","coordinates":[-16.6684575,13.4078022]},"properties":{"name":"Pericles Bakery","shop":"bakery"}},
{"type":"Feature","geometry":{"type":"Point","coordinates":[-16.6816323,13.4391233]},"properties":{"name":"sere-kunda market","shop":"convenience"}},
{"type":"Feature","geometry":{"type":"Point","coordinates":[-16.7370441,13.4028269]},"properties":{"name":"Right choice","shop":"supermarket"}},
{"type":"Feature","geometry":{"type":"Point","coordinates":[-16.713747,13.4517357]},"properties":{"name":"marouns supermarket","shop":"supermarket"}},
{"type":"Feature","geometry":{"type":"Point","coordinates":[-16.7368517,13.4027438]},"properties":{"operator":"Atlanta","shop":"butcher"}},
{"type":"Feature","geometry":{"type":"Point","coordinates":[-16.6761163,13.4449609]},"properties":{"shop":"supermarket"}},
{"type":"Feature","geometry":{"type":"Point","coordinates":[-16.6424217,13.273162]},"properties":{"addr:street":"Brikama Newtown (Kaba Bajo junction)","internet_access":"wlan","name":"A&A Mini Market","opening_hours":"Mo-Su 08:00-00:00","phone":"002202336921","shop":"supermarket"}},
{"type":"Feature","geometry":{"type":"Point","coordinates":[-16.7058186,13.3933103]},"properties":{"name":"The Royal Bakery","shop":"bakery"}},
{"type":"Feature","geometry":{"type":"Point","coordinates":[-16.7168821,13.4480456]},"properties":{"name:zh":"中国超市1","shop":"convenience"}},
{"type":"Feature","geometry":{"type":"Point","coordinates":[-16.6723529,13.358489]},"properties":{"name":"IB MINI MARKET","shop":"supermarket"}},
{"type":"Feature","geometry":{"type":"Point","coordinates":[-16.7842724,13.3497179]},"properties":{"name":"Bakery","operator":"Future For Young People Association Gambia","shop":"bakery","website":"https://futureforyoungpeople.nl/boerderij.html"}},
{"type":"Feature","geometry":{"type":"Point","coordinates":[-16.774834,13.3446489]},"properties":{"brand":"Food Basics","brand:wikidata":"Q5465300","brand:wikipedia":"en:Food Basics","name":"Food Basics","operator":"Franco Inne","shop":"supermarket"}},
{"type":"Feature","geometry":{"type":"Point","coordinates":[-15.5338442,13.4369656]},"properties":{"addr:street":"Trans-Gambia Highway","amenity":"marketplace","name":"Soma New Market"}},
{"type":"Feature","geometry":{"type":"Point","coordinates":[-14.211359,13.3141266]},"properties":{"name":"Fruit Sellers","shop":"farm"}},
{"type":"Feature","geometry":{"type":"Point","coordinates":[-16.6801207,13.3686466]},"properties":{"amenity":"marketplace","name":"market of coastal road"}},
{"type":"Feature","geometry":{"type":"Point","coordinates":[-16.5913306,13.2806772]},"properties":{"addr:city":"Mandinaba","addr:street":"South Bank Road","amenity":"marketplace","name":"MANDINA BA MARKET"}},
{"type":"Feature","geometry":{"type":"Point","coordinates":[-16.5880121,13.2808346]},"properties":{"amenity":"marketplace","name":"MAMA MINI MARKET"}},
{"type":"Feature","geometry":{"type":"Point","coordinates":[-16.6513059,13.3988582]},"properties":{"addr:street":"Brikama Highway","name":"Abuko Abbattoir","shop":"butcher"}},
{"type":"Feature","geometry":{"type":"Point","coordinates":[-16.6740123,13.3938635]},"properties":{"name":"Chicken shop","shop":"convenience"}},
{"type":"Feature","geometry":{"type":"Point","coordinates":[-16.6744024,13.3937324]},"properties":{"name":"Chicken seller","shop":"convenience"}},
{"type":"Feature","geometry":{"type":"Point","coordinates":[-16.6752152,13.3945414]},"properties":{"name":"Chicken shop","shop":"convenience"}},
{"type":"Feature","geometry":{"type":"Point","coordinates":[-16.6753167,13.3959486]},"properties":{"name":"Chicken shop","shop":"convenience"}},
{"type":"Feature","geometry":{"type":"Point","coordinates":[-16.6735834,13.3960087]},"properties":{"name":"Chicken shop","shop":"convenience"}},
{"type":"Feature","geometry":{"type":"Point","coordinates":[-16.6721239,13.3975904]},"properties":{"name":"Chicken shop","shop":"convenience"}},
{"type":"Feature","geometry":{"type":"Point","coordinates":[-16.6694081,13.3983342]},"properties":{"name":"Wellingara Market","shop":"supermarket"}},
{"type":"Feature","geometry":{"type":"Point","coordinates":[-16.6696399,13.3981525]},"properties":{"name":"Chicken seller","shop":"convenience"}},
{"type":"Feature","geometry":{"type":"Point","coordinates":[-16.6697005,13.3982891]},"properties":{"name":"Chicken seller","shop":"convenience"}},
{"type":"Feature","geometry":{"type":"Point","coordinates":[-16.6695176,13.3979721]},"properties":{"name":"Chicken shop","shop":"convenience"}},
{"type":"Feature","geometry":{"type":"Point","coordinates":[-16.6653757,13.3985274]},"properties":{"name":"Chicken shop","shop":"convenience"}},
{"type":"Feature","geometry":{"type":"Point","coordinates":[-16.6618088,13.3992231]},"properties":{"name":"Chicken shop","shop":"convenience"}},
{"type":"Feature","geometry":{"type":"Point","coordinates":[-16.7293684,13.4066363]},"properties":{"addr:place":"Brusubi Turntable","name":"Heewal MiniMarket","opening_hours":"Mo-Su 09:00-21:00","payment:cash":"yes","payment:credit_cards":"yes","shop":"convenience"}},
{"type":"Feature","geometry":{"type":"Point","coordinates":[-14.8792991,13.69267]},"properties":{"amenity":"marketplace","opening_hours":"Mo"}},
{"type":"Feature","geometry":{"type":"Point","coordinates":[-14.8896776,13.6702009]},"properties":{"shop":"convenience"}},
{"type":"Feature","geometry":{"type":"LineString","coordinates":[[-16.080214,13.2299088],[-16.0796145,13.2299241],[-16.0795586,13.2299277],[-16.0791524,13.2299425],[-16.0791394,13.2294651],[-16.0800972,13.2292519],[-16.080214,13.2299088]]},"properties":{"amenity":"marketplace"}},
{"type":"Feature","geometry":{"type":"LineString","coordinates":[[-16.7597656,13.178714],[-16.7597005,13.1787254],[-16.7596708,13.1785645],[-16.7597358,13.1785531],[-16.7597656,13.178714]]},"properties":{"amenity":"marketplace"}},
{"type":"Feature","geometry":{"type":"LineString","coordinates":[[-16.7598509,13.1787014],[-16.7597771,13.1787132],[-16.7597496,13.1785513],[-16.7598712,13.1785317],[-16.7598987,13.1786937],[-16.7598509,13.1787014]]},"properties":{"amenity":"marketplace"}},
{"type":"Feature","geometry":{"type":"LineString","coordinates":[[-16.6479403,13.2714519],[-16.648061,13.2714293],[-16.6487222,13.2712493],[-16.6495647,13.2732718],[-16.6492598,13.2732829],[-16.6490416,13.2737651],[-16.6483436,13.2741986],[-16.6482674,13.2740921],[-16.6488067,13.2736956],[-16.648728,13.2735181],[-16.6487168,13.2733686],[-16.6480979,13.2734295],[-16.6477935,13.2735555],[-16.6472802,13.2738783],[-16.6470015,13.2735586],[-16.6473234,13.2733623],[-16.6470284,13.272611],[-16.6473529,13.2725039],[-16.6469855,13.2715949],[-16.64718,13.271577],[-16.647546,13.2715432],[-16.6477311,13.2714336],[-16.6479403,13.2714519]]},"properties":{"amenity":"marketplace","landuse":"retail","name":"Brikama Market"}},
{"type":"Feature","geometry":{"type":"LineString","coordinates":[[-16.5717709,13.4550963],[-16.5713221,13.4545827],[-16.5712443,13.4545905],[-16.5708449,13.4547546],[-16.5707396,13.4543503],[-16.5706062,13.4533128],[-16.5706015,13.4532729],[-16.5706381,13.4532445],[-16.5707007,13.4532286],[-16.5707407,13.4532339],[-16.5709366,13.4532432],[-16.5712425,13.4532677],[-16.5712881,13.4532468],[-16.5714535,13.4531688],[-16.5715098,13.4531714],[-16.5716556,13.4531868],[-16.5718075,13.4531323],[-16.5719792,13.4534271],[-16.5729699,13.4546059],[-16.5729373,13.454626],[-16.5728324,13.4547186],[-16.5726587,13.454872],[-16.5726042,13.4548853],[-16.5725354,13.454885],[-16.5724486,13.4548957],[-16.5723233,13.4549628],[-16.5723261,13.4549242],[-16.5722457,13.4549398],[-16.5721589,13.4549505],[-16.5719909,13.4549685],[-16.5719238,13.454992],[-16.5718451,13.4550314],[-16.5717709,13.4550963]]},"properties":{"amenity":"marketplace","landuse":"retail","name":"Albert Market","name:fr":"Marché Albert","tourism":"attraction","wikidata":"Q325000"}},
{"type":"Feature","geometry":{"type":"LineString","coordinates":[[-16.5878669,13.4551016],[-16.5877984,13.4552157],[-16.5875531,13.4550416],[-16.5858183,13.4540935],[-16.5856268,13.4539862],[-16.5853038,13.4536445],[-16.5852538,13.4533298],[-16.5851907,13.4529323],[-16.5855763,13.4531138],[-16.585925,13.453327699999999],[-16.5862603,13.4535521],[-16.5862388,13.4536903],[-16.5866385,13.4541259],[-16.5876175,13.4548042],[-16.5878159,13.4549111],[-16.5878669,13.4551016]]},"properties":{"amenity":"marketplace","landuse":"retail","name":"Lasso Wharf Market"}},
{"type":"Feature","geometry":{"type":"LineString","coordinates":[[-16.5782995,13.4499236],[-16.5781546,13.4498819],[-16.578119,13.4497736],[-16.5782663,13.44961],[-16.5783462,13.4496252],[-16.5785975,13.4498283],[-16.5789727,13.4500727],[-16.579231,13.4503653],[-16.5793777,13.4503045],[-16.5797586,13.4505027],[-16.5796371,13.4507127],[-16.5795606,13.4508133],[-16.5782974,13.4500816],[-16.5782995,13.4499236]]},"properties":{"amenity":"marketplace","landuse":"retail"}},
{"type":"Feature","geometry":{"type":"LineString","coordinates":[[-16.691266,13.4347877],[-16.6909576,13.4345033],[-16.6913149,13.4342052],[-16.6916205,13.4345598],[-16.691266,13.4347877]]},"properties":{"amenity":"marketplace"}},
{"type":"Feature","geometry":{"type":"LineString","coordinates":[[-16.7112054,13.4323145],[-16.7111305,13.4331822],[-16.7107308,13.4331457],[-16.710779,13.4322467],[-16.7112054,13.4323145]]},"properties":{"amenity":"marketplace"}},
{"type":"Feature","geometry":{"type":"LineString","coordinates":[[-16.7297906,13.4020551],[-16.7298442,13.4022273],[-16.7295384,13.4023839],[-16.7293507,13.4022273],[-16.7291224,13.4019101],[-16.7292702,13.4018307],[-16.7295009,13.4022012],[-16.7297906,13.4020551]]},"properties":{"amenity":"marketplace","landuse":"retail"}},
{"type":"Feature","geometry":{"type":"LineString","coordinates":[[-16.7268562,13.4105087],[-16.7260784,13.4107175],[-16.7254883,13.4093034],[-16.7263332,13.408792],[-16.7266336,13.4093347],[-16.7268562,13.4105087]]},"properties":{"amenity":"marketplace","landuse":"retail"}},
{"type":"Feature","geometry":{"type":"LineString","coordinates":[[-16.7281062,13.4080248],[-16.7279441,13.4077836],[-16.7290287,13.4072088],[-16.7291339,13.4072919],[-16.729321,13.4073992],[-16.7297509,13.4079591],[-16.7296511,13.4080666],[-16.7291868,13.4075615],[-16.7284948,13.4078119],[-16.7283315,13.4079413],[-16.7281062,13.4080248]]},"properties":{"amenity":"marketplace","landuse":"retail"}},
{"type":"Feature","geometry":{"type":"LineString","coordinates":[[-16.7307293,13.4057706],[-16.7308313,13.4059271],[-16.7299213,13.4063952],[-16.7287874,13.4055149],[-16.7288464,13.4054627],[-16.7298921,13.406231],[-16.7307293,13.4057706]]},"properties":{"amenity":"marketplace","landuse":"retail"}},
{"type":"Feature","geometry":{"type":"LineString","coordinates":[[-16.65873,13.4026751],[-16.6572422,13.4040381],[-16.6565311,13.4040287],[-16.6563839,13.40265],[-16.6559786,13.4025676],[-16.6559547,13.402196],[-16.6560259,13.4022069],[-16.6561784,13.4022357],[-16.6562259,13.4022439],[-16.6564338,13.4022797],[-16.6574943,13.4024622],[-16.65873,13.4026751]]},"properties":{"amenity":"marketplace","landuse":"retail"}},
{"type":"Feature","geometry":{"type":"LineString","coordinates":[[-16.6472577,13.2733376],[-16.6471351,13.2733653],[-16.6470954,13.2731986],[-16.647218,13.2731709],[-16.6472577,13.2733376]]},"properties":{"amenity":"marketplace"}},
{"type":"Feature","geometry":{"type":"LineString","coordinates":[[-16.6695937,13.3435689],[-16.6690545,13.3434358],[-16.6691216,13.3432192],[-16.6690036,13.3430704],[-16.669017,13.3429974],[-16.6696634,13.3431644],[-16.6695937,13.3435689]]},"properties":{"amenity":"marketplace","landuse":"retail"}},
{"type":"Feature","geometry":{"type":"LineString","coordinates":[[-16.6685449,13.3314983],[-16.6680282,13.3315531],[-16.6680031,13.3311564],[-16.6684269,13.3310885],[-16.6685449,13.3314983]]},"properties":{"amenity":"marketplace","landuse":"retail"}},
{"type":"Feature","geometry":{"type":"LineString","coordinates":[[-16.6635742,13.315353],[-16.6631268,13.3155485],[-16.6628649,13.3151857],[-16.6630473,13.31511],[-16.662932,13.3148829],[-16.6632261,13.3147889],[-16.6635742,13.315353]]},"properties":{"amenity":"marketplace","landuse":"retail","name":"Farato Market"}},
{"type":"Feature","geometry":{"type":"LineString","coordinates":[[-16.649346,13.271416],[-16.6490937,13.2715344],[-16.6490543,13.2714548],[-16.649076,13.2714446],[-16.6491561,13.2714061],[-16.6493065,13.2713364],[-16.649346,13.271416]]},"properties":{"building":"yes","name":"EE minimarket","shop":"supermarket"}},
{"type":"Feature","geometry":{"type":"LineString","coordinates":[[-14.082481,13.4037403],[-14.0824747,13.4035906],[-14.0821969,13.4036017],[-14.0822032,13.4037514],[-14.082481,13.4037403]]},"properties":{"amenity":"marketplace","building":"yes"}},
{"type":"Feature","geometry":{"type":"LineString","coordinates":[[-14.0817934,13.4048628],[-14.081781,13.4047732],[-14.0816892,13.4047852],[-14.0817016,13.4048749],[-14.0817934,13.4048628]]},"properties":{"building":"yes","shop":"bakery"}},
{"type":"Feature","geometry":{"type":"LineString","coordinates":[[-15.5772706,13.4393818],[-15.5771365,13.4393922],[-15.5771352,13.4393505],[-15.5772666,13.4393074],[-15.5772706,13.4393818]]},"properties":{"amenity":"marketplace","building":"yes","name":"Daily market"}},
{"type":"Feature","geometry":{"type":"LineString","coordinates":[[-15.799909,13.3930939],[-15.799732,13.3927704],[-15.7991956,13.3930574],[-15.799335,13.3933548],[-15.799909,13.3930939]]},"properties":{"amenity":"marketplace","building":"yes","name":"Kwinella Lumo"}},
{"type":"Feature","geometry":{"type":"LineString","coordinates":[[-15.6011923,13.5846531],[-15.6007149,13.5845488],[-15.600613,13.5845175],[-15.6000958,13.5843387],[-15.5999993,13.5843595],[-15.5998598,13.5843387],[-15.5996774,13.5842761],[-15.5995755,13.5842187],[-15.5993824,13.5842865],[-15.5992483,13.5841509],[-15.5991678,13.5840258],[-15.5991302,13.5839215],[-15.5991088,13.5837286],[-15.5991141,13.5836243],[-15.5993985,13.5833531],[-15.5993985,13.5833062],[-15.5993877,13.5832697],[-15.5999671,13.5826961],[-15.6001119,13.5828265],[-15.5999671,13.5829621],[-15.6002299,13.5832071],[-15.6006967,13.5827587],[-15.6007127,13.5830507],[-15.6010936,13.5835252],[-15.6009971,13.5836139],[-15.6012116,13.5841666],[-15.6012299,13.5842881],[-15.6012438,13.5843804],[-15.6012706,13.5844847],[-15.6013082,13.5846046],[-15.6011923,13.5846531]]},"properties":{"amenity":"marketplace"}},
{"type":"Feature","geometry":{"type":"LineString","coordinates":[[-16.6944769,13.4708126],[-16.6945359,13.4707004],[-16.6942838,13.4705674],[-16.6942167,13.4706796],[-16.6944769,13.4708126]]},"properties":{"building":"yes","name":"Discount","shop":"supermarket"}},
{"type":"Feature","geometry":{"type":"LineString","coordinates":[[-15.330222,13.6998605],[-15.3289093,13.6999491],[-15.3287813,13.6981597],[-15.3294464,13.6980564],[-15.329779,13.6980251],[-15.3300941,13.6980711],[-15.330222,13.6998605]]},"properties":{"amenity":"marketplace","name":"Kaur Lumo","opening_hours":"Th"}},
{"type":"Feature","geometry":{"type":"LineString","coordinates":[[-16.6817518,13.4542597],[-16.6816046,13.4540581],[-16.6812914,13.4542689],[-16.6814495,13.4544686],[-16.6817518,13.4542597]]},"properties":{"building":"yes","name":"Kairaba Shopping Center","shop":"supermarket"}},
{"type":"Feature","geometry":{"type":"LineString","coordinates":[[-15.5969902,13.5711278],[-15.5969467,13.5704048],[-15.5966787,13.5704187],[-15.5958765,13.5704619],[-15.5959605,13.5711537],[-15.5969902,13.5711278]]},"properties":{"amenity":"marketplace","name":"Farafenni Market"}},
{"type":"Feature","geometry":{"type":"LineString","coordinates":[[-16.6879412,13.4633645],[-16.6881765,13.4636819],[-16.6881753,13.463716],[-16.6881484,13.4637512],[-16.6876663,13.4640838],[-16.6876511,13.4640657],[-16.6876277,13.464077],[-16.6875285,13.4639397],[-16.6878344,13.4637432],[-16.687825,13.4637285],[-16.6879161,13.4636694],[-16.6877725,13.4634707],[-16.6879412,13.4633645]]},"properties":{"building":"yes","name":"Kanilai Bakery","shop":"bakery"}},
{"type":"Feature","geometry":{"type":"LineString","coordinates":[[-16.6876504,13.4634607],[-16.6878787,13.4633113],[-16.6876885,13.46302],[-16.6875757,13.4630959],[-16.6874572,13.463187],[-16.6876504,13.4634607]]},"properties":{"brand":"Safeway","brand:wikidata":"Q1508234","brand:wikipedia":"en:Safeway Inc.","building":"yes","name":"Safeway","shop":"supermarket"}},
{"type":"Feature","geometry":{"type":"LineString","coordinates":[[-16.6875918,13.4628948],[-16.6873879,13.4630229],[-16.6872761,13.4628471],[-16.6874723,13.4627232],[-16.6875918,13.4628948]]},"properties":{"building":"yes","name":"Harry's Supermarket","shop":"supermarket"}},
{"type":"Feature","geometry":{"type":"LineString","coordinates":[[-16.6885536,13.4633662],[-16.6888138,13.4632031],[-16.6886582,13.4629919],[-16.6884128,13.4631718],[-16.6884211,13.4631833],[-16.6885536,13.4633662]]},"properties":{"building":"yes","name":"Right Choice","opening_hours":"Mo-Sa 09:00-22:00; Su 15:00-21:00","shop":"supermarket"}},
{"type":"Feature","geometry":{"type":"LineString","coordinates":[[-15.5967231,13.5715825],[-15.5968734,13.5715783],[-15.596872,13.5715321],[-15.5968396,13.571533],[-15.5968328,13.5713036],[-15.5968626,13.5713027],[-15.5968608,13.5712426],[-15.5966465,13.5712486],[-15.596655,13.5715372],[-15.5967217,13.5715353],[-15.5967231,13.5715825]]},"properties":{"building":"yes","name":"Muslim's supermarket","shop":"supermarket"}},
{"type":"Feature","geometry":{"type":"LineString","coordinates":[[-16.3430004,13.2026289],[-16.3430167,13.2026822],[-16.342909,13.2027136],[-16.3428927,13.2026602],[-16.3430004,13.2026289]]},"properties":{"amenity":"marketplace","building":"yes"}},
{"type":"Feature","geometry":{"type":"LineString","coordinates":[[-13.8477816,13.3788088],[-13.847792,13.3787563],[-13.8477397,13.3787465],[-13.8477293,13.378799],[-13.8477816,13.3788088]]},"properties":{"building":"yes","shop":"bakery"}},
{"type":"Feature","geometry":{"type":"LineString","coordinates":[[-13.8477017,13.3786879],[-13.8476615,13.3786593],[-13.8476836,13.3786299],[-13.8477238,13.3786585],[-13.8477017,13.3786879]]},"properties":{"building":"yes","shop":"bakery"}},
{"type":"Feature","geometry":{"type":"LineString","coordinates":[[-14.0957419,13.3410965],[-14.095666,13.3411368],[-14.0956126,13.3410273],[-14.0956813,13.3409893],[-14.0957419,13.3410965]]},"properties":{"building":"yes","shop":"convenience"}},
{"type":"Feature","geometry":{"type":"LineString","coordinates":[[-14.6544306,13.4349719],[-14.6548912,13.4345733],[-14.6543694,13.4340029],[-14.6539088,13.4344016],[-14.6544306,13.4349719]]},"properties":{"amenity":"marketplace","building":"yes"}},
{"type":"Feature","geometry":{"type":"LineString","coordinates":[[-16.6799837,13.4358534],[-16.6799193,13.4357803],[-16.6800534,13.4356994],[-16.6801017,13.4357725],[-16.6799837,13.4358534]]},"properties":{"building":"yes","building:levels":"0","name":"Mini Market","shop":"convenience"}},
{"type":"Feature","geometry":{"type":"LineString","coordinates":[[-16.7615573,13.0935348],[-16.7614638,13.0935566],[-16.7614263,13.0933985],[-16.7615266,13.0933706],[-16.7615359,13.0934055],[-16.7615236,13.0934089],[-16.7615573,13.0935348]]},"properties":{"amenity":"marketplace","building:levels":"1","height":"5"}},
{"type":"Feature","geometry":{"type":"LineString","coordinates":[[-16.7648779,13.1444737],[-16.7647984,13.1444795],[-16.7647927,13.1444049],[-16.7648721,13.1443991],[-16.7648779,13.1444737]]},"properties":{"amenity":"marketplace","building":"hut"}},
{"type":"Feature","geometry":{"type":"LineString","coordinates":[[-14.0947077,13.3378662],[-14.0946887,13.3378212],[-14.0946238,13.3378471],[-14.0946427,13.3378921],[-14.0947077,13.3378662]]},"properties":{"building":"yes","name":"Lamin Manneh's Bitik","shop":"convenience"}},
{"type":"Feature","geometry":{"type":"LineString","coordinates":[[-14.095508,13.3400611],[-14.0954955,13.3400201],[-14.0954692,13.3400274],[-14.0954812,13.3400685],[-14.095508,13.3400611]]},"properties":{"building":"yes","shop":"convenience"}},
{"type":"Feature","geometry":{"type":"LineString","coordinates":[[-14.0961819,13.3413747],[-14.0961597,13.3413142],[-14.0961033,13.3413338],[-14.0961254,13.3413943],[-14.0961819,13.3413747]]},"properties":{"building":"yes","shop":"convenience"}},
{"type":"Feature","geometry":{"type":"LineString","coordinates":[[-14.0961586,13.3416753],[-14.096162,13.3415682],[-14.0960588,13.3415651],[-14.0960517,13.3416414],[-14.0960554,13.3416721],[-14.0961586,13.3416753]]},"properties":{"building":"yes","shop":"convenience"}},
{"type":"Feature","geometry":{"type":"LineString","coordinates":[[-14.0957868,13.3416761],[-14.0958291,13.341671],[-14.0958232,13.3416245],[-14.0957809,13.3416296],[-14.0957868,13.3416761]]},"properties":{"building":"yes","shop":"convenience"}},
{"type":"Feature","geometry":{"type":"LineString","coordinates":[[-16.6749807,13.4272201],[-16.6743627,13.4272841],[-16.6743046,13.4268174],[-16.6747525,13.4267991],[-16.6749574,13.4269544],[-16.6749807,13.4272201]]},"properties":{"amenity":"marketplace","name":"Tallinding Market"}},
{"type":"Feature","geometry":{"type":"LineString","coordinates":[[-16.7158782,13.4498159],[-16.7160599,13.44953],[-16.7155548,13.4491865],[-16.7153919,13.4494201],[-16.7158782,13.4498159]]},"properties":{"building":"yes","shop":"supermarket"}},
{"type":"Feature","geometry":{"type":"LineString","coordinates":[[-15.2449599,13.5215053],[-15.2450623,13.521508],[-15.2450675,13.5213252],[-15.244965,13.5213225],[-15.2449599,13.5215053]]},"properties":{"addr:place":"Pakali Ba","amenity":"marketplace","building":"residential","name":"Market"}},
{"type":"Feature","geometry":{"type":"LineString","coordinates":[[-15.2453132,13.5218933],[-15.2453695,13.521792],[-15.2452898,13.5217501],[-15.2452334,13.5218513],[-15.2453132,13.5218933]]},"properties":{"building":"residential","name":"Village Bakery","shop":"bakery"}},
{"type":"Feature","geometry":{"type":"LineString","coordinates":[[-14.2113991,13.3141564],[-14.2113028,13.3141834],[-14.2112755,13.3140912],[-14.2113719,13.3140642],[-14.2113991,13.3141564]]},"properties":{"building":"yes","name":"Fruit sellers","name:fr":"Vendeurs de fruits","shop":"farm"}},
{"type":"Feature","geometry":{"type":"LineString","coordinates":[[-16.6801435,13.3686662],[-16.6800724,13.3686779],[-16.6800698,13.3685944],[-16.6801516,13.3685892],[-16.6801435,13.3686662]]},"properties":{"amenity":"marketplace"}},
{"type":"Feature","geometry":{"type":"LineString","coordinates":[[-15.2437085,13.5205121],[-15.2436468,13.5205173],[-15.2436361,13.5204521],[-15.2437005,13.5204313],[-15.2437085,13.5205121]]},"properties":{"building":"yes","name":"Ceesay Kunda","shop":"bakery"}},
{"type":"Feature","geometry":{"type":"LineString","coordinates":[[-16.6270897,13.2689161],[-16.6267893,13.2689657],[-16.6267249,13.2686054],[-16.6270227,13.2685767],[-16.6270897,13.2689161]]},"properties":{"amenity":"marketplace","name":"Jiddah Mini Market"}},
{"type":"Feature","geometry":{"type":"MultiPolygon","coordinates":[[[[-16.080214,13.2299088],[-16.0800972,13.2292519],[-16.0791394,13.2294651],[-16.0791524,13.2299425],[-16.0795586,13.2299277],[-16.0796145,13.2299241],[-16.080214,13.2299088]]]]},"properties":{"amenity":"marketplace"}},
{"type":"Feature","geometry":{"type":"MultiPolygon","coordinates":[[[[-16.7597656,13.178714],[-16.7597358,13.1785531],[-16.7596708,13.1785645],[-16.7597005,13.1787254],[-16.7597656,13.178714]]]]},"properties":{"amenity":"marketplace"}},
{"type":"Feature","geometry":{"type":"MultiPolygon","coordinates":[[[[-16.7598987,13.1786937],[-16.7598712,13.1785317],[-16.7597496,13.1785513],[-16.7597771,13.1787132],[-16.7598509,13.1787014],[-16.7598987,13.1786937]]]]},"properties":{"amenity":"marketplace"}},
{"type":"Feature","geometry":{"type":"MultiPolygon","coordinates":[[[[-16.6495647,13.2732718],[-16.6487222,13.2712493],[-16.648061,13.2714293],[-16.6479403,13.2714519],[-16.6477311,13.2714336],[-16.647546,13.2715432],[-16.64718,13.271577],[-16.6469855,13.2715949],[-16.6473529,13.2725039],[-16.6470284,13.272611],[-16.6473234,13.2733623],[-16.6470015,13.2735586],[-16.6472802,13.2738783],[-16.6477935,13.2735555],[-16.6480979,13.2734295],[-16.6487168,13.2733686],[-16.648728,13.2735181],[-16.6488067,13.2736956],[-16.6482674,13.2740921],[-16.6483436,13.2741986],[-16.6490416,13.2737651],[-16.6492598,13.2732829],[-16.6495647,13.2732718]]]]},"properties":{"amenity":"marketplace","landuse":"retail","name":"Brikama Market"}},
{"type":"Feature","geometry":{"type":"MultiPolygon","coordinates":[[[[-16.5729699,13.4546059],[-16.5719792,13.4534271],[-16.5718075,13.4531323],[-16.5716556,13.4531868],[-16.5715098,13.4531714],[-16.5714535,13.4531688],[-16.5712881,13.4532468],[-16.5712425,13.4532677],[-16.5709366,13.4532432],[-16.5707407,13.4532339],[-16.5707007,13.4532286],[-16.5706381,13.4532445],[-16.5706015,13.4532729],[-16.5706062,13.4533128],[-16.5707396,13.4543503],[-16.5708449,13.4547546],[-16.5712443,13.4545905],[-16.5713221,13.4545827],[-16.5717709,13.4550963],[-16.5718451,13.4550314],[-16.5719238,13.454992],[-16.5719909,13.4549685],[-16.5721589,13.4549505],[-16.5722457,13.4549398],[-16.5723261,13.4549242],[-16.5723233,13.4549628],[-16.5724486,13.4548957],[-16.5725354,13.454885],[-16.5726042,13.4548853],[-16.5726587,13.454872],[-16.5728324,13.4547186],[-16.5729373,13.454626],[-16.5729699,13.4546059]]]]},"properties":{"amenity":"marketplace","landuse":"retail","name":"Albert Market","name:fr":"Marché Albert","tourism":"attraction","wikidata":"Q325000"}},
{"type":"Feature","geometry":{"type":"MultiPolygon","coordinates":[[[[-16.5878669,13.4551016],[-16.5878159,13.4549111],[-16.5876175,13.4548042],[-16.5866385,13.4541259],[-16.5862388,13.4536903],[-16.5862603,13.4535521],[-16.585925,13.453327699999999],[-16.5855763,13.4531138],[-16.5851907,13.4529323],[-16.5852538,13.4533298],[-16.5853038,13.4536445],[-16.5856268,13.4539862],[-16.5858183,13.4540935],[-16.5875531,13.4550416],[-16.5877984,13.4552157],[-16.5878669,13.4551016]]]]},"properties":{"amenity":"marketplace","landuse":"retail","name":"Lasso Wharf Market"}},
{"type":"Feature","geometry":{"type":"MultiPolygon","coordinates":[[[[-16.5797586,13.4505027],[-16.5793777,13.4503045],[-16.579231,13.4503653],[-16.5789727,13.4500727],[-16.5785975,13.4498283],[-16.5783462,13.4496252],[-16.5782663,13.44961],[-16.578119,13.4497736],[-16.5781546,13.4498819],[-16.5782995,13.4499236],[-16.5782974,13.4500816],[-16.5795606,13.4508133],[-16.5796371,13.4507127],[-16.5797586,13.4505027]]]]},"properties":{"amenity":"marketplace","landuse":"retail"}},
{"type":"Feature","geometry":{"type":"MultiPolygon","coordinates":[[[[-16.6916205,13.4345598],[-16.6913149,13.4342052],[-16.6909576,13.4345033],[-16.691266,13.4347877],[-16.6916205,13.4345598]]]]},"properties":{"amenity":"marketplace"}},
{"type":"Feature","geometry":{"type":"MultiPolygon","coordinates":[[[[-16.7112054,13.4323145],[-16.710779,13.4322467],[-16.7107308,13.4331457],[-16.7111305,13.4331822],[-16.7112054,13.4323145]]]]},"properties":{"amenity":"marketplace"}},
{"type":"Feature","geometry":{"type":"MultiPolygon","coordinates":[[[[-16.7298442,13.4022273],[-16.7297906,13.4020551],[-16.7295009,13.4022012],[-16.7292702,13.4018307],[-16.7291224,13.4019101],[-16.7293507,13.4022273],[-16.7295384,13.4023839],[-16.7298442,13.4022273]]]]},"properties":{"amenity":"marketplace","landuse":"retail"}},
{"type":"Feature","geometry":{"type":"MultiPolygon","coordinates":[[[[-16.7268562,13.4105087],[-16.7266336,13.4093347],[-16.7263332,13.408792],[-16.7254883,13.4093034],[-16.7260784,13.4107175],[-16.7268562,13.4105087]]]]},"properties":{"amenity":"marketplace","landuse":"retail"}},
{"type":"Feature","geometry":{"type":"MultiPolygon","coordinates":[[[[-16.7297509,13.4079591],[-16.729321,13.4073992],[-16.7291339,13.4072919],[-16.7290287,13.4072088],[-16.7279441,13.4077836],[-16.7281062,13.4080248],[-16.7283315,13.4079413],[-16.7284948,13.4078119],[-16.7291868,13.4075615],[-16.7296511,13.4080666],[-16.7297509,13.4079591]]]]},"properties":{"amenity":"marketplace","landuse":"retail"}},
{"type":"Feature","geometry":{"type":"MultiPolygon","coordinates":[[[[-16.7308313,13.4059271],[-16.7307293,13.4057706],[-16.7298921,13.406231],[-16.7288464,13.4054627],[-16.7287874,13.4055149],[-16.7299213,13.4063952],[-16.7308313,13.4059271]]]]},"properties":{"amenity":"marketplace","landuse":"retail"}},
{"type":"Feature","geometry":{"type":"MultiPolygon","coordinates":[[[[-16.65873,13.4026751],[-16.6574943,13.4024622],[-16.6564338,13.4022797],[-16.6562259,13.4022439],[-16.6561784,13.4022357],[-16.6560259,13.4022069],[-16.6559547,13.402196],[-16.6559786,13.4025676],[-16.6563839,13.40265],[-16.6565311,13.4040287],[-16.6572422,13.4040381],[-16.65873,13.4026751]]]]},"properties":{"amenity":"marketplace","landuse":"retail"}},
{"type":"Feature","geometry":{"type":"MultiPolygon","coordinates":[[[[-16.6472577,13.2733376],[-16.647218,13.2731709],[-16.6470954,13.2731986],[-16.6471351,13.2733653],[-16.6472577,13.2733376]]]]},"properties":{"amenity":"marketplace"}},
{"type":"Feature","geometry":{"type":"MultiPolygon","coordinates":[[[[-16.6696634,13.3431644],[-16.669017,13.3429974],[-16.6690036,13.3430704],[-16.6691216,13.3432192],[-16.6690545,13.3434358],[-16.6695937,13.3435689],[-16.6696634,13.3431644]]]]},"properties":{"amenity":"marketplace","landuse":"retail"}},
{"type":"Feature","geometry":{"type":"MultiPolygon","coordinates":[[[[-16.6685449,13.3314983],[-16.6684269,13.3310885],[-16.6680031,13.3311564],[-16.6680282,13.3315531],[-16.6685449,13.3314983]]]]},"properties":{"amenity":"marketplace","landuse":"retail"}},
{"type":"Feature","geometry":{"type":"MultiPolygon","coordinates":[[[[-16.6635742,13.315353],[-16.6632261,13.3147889],[-16.662932,13.3148829],[-16.6630473,13.31511],[-16.6628649,13.3151857],[-16.6631268,13.3155485],[-16.6635742,13.315353]]]]},"properties":{"amenity":"marketplace","landuse":"retail","name":"Farato Market"}},
{"type":"Feature","geometry":{"type":"MultiPolygon","coordinates":[[[[-16.649346,13.271416],[-16.6493065,13.2713364],[-16.6491561,13.2714061],[-16.649076,13.2714446],[-16.6490543,13.2714548],[-16.6490937,13.2715344],[-16.649346,13.271416]]]]},"properties":{"building":"yes","name":"EE minimarket","shop":"supermarket"}},
{"type":"Feature","geometry":{"type":"MultiPolygon","coordinates":[[[[-14.082481,13.4037403],[-14.0824747,13.4035906],[-14.0821969,13.4036017],[-14.0822032,13.4037514],[-14.082481,13.4037403]]]]},"properties":{"amenity":"marketplace","building":"yes"}},
{"type":"Feature","geometry":{"type":"MultiPolygon","coordinates":[[[[-14.0817934,13.4048628],[-14.081781,13.4047732],[-14.0816892,13.4047852],[-14.0817016,13.4048749],[-14.0817934,13.4048628]]]]},"properties":{"building":"yes","shop":"bakery"}},
{"type":"Feature","geometry":{"type":"MultiPolygon","coordinates":[[[[-15.5772706,13.4393818],[-15.5772666,13.4393074],[-15.5771352,13.4393505],[-15.5771365,13.4393922],[-15.5772706,13.4393818]]]]},"properties":{"amenity":"marketplace","building":"yes","name":"Daily market"}},
{"type":"Feature","geometry":{"type":"MultiPolygon","coordinates":[[[[-15.799909,13.3930939],[-15.799732,13.3927704],[-15.7991956,13.3930574],[-15.799335,13.3933548],[-15.799909,13.3930939]]]]},"properties":{"amenity":"marketplace","building":"yes","name":"Kwinella Lumo"}},
{"type":"Feature","geometry":{"type":"MultiPolygon","coordinates":[[[[-15.6013082,13.5846046],[-15.6012706,13.5844847],[-15.6012438,13.5843804],[-15.6012299,13.5842881],[-15.6012116,13.5841666],[-15.6009971,13.5836139],[-15.6010936,13.5835252],[-15.6007127,13.5830507],[-15.6006967,13.5827587],[-15.6002299,13.5832071],[-15.5999671,13.5829621],[-15.6001119,13.5828265],[-15.5999671,13.5826961],[-15.5993877,13.5832697],[-15.5993985,13.5833062],[-15.5993985,13.5833531],[-15.5991141,13.5836243],[-15.5991088,13.5837286],[-15.5991302,13.5839215],[-15.5991678,13.5840258],[-15.5992483,13.5841509],[-15.5993824,13.5842865],[-15.5995755,13.5842187],[-15.5996774,13.5842761],[-15.5998598,13.5843387],[-15.5999993,13.5843595],[-15.6000958,13.5843387],[-15.600613,13.5845175],[-15.6007149,13.5845488],[-15.6011923,13.5846531],[-15.6013082,13.5846046]]]]},"properties":{"amenity":"marketplace"}},
{"type":"Feature","geometry":{"type":"MultiPolygon","coordinates":[[[[-16.6945359,13.4707004],[-16.6942838,13.4705674],[-16.6942167,13.4706796],[-16.6944769,13.4708126],[-16.6945359,13.4707004]]]]},"properties":{"building":"yes","name":"Discount","shop":"supermarket"}},
{"type":"Feature","geometry":{"type":"MultiPolygon","coordinates":[[[[-15.330222,13.6998605],[-15.3300941,13.6980711],[-15.329779,13.6980251],[-15.3294464,13.6980564],[-15.3287813,13.6981597],[-15.3289093,13.6999491],[-15.330222,13.6998605]]]]},"properties":{"amenity":"marketplace","name":"Kaur Lumo","opening_hours":"Th"}},
{"type":"Feature","geometry":{"type":"MultiPolygon","coordinates":[[[[-16.6817518,13.4542597],[-16.6816046,13.4540581],[-16.6812914,13.4542689],[-16.6814495,13.4544686],[-16.6817518,13.4542597]]]]},"properties":{"building":"yes","name":"Kairaba Shopping Center","shop":"supermarket"}},
{"type":"Feature","geometry":{"type":"MultiPolygon","coordinates":[[[[-15.5969902,13.5711278],[-15.5969467,13.5704048],[-15.5966787,13.5704187],[-15.5958765,13.5704619],[-15.5959605,13.5711537],[-15.5969902,13.5711278]]]]},"properties":{"amenity":"marketplace","name":"Farafenni Market"}},
{"type":"Feature","geometry":{"type":"MultiPolygon","coordinates":[[[[-16.6881765,13.4636819],[-16.6879412,13.4633645],[-16.6877725,13.4634707],[-16.6879161,13.4636694],[-16.687825,13.4637285],[-16.6878344,13.4637432],[-16.6875285,13.4639397],[-16.6876277,13.464077],[-16.6876511,13.4640657],[-16.6876663,13.4640838],[-16.6881484,13.4637512],[-16.6881753,13.463716],[-16.6881765,13.4636819]]]]},"properties":{"building":"yes","name":"Kanilai Bakery","shop":"bakery"}},
{"type":"Feature","geometry":{"type":"MultiPolygon","coordinates":[[[[-16.6878787,13.4633113],[-16.6876885,13.46302],[-16.6875757,13.4630959],[-16.6874572,13.463187],[-16.6876504,13.4634607],[-16.6878787,13.4633113]]]]},"properties":{"brand":"Safeway","brand:wikidata":"Q1508234","brand:wikipedia":"en:Safeway Inc.","building":"yes","name":"Safeway","shop":"supermarket"}},
{"type":"Feature","geometry":{"type":"MultiPolygon","coordinates":[[[[-16.6875918,13.4628948],[-16.6874723,13.4627232],[-16.6872761,13.4628471],[-16.6873879,13.4630229],[-16.6875918,13.4628948]]]]},"properties":{"building":"yes","name":"Harry's Supermarket","shop":"supermarket"}},
{"type":"Feature","geometry":{"type":"MultiPolygon","coordinates":[[[[-16.6888138,13.4632031],[-16.6886582,13.4629919],[-16.6884128,13.4631718],[-16.6884211,13.4631833],[-16.6885536,13.4633662],[-16.6888138,13.4632031]]]]},"properties":{"building":"yes","name":"Right Choice","opening_hours":"Mo-Sa 09:00-22:00; Su 15:00-21:00","shop":"supermarket"}},
{"type":"Feature","geometry":{"type":"MultiPolygon","coordinates":[[[[-15.5968734,13.5715783],[-15.596872,13.5715321],[-15.5968396,13.571533],[-15.5968328,13.5713036],[-15.5968626,13.5713027],[-15.5968608,13.5712426],[-15.5966465,13.5712486],[-15.596655,13.5715372],[-15.5967217,13.5715353],[-15.5967231,13.5715825],[-15.5968734,13.5715783]]]]},"properties":{"building":"yes","name":"Muslim's supermarket","shop":"supermarket"}},
{"type":"Feature","geometry":{"type":"MultiPolygon","coordinates":[[[[-16.3430167,13.2026822],[-16.3430004,13.2026289],[-16.3428927,13.2026602],[-16.342909,13.2027136],[-16.3430167,13.2026822]]]]},"properties":{"amenity":"marketplace","building":"yes"}},
{"type":"Feature","geometry":{"type":"MultiPolygon","coordinates":[[[[-13.847792,13.3787563],[-13.8477397,13.3787465],[-13.8477293,13.378799],[-13.8477816,13.3788088],[-13.847792,13.3787563]]]]},"properties":{"building":"yes","shop":"bakery"}},
{"type":"Feature","geometry":{"type":"MultiPolygon","coordinates":[[[[-13.8477238,13.3786585],[-13.8476836,13.3786299],[-13.8476615,13.3786593],[-13.8477017,13.3786879],[-13.8477238,13.3786585]]]]},"properties":{"building":"yes","shop":"bakery"}},
{"type":"Feature","geometry":{"type":"MultiPolygon","coordinates":[[[[-14.0957419,13.3410965],[-14.0956813,13.3409893],[-14.0956126,13.3410273],[-14.095666,13.3411368],[-14.0957419,13.3410965]]]]},"properties":{"building":"yes","shop":"convenience"}},
{"type":"Feature","geometry":{"type":"MultiPolygon","coordinates":[[[[-14.6548912,13.4345733],[-14.6543694,13.4340029],[-14.6539088,13.4344016],[-14.6544306,13.4349719],[-14.6548912,13.4345733]]]]},"properties":{"amenity":"marketplace","building":"yes"}},
{"type":"Feature","geometry":{"type":"MultiPolygon","coordinates":[[[[-16.6801017,13.4357725],[-16.6800534,13.4356994],[-16.6799193,13.4357803],[-16.6799837,13.4358534],[-16.6801017,13.4357725]]]]},"properties":{"building":"yes","building:levels":"0","name":"Mini Market","shop":"convenience"}},
{"type":"Feature","geometry":{"type":"MultiPolygon","coordinates":[[[[-16.7615573,13.0935348],[-16.7615236,13.0934089],[-16.7615359,13.0934055],[-16.7615266,13.0933706],[-16.7614263,13.0933985],[-16.7614638,13.0935566],[-16.7615573,13.0935348]]]]},"properties":{"amenity":"marketplace","building:levels":"1","height":"5"}},
{"type":"Feature","geometry":{"type":"MultiPolygon","coordinates":[[[[-16.7648779,13.1444737],[-16.7648721,13.1443991],[-16.7647927,13.1444049],[-16.7647984,13.1444795],[-16.7648779,13.1444737]]]]},"properties":{"amenity":"marketplace","building":"hut"}},
{"type":"Feature","geometry":{"type":"MultiPolygon","coordinates":[[[[-14.0947077,13.3378662],[-14.0946887,13.3378212],[-14.0946238,13.3378471],[-14.0946427,13.3378921],[-14.0947077,13.3378662]]]]},"properties":{"building":"yes","name":"Lamin Manneh's Bitik","shop":"convenience"}},
{"type":"Feature","geometry":{"type":"MultiPolygon","coordinates":[[[[-14.095508,13.3400611],[-14.0954955,13.3400201],[-14.0954692,13.3400274],[-14.0954812,13.3400685],[-14.095508,13.3400611]]]]},"properties":{"building":"yes","shop":"convenience"}},
{"type":"Feature","geometry":{"type":"MultiPolygon","coordinates":[[[[-14.0961819,13.3413747],[-14.0961597,13.3413142],[-14.0961033,13.3413338],[-14.0961254,13.3413943],[-14.0961819,13.3413747]]]]},"properties":{"building":"yes","shop":"convenience"}},
{"type":"Feature","geometry":{"type":"MultiPolygon","coordinates":[[[[-14.096162,13.3415682],[-14.0960588,13.3415651],[-14.0960517,13.3416414],[-14.0960554,13.3416721],[-14.0961586,13.3416753],[-14.096162,13.3415682]]]]},"properties":{"building":"yes","shop":"convenience"}},
{"type":"Feature","geometry":{"type":"MultiPolygon","coordinates":[[[[-14.0958291,13.341671],[-14.0958232,13.3416245],[-14.0957809,13.3416296],[-14.0957868,13.3416761],[-14.0958291,13.341671]]]]},"properties":{"building":"yes","shop":"convenience"}},
{"type":"Feature","geometry":{"type":"MultiPolygon","coordinates":[[[[-16.6749807,13.4272201],[-16.6749574,13.4269544],[-16.6747525,13.4267991],[-16.6743046,13.4268174],[-16.6743627,13.4272841],[-16.6749807,13.4272201]]]]},"properties":{"amenity":"marketplace","name":"Tallinding Market"}},
{"type":"Feature","geometry":{"type":"MultiPolygon","coordinates":[[[[-16.7160599,13.44953],[-16.7155548,13.4491865],[-16.7153919,13.4494201],[-16.7158782,13.4498159],[-16.7160599,13.44953]]]]},"properties":{"building":"yes","shop":"supermarket"}},
{"type":"Feature","geometry":{"type":"MultiPolygon","coordinates":[[[[-15.2450675,13.5213252],[-15.244965,13.5213225],[-15.2449599,13.5215053],[-15.2450623,13.521508],[-15.2450675,13.5213252]]]]},"properties":{"addr:place":"Pakali Ba","amenity":"marketplace","building":"residential","name":"Market"}},
{"type":"Feature","geometry":{"type":"MultiPolygon","coordinates":[[[[-15.2453695,13.521792],[-15.2452898,13.5217501],[-15.2452334,13.5218513],[-15.2453132,13.5218933],[-15.2453695,13.521792]]]]},"properties":{"building":"residential","name":"Village Bakery","shop":"bakery"}},
{"type":"Feature","geometry":{"type":"MultiPolygon","coordinates":[[[[-14.2113991,13.3141564],[-14.2113719,13.3140642],[-14.2112755,13.3140912],[-14.2113028,13.3141834],[-14.2113991,13.3141564]]]]},"properties":{"building":"yes","name":"Fruit sellers","name:fr":"Vendeurs de fruits","shop":"farm"}},
{"type":"Feature","geometry":{"type":"MultiPolygon","coordinates":[[[[-16.6801516,13.3685892],[-16.6800698,13.3685944],[-16.6800724,13.3686779],[-16.6801435,13.3686662],[-16.6801516,13.3685892]]]]},"properties":{"amenity":"marketplace"}},
{"type":"Feature","geometry":{"type":"MultiPolygon","coordinates":[[[[-15.2437085,13.5205121],[-15.2437005,13.5204313],[-15.2436361,13.5204521],[-15.2436468,13.5205173],[-15.2437085,13.5205121]]]]},"properties":{"building":"yes","name":"Ceesay Kunda","shop":"bakery"}},
{"type":"Feature","geometry":{"type":"MultiPolygon","coordinates":[[[[-16.6270897,13.2689161],[-16.6270227,13.2685767],[-16.6267249,13.2686054],[-16.6267893,13.2689657],[-16.6270897,13.2689161]]]]},"properties":{"amenity":"marketplace","name":"Jiddah Mini Market"}}
]}
