{"type":"FeatureCollection","features":[
{"type":"Feature","geometry":{"type":"Point","coordinates":[-15.5839715,11.8624467]},"properties":{"shop":"bakery"}},
{"type":"Feature","geometry":{"type":"Point","coordinates":[-15.5830515,11.858336]},"properties":{"name":"Bonjours","shop":"butcher"}},
{"type":"Feature","geometry":{"type":"Point","coordinates":[-15.5826036,11.8587245]},"properties":{"shop":"convenience"}},
{"type":"Feature","geometry":{"type":"Point","coordinates":[-15.5826974,11.8588295]},"properties":{"name":"Darling","shop":"supermarket"}},
{"type":"Feature","geometry":{"type":"Point","coordinates":[-15.5801762,11.8624336]},"properties":{"name":"Mavegro","shop":"supermarket"}},
{"type":"Feature","geometry":{"type":"Point","coordinates":[-15.5827162,11.8583413]},"properties":{"name":"Centro Commercial Bodem","shop":"supermarket"}},
{"type":"Feature","geometry":{"type":"Point","coordinates":[-15.5829843,11.8596406]},"properties":{"shop":"bakery"}},
{"type":"Feature","geometry":{"type":"Point","coordinates":[-15.5814717,11.8607825]},"properties":{"shop":"supermarket"}},
{"type":"Feature","geometry":{"type":"Point","coordinates":[-15.5840312,11.8576573]},"properties":{"amenity":"marketplace","name":"Mercado Central"}},
{"type":"Feature","geometry":{"type":"Point","coordinates":[-15.6031238,11.8528378]},"properties":{"shop":"convenience"}},
{"type":"Feature","geometry":{"type":"Point","coordinates":[-15.5991916,11.8535938]},"properties":{"shop":"supermarket"}},
{"type":"Feature","geometry":{"type":"Point","coordinates":[-15.5985157,11.8539455]},"properties":{"amenity":"marketplace"}},
{"type":"Feature","geometry":{"type":"Point","coordinates":[-15.5934186,11.8575068]},"properties":{"amenity":"marketplace","name":"Mercado de Bandim"}},
{"type":"Feature","geometry":{"type":"Point","coordinates":[-15.5983803,11.8588844]},"properties":{"amenity":"marketplace"}},
{"type":"Feature","geometry":{"type":"Point","coordinates":[-15.595234,11.8588083]},"properties":{"name":"Darling","shop":"supermarket"}},
{"type":"Feature","geometry":{"type":"Point","coordinates":[-15.6138567,11.8470482]},"properties":{"amenity":"marketplace"}},
{"type":"Feature","geometry":{"type":"Point","coordinates":[-15.5852382,11.8568962]},"properties":{"name":"Sabores","shop":"supermarket"}},
{"type":"Feature","geometry":{"type":"Point","coordinates":[-15.5866077,11.8542459]},"properties":{"name":"Matador","shop":"butcher"}},
{"type":"Feature","geometry":{"type":"Point","coordinates":[-15.5831215,11.8636244]},"properties":{"name":"Mini Mercado Joud","name:en":"Mini Market Joud","name:pt":"Mini Mercado Joud","shop":"supermarket"}},
{"type":"Feature","geometry":{"type":"Point","coordinates":[-15.5825575,11.8605489]},"properties":{"name":"Oriente","name:en":"Oriente","name:pt":"Oriente","shop":"supermarket"}},
{"type":"Feature","geometry":{"type":"Point","coordinates":[-15.6346018,11.8768546]},"properties":{"name":"Naja","name:en":"Naja","name:pt":"Naja","shop":"supermarket"}},
{"type":"Feature","geometry":{"type":"Point","coordinates":[-15.581572,11.8587582]},"properties":{"name":"Ponto Fresco","name:pt":"Ponto Fresco","shop":"supermarket"}},
{"type":"Feature","geometry":{"type":"Point","coordinates":[-15.5991392,11.8581747]},"properties":{"name":"Mercado Bandin","name:pt":"Mercado Bandin","shop":"convenience"}},
{"type":"Feature","geometry":{"type":"Point","coordinates":[-15.5799268,11.8585878]},"properties":{"name":"A Mercearia","name:pt":"A Mercearia","shop":"supermarket"}},
{"type":"Feature","geometry":{"type":"Point","coordinates":[-15.826818,11.2986587]},"properties":{"shop":"supermarket"}},
{"type":"Feature","geometry":{"type":"Point","coordinates":[-15.5845369,11.8611783]},"properties":{"name":"Alvalade","name:pt":"Alvalade","shop":"supermarket"}},
{"type":"Feature","geometry":{"type":"Point","coordinates":[-15.5853523,11.8663313]},"properties":{"amenity":"marketplace","name":"Feira de Artesanato e Ateliers / Mercado dos Coqueiros"}},
{"type":"Feature","geometry":{"type":"Point","coordinates":[-15.5983884,11.8541428]},"properties":{"name":"Carracol market","name:en":"karakon market","name:pt":"karakon market","shop":"supermarket"}},
{"type":"Feature","geometry":{"type":"Point","coordinates":[-15.5832755,11.8624359]},"properties":{"name":"Euros","shop":"supermarket"}},
{"type":"Feature","geometry":{"type":"Point","coordinates":[-15.5802206,11.8599436]},"properties":{"name":"A Ratinha","shop":"supermarket"}},
{"type":"Feature","geometry":{"type":"Point","coordinates":[-15.5968035,11.8584105]},"properties":{"name":"Maggi","shop":"supermarket"}},
{"type":"Feature","geometry":{"type":"Point","coordinates":[-15.038489,11.2374588]},"properties":{"shop":"convenience"}},
{"type":"Feature","geometry":{"type":"Point","coordinates":[-15.036825,11.2369304]},"properties":{"shop":"convenience"}},
{"type":"Feature","geometry":{"type":"Point","coordinates":[-15.6347437,11.8761322]},"properties":{"name":"Darling","shop":"supermarket"}},
{"type":"Feature","geometry":{"type":"Point","coordinates":[-15.831054,11.2996272]},"properties":{"name":"Casa Adélaïda","shop":"supermarket","tourism":"guest_house"}},
{"type":"Feature","geometry":{"type":"Point","coordinates":[-15.5843421,11.859653]},"properties":{"shop":"convenience"}},
{"type":"Feature","geometry":{"type":"Point","coordinates":[-15.5877423,11.857825]},"properties":{"name":"Tio Ciro","shop":"bakery"}},
{"type":"Feature","geometry":{"type":"Point","coordinates":[-15.5867713,11.8588368]},"properties":{"shop":"convenience"}},
{"type":"Feature","geometry":{"type":"Point","coordinates":[-14.6389791,11.9535068]},"properties":{"amenity":"marketplace"}},
{"type":"Feature","geometry":{"type":"LineString","coordinates":[[-15.5886203,11.8949705],[-15.5888688,11.8945164],[-15.5881209,11.8941024],[-15.5879119,11.8946032],[-15.5886203,11.8949705]]},"properties":{"amenity":"marketplace","landuse":"retail"}},
{"type":"Feature","geometry":{"type":"LineString","coordinates":[[-15.5860995,11.8836133],[-15.5854895,11.8836593],[-15.58561,11.8840499],[-15.5861033,11.8838381],[-15.5860995,11.8836133]]},"properties":{"amenity":"marketplace","landuse":"retail"}},
{"type":"Feature","geometry":{"type":"LineString","coordinates":[[-15.5939297,11.8819937],[-15.5937419,11.8824362],[-15.5942444,11.8828037],[-15.5946014,11.8822344],[-15.5939297,11.8819937]]},"properties":{"amenity":"marketplace"}},
{"type":"Feature","geometry":{"type":"LineString","coordinates":[[-15.5828628,11.8583174],[-15.5827973,11.8582338],[-15.5827058,11.8581178],[-15.5827741,11.8580666],[-15.5829309,11.8582663],[-15.5828628,11.8583174]]},"properties":{"building":"yes","name":"Bonjours","shop":"supermarket","source":"Bing"}},
{"type":"Feature","geometry":{"type":"LineString","coordinates":[[-16.2005595,12.4053562],[-16.1992998,12.4056626],[-16.199315,12.4057142],[-16.199147,12.4057634],[-16.1986925,12.4059321],[-16.1984359,12.4051374],[-16.1994766,12.4047497],[-16.1993902,12.4045017],[-16.1993649,12.4045082],[-16.1992942,12.4042153],[-16.1998079,12.4040827],[-16.2000041,12.4040903],[-16.2000635,12.4040996],[-16.2002123,12.4041352],[-16.2003438,12.4042036],[-16.2004669,12.4043159],[-16.2005527,12.4045569],[-16.2004133,12.4047141],[-16.2005595,12.4053562]]},"properties":{"amenity":"marketplace","landuse":"retail"}},
{"type":"Feature","geometry":{"type":"LineString","coordinates":[[-15.5996347,11.8583008],[-15.5996446,11.8584027],[-15.5991672,11.8584079],[-15.5991216,11.8583685],[-15.5990786,11.8583134],[-15.5990465,11.8582609],[-15.5990265,11.8581959],[-15.5990265,11.8581093],[-15.5990384,11.8579853],[-15.5992986,11.8580535],[-15.5992664,11.8582058],[-15.5993254,11.8582189],[-15.5993281,11.8582662],[-15.5995763,11.8583036],[-15.5996347,11.8583008]]},"properties":{"amenity":"marketplace","landuse":"retail"}},
{"type":"Feature","geometry":{"type":"LineString","coordinates":[[-15.8270487,11.2997621],[-15.8271544,11.2998105],[-15.8271702,11.2997774],[-15.8272115,11.2997963],[-15.8273048,11.2996001],[-15.8271578,11.2995329],[-15.8270487,11.2997621]]},"properties":{"amenity":"marketplace","building":"commercial","name":"Bubaque New Market"}},
{"type":"Feature","geometry":{"type":"LineString","coordinates":[[-15.8268099,11.2986259],[-15.8268512,11.2986565],[-15.8267699,11.2987624],[-15.8267285,11.2987318],[-15.8268099,11.2986259]]},"properties":{"building":"yes","name":"Bubaque Supermercado","opening_hours":"Closes for Friday prayers","shop":"supermarket"}},
{"type":"Feature","geometry":{"type":"LineString","coordinates":[[-15.4741821,11.5791959],[-15.4740906,11.5792456],[-15.4740396,11.5791556],[-15.474131,11.5791059],[-15.4741821,11.5791959]]},"properties":{"building":"yes","name":"Mercearia Bar Cantinho da Pedra","shop":"supermarket","shop_1":"bar"}},
{"type":"Feature","geometry":{"type":"LineString","coordinates":[[-15.4740981,11.5787385],[-15.473668,11.5790143],[-15.4737911,11.5792161],[-15.4741962,11.5789692],[-15.4740981,11.5787385]]},"properties":{"building":"yes","name":"Mercado Central de Bolama","shop":"supermarket"}},
{"type":"Feature","geometry":{"type":"LineString","coordinates":[[-15.482335,11.5781886],[-15.4823819,11.5781017],[-15.4822032,11.5780774],[-15.4821993,11.5781234],[-15.482335,11.5781886]]},"properties":{"amenity":"marketplace"}},
{"type":"Feature","geometry":{"type":"LineString","coordinates":[[-15.5384888,11.9590475],[-15.53845,11.9592568],[-15.538417,11.9594353],[-15.5383855,11.9596051],[-15.5376238,11.9595657],[-15.5376399,11.9590042],[-15.5382058,11.9590015],[-15.5384888,11.9590475]]},"properties":{"amenity":"marketplace","place":"square"}},
{"type":"Feature","geometry":{"type":"LineString","coordinates":[[-15.8275039,11.2985666],[-15.827209,11.2983915],[-15.8274393,11.2980184],[-15.8277343,11.2981935],[-15.8275039,11.2985666]]},"properties":{"amenity":"marketplace","building":"roof"}},
{"type":"Feature","geometry":{"type":"LineString","coordinates":[[-15.5385957,11.9594967],[-15.5386237,11.9593252],[-15.5384798,11.9593028],[-15.5384518,11.9594742],[-15.5385957,11.9594967]]},"properties":{"amenity":"marketplace","building":"yes"}},
{"type":"Feature","geometry":{"type":"LineString","coordinates":[[-16.0294736,12.0653084],[-16.0291714,12.0658837],[-16.0285527,12.0655183],[-16.0288263,12.0649447],[-16.0294736,12.0653084]]},"properties":{"amenity":"marketplace","name":"Mercado de Canchungo","operator":"Administração de Setor de Canchungo"}},
{"type":"Feature","geometry":{"type":"LineString","coordinates":[[-15.7110198,12.107403],[-15.7103859,12.1076036],[-15.7102285,12.1071603],[-15.7109156,12.1069736],[-15.7110198,12.107403]]},"properties":{"amenity":"marketplace","name":"Mercado de Bula","operator":"Administração de Setor de Bula"}},
{"type":"Feature","geometry":{"type":"MultiPolygon","coordinates":[[[[-15.5888688,11.8945164],[-15.5881209,11.8941024],[-15.5879119,11.8946032],[-15.5886203,11.8949705],[-15.5888688,11.8945164]]]]},"properties":{"amenity":"marketplace","landuse":"retail"}},
{"type":"Feature","geometry":{"type":"MultiPolygon","coordinates":[[[[-15.5861033,11.8838381],[-15.5860995,11.8836133],[-15.5854895,11.8836593],[-15.58561,11.8840499],[-15.5861033,11.8838381]]]]},"properties":{"amenity":"marketplace","landuse":"retail"}},
{"type":"Feature","geometry":{"type":"MultiPolygon","coordinates":[[[[-15.5946014,11.8822344],[-15.5939297,11.8819937],[-15.5937419,11.8824362],[-15.5942444,11.8828037],[-15.5946014,11.8822344]]]]},"properties":{"amenity":"marketplace"}},
{"type":"Feature","geometry":{"type":"MultiPolygon","coordinates":[[[[-15.5829309,11.8582663],[-15.5827741,11.8580666],[-15.5827058,11.8581178],[-15.5827973,11.8582338],[-15.5828628,11.8583174],[-15.5829309,11.8582663]]]]},"properties":{"building":"yes","name":"Bonjours","shop":"supermarket","source":"Bing"}},
{"type":"Feature","geometry":{"type":"MultiPolygon","coordinates":[[[[-16.2005595,12.4053562],[-16.2004133,12.4047141],[-16.2005527,12.4045569],[-16.2004669,12.4043159],[-16.2003438,12.4042036],[-16.2002123,12.4041352],[-16.2000635,12.4040996],[-16.2000041,12.4040903],[-16.1998079,12.4040827],[-16.1992942,12.4042153],[-16.1993649,12.4045082],[-16.1993902,12.4045017],[-16.1994766,12.4047497],[-16.1984359,12.4051374],[-16.1986925,12.4059321],[-16.199147,12.4057634],[-16.199315,12.4057142],[-16.1992998,12.4056626],[-16.2005595,12.4053562]]]]},"properties":{"amenity":"marketplace","landuse":"retail"}},
{"type":"Feature","geometry":{"type":"MultiPolygon","coordinates":[[[[-15.5996446,11.8584027],[-15.5996347,11.8583008],[-15.5995763,11.8583036],[-15.5993281,11.8582662],[-15.5993254,11.8582189],[-15.5992664,11.8582058],[-15.5992986,11.8580535],[-15.5990384,11.8579853],[-15.5990265,11.8581093],[-15.5990265,11.8581959],[-15.5990465,11.8582609],[-15.5990786,11.8583134],[-15.5991216,11.8583685],[-15.5991672,11.8584079],[-15.5996446,11.8584027]]]]},"properties":{"amenity":"marketplace","landuse":"retail"}},
{"type":"Feature","geometry":{"type":"MultiPolygon","coordinates":[[[[-15.8273048,11.2996001],[-15.8271578,11.2995329],[-15.8270487,11.2997621],[-15.8271544,11.2998105],[-15.8271702,11.2997774],[-15.8272115,11.2997963],[-15.8273048,11.2996001]]]]},"properties":{"amenity":"marketplace","building":"commercial","name":"Bubaque New Market"}},
{"type":"Feature","geometry":{"type":"MultiPolygon","coordinates":[[[[-15.8268512,11.2986565],[-15.8268099,11.2986259],[-15.8267285,11.2987318],[-15.8267699,11.2987624],[-15.8268512,11.2986565]]]]},"properties":{"building":"yes","name":"Bubaque Supermercado","opening_hours":"Closes for Friday prayers","shop":"supermarket"}},
{"type":"Feature","geometry":{"type":"MultiPolygon","coordinates":[[[[-15.4741821,11.5791959],[-15.474131,11.5791059],[-15.4740396,11.5791556],[-15.4740906,11.5792456],[-15.4741821,11.5791959]]]]},"properties":{"building":"yes","name":"Mercearia Bar Cantinho da Pedra","shop":"supermarket","shop_1":"bar"}},
{"type":"Feature","geometry":{"type":"MultiPolygon","coordinates":[[[[-15.4741962,11.5789692],[-15.4740981,11.5787385],[-15.473668,11.5790143],[-15.4737911,11.5792161],[-15.4741962,11.5789692]]]]},"properties":{"building":"yes","name":"Mercado Central de Bolama","shop":"supermarket"}},
{"type":"Feature","geometry":{"type":"MultiPolygon","coordinates":[[[[-15.4823819,11.5781017],[-15.4822032,11.5780774],[-15.4821993,11.5781234],[-15.482335,11.5781886],[-15.4823819,11.5781017]]]]},"properties":{"amenity":"marketplace"}},
{"type":"Feature","geometry":{"type":"MultiPolygon","coordinates":[[[[-15.5384888,11.9590475],[-15.5382058,11.9590015],[-15.5376399,11.9590042],[-15.5376238,11.9595657],[-15.5383855,11.9596051],[-15.538417,11.9594353],[-15.53845,11.9592568],[-15.5384888,11.9590475]]]]},"properties":{"amenity":"marketplace","place":"square"}},
{"type":"Feature","geometry":{"type":"MultiPolygon","coordinates":[[[[-15.8277343,11.2981935],[-15.8274393,11.2980184],[-15.827209,11.2983915],[-15.8275039,11.2985666],[-15.8277343,11.2981935]]]]},"properties":{"amenity":"marketplace","building":"roof"}},
{"type":"Feature","geometry":{"type":"MultiPolygon","coordinates":[[[[-15.5386237,11.9593252],[-15.5384798,11.9593028],[-15.5384518,11.9594742],[-15.5385957,11.9594967],[-15.5386237,11.9593252]]]]},"properties":{"amenity":"marketplace","building":"yes"}},
{"type":"Feature","geometry":{"type":"MultiPolygon","coordinates":[[[[-16.0294736,12.0653084],[-16.0288263,12.0649447],[-16.0285527,12.0655183],[-16.0291714,12.0658837],[-16.0294736,12.0653084]]]]},"properties":{"amenity":"marketplace","name":"Mercado de Canchungo","operator":"Administração de Setor de Canchungo"}},
{"type":"Feature","geometry":{"type":"MultiPolygon","coordinates":[[[[-15.7110198,12.107403],[-15.7109156,12.1069736],[-15.7102285,12.1071603],[-15.7103859,12.1076036],[-15.7110198,12.107403]]]]},"properties":{"amenity":"marketplace","name":"Mercado de Bula","operator":"Administração de Setor de Bula"}}
]}
