{"type":"FeatureCollection","features":[
{"type":"Feature","geometry":{"type":"Point","coordinates":[8.7800629,3.7488019]},"properties":{"amenity":"marketplace","name":"Mercado Central","name:es":"Mercado Central","name:fr":"Marché central","source":"Bing"}},
{"type":"Feature","geometry":{"type":"Point","coordinates":[8.779617,3.7515396]},"properties":{"amenity":"marketplace","name":"Mercado Público","name:es":"Mercado Público","name:fr":"Marché public","operator:type":"public"}},
{"type":"Feature","geometry":{"type":"Point","coordinates":[8.7769883,3.7551799]},"properties":{"addr:street":"Av de la Independencia","name":"Martínez Hermanos","operator":"Martínez Hermanos","shop":"supermarket"}},
{"type":"Feature","geometry":{"type":"Point","coordinates":[9.7656173,1.8667659]},"properties":{"name":"Electrodomésticos Martínez","shop":"supermarket"}},
{"type":"Feature","geometry":{"type":"Point","coordinates":[9.7640749,1.8652651]},"properties":{"name":"Supermercado - Martines Hermanos","shop":"supermarket"}},
{"type":"Feature","geometry":{"type":"Point","coordinates":[9.7646415,1.863783]},"properties":{"name":"Supermercado EGTC","name:fr":"Supermarché EGTC","shop":"supermarket"}},
{"type":"Feature","geometry":{"type":"Point","coordinates":[9.7682628,1.8683949]},"properties":{"addr:city":"Bata","addr:street":"Avenue Mbogo Nzogo","addr:street:fr":"Avenue Mbogo Nzogo","internet_access":"wlan","name":"Centro Comercial EGTC","name:fr":"Centre Commercial EGTC","name:ko":"이지티시","opening_hours":"L-S 10:00-21:30","operator":"Grupo EGTC","operator:fr":"Groupe EGTC","payment:cash":"yes","payment:visa":"yes","phone":"+240 333 082 956/58","shop":"supermarket"}},
{"type":"Feature","geometry":{"type":"Point","coordinates":[9.7648214,1.863464]},"properties":{"name":"Gran Mercado Central","name:fr":"Grand Marché Central","shop":"supermarket"}},
{"type":"Feature","geometry":{"type":"Point","coordinates":[8.7653319,3.7401403]},"properties":{"shop":"bakery"}},
{"type":"Feature","geometry":{"type":"Point","coordinates":[9.7870735,1.8728667]},"properties":{"name":"Mercadillo de Fug-windi Lia","shop":"supermarket"}},
{"type":"Feature","geometry":{"type":"Point","coordinates":[9.8169704,1.8573071]},"properties":{"name":"Panadería Nbaye Bikuy Sabama","name:fr":"Boulangerie Nbaye Bikuy Sabama","shop":"bakery"}},
{"type":"Feature","geometry":{"type":"Point","coordinates":[9.8039736,1.8565012]},"properties":{"name:en":"Cruce entrada Municipio de Bikuy","shop":"supermarket"}},
{"type":"Feature","geometry":{"type":"Point","coordinates":[9.769783,1.8611619]},"properties":{"name":"Supermarché Chinois","name:fr":"Supermarché Chinois","name:ko":"소나 중국슈퍼","shop":"supermarket"}},
{"type":"Feature","geometry":{"type":"Point","coordinates":[8.7968134,3.7504269]},"properties":{"name:en":"EGTC","name:es":"Supermercado EGTC","opening_hours":"Mo-Fr 10:00-14:00, 04:00-19:00; Sa 10:00-14:00","shop":"supermarket"}},
{"type":"Feature","geometry":{"type":"Point","coordinates":[8.7965889,3.7507333]},"properties":{"name:en":"Pegaso Bakery","name:es":"Panadería Pegaso","shop":"bakery"}},
{"type":"Feature","geometry":{"type":"Point","coordinates":[8.6672535,3.3471918]},"properties":{"name":"Supermercado de Moka","name:es":"Supermercado de Moka","shop":"supermarket"}},
{"type":"Feature","geometry":{"type":"Point","coordinates":[8.7791064,3.7488797]},"properties":{"air_conditioning":"yes","name":"Supermercado Santy","name:fr":"Santy","operational_status":"non-operational","operator":"Comercial Santy","payment:cash":"yes","shop":"supermarket","wheelchair":"limited"}},
{"type":"Feature","geometry":{"type":"Point","coordinates":[8.7940435,3.7544334]},"properties":{"name:en":"Guinaco","name:es":"Guinaco","shop":"supermarket"}},
{"type":"Feature","geometry":{"type":"Point","coordinates":[10.743384,1.8424228]},"properties":{"name":"Supermercado EGTC","shop":"supermarket"}},
{"type":"Feature","geometry":{"type":"Point","coordinates":[10.7435678,1.8305816]},"properties":{"name":"Mercado de Añisoc","shop":"supermarket"}},
{"type":"Feature","geometry":{"type":"Point","coordinates":[8.7976287,3.7393221]},"properties":{"name:en":"San juan's bakery","name:es":"Panadería San juan","shop":"bakery"}},
{"type":"Feature","geometry":{"type":"Point","coordinates":[8.7553247,3.7537836]},"properties":{"name:es":"Martínez Hermanos - Edificio Muankaban","shop":"supermarket"}},
{"type":"Feature","geometry":{"type":"Point","coordinates":[8.7390217,3.7299193]},"properties":{"name:es":"Caba Market","opening_hours":"Mo-Sa 08:30-20:00; Su 08:30-14:00","shop":"supermarket"}},
{"type":"Feature","geometry":{"type":"Point","coordinates":[8.776255,3.7199099]},"properties":{"addr:city":"Malabo","name":"Martinez Hermanos (Móstoles)","shop":"supermarket"}},
{"type":"Feature","geometry":{"type":"Point","coordinates":[8.7835986,3.7374521]},"properties":{"addr:city":"Malabo","addr:street":"calle Semu","name":"Martínez Hermanos - Semu","operator":"Martínez Hermanos","payment:cash":"yes","payment:credit_cards":"yes","shop":"supermarket"}},
{"type":"Feature","geometry":{"type":"Point","coordinates":[8.7835673,3.7379484]},"properties":{"addr:city":"Malabo","addr:street":"calle Semu","name":"Panadería - Semu","payment:cash":"yes","shop":"bakery"}},
{"type":"Feature","geometry":{"type":"Point","coordinates":[8.7835156,3.7384765]},"properties":{"addr:city":"Malabo","addr:street":"calle Semu","name":"LUMECO SL - Semu Malabo","operator":"LUMECO SL","payment:cash":"yes","payment:credit_cards":"yes","shop":"supermarket","stroller":"yes"}},
{"type":"Feature","geometry":{"type":"Point","coordinates":[8.7791247,3.7304212]},"properties":{"addr:city":"Malabo","name":"Panadería Briny","shop":"bakery"}},
{"type":"Feature","geometry":{"type":"Point","coordinates":[8.7769862,3.7553794]},"properties":{"addr:city":"Malabo","name":"GUINACO","operator":"GUINACO","shop":"supermarket"}},
{"type":"Feature","geometry":{"type":"Point","coordinates":[8.7576207,3.7404067]},"properties":{"addr:city":"Malabo","name":"Supermecado Muankaban","operator":"Muankaban","shop":"supermarket"}},
{"type":"Feature","geometry":{"type":"Point","coordinates":[8.7697281,3.7468319]},"properties":{"description":"Fresh meat","name":"CarniBioko S.L.","opening_hours":"Mo-Fr 09:00-18:30; Sa 10:00-18:30","shop":"butcher","website":"www carnibioko.gq"}},
{"type":"Feature","geometry":{"type":"Point","coordinates":[8.7967183,3.7502504]},"properties":{"name":"EGTC Bakery","shop":"bakery"}},
{"type":"Feature","geometry":{"type":"Point","coordinates":[8.7969452,3.7511969]},"properties":{"name":"Pegasus Express","shop":"supermarket"}},
{"type":"Feature","geometry":{"type":"Point","coordinates":[8.7797821,3.7535949]},"properties":{"name":"Frutería Carnicería Basilé","shop":"butcher"}},
{"type":"Feature","geometry":{"type":"Point","coordinates":[8.7787001,3.7533237]},"properties":{"addr:street":"Avenida de la Libertad","name":"Global Market","shop":"supermarket"}},
{"type":"Feature","geometry":{"type":"Point","coordinates":[8.7790092,3.7531319]},"properties":{"name":"L'Oriental","shop":"supermarket"}},
{"type":"Feature","geometry":{"type":"Point","coordinates":[8.7361701,3.7440864]},"properties":{"name":"L'Oriental","shop":"supermarket"}},
{"type":"Feature","geometry":{"type":"Point","coordinates":[11.3185854,1.6287197]},"properties":{"shop":"supermarket"}},
{"type":"Feature","geometry":{"type":"Point","coordinates":[10.5670291,1.4376473]},"properties":{"amenity":"marketplace"}},
{"type":"Feature","geometry":{"type":"Point","coordinates":[11.3074717,1.6293832]},"properties":{"amenity":"marketplace"}},
{"type":"Feature","geometry":{"type":"Point","coordinates":[11.2964129,1.6529448]},"properties":{"amenity":"marketplace"}},
{"type":"Feature","geometry":{"type":"Point","coordinates":[10.2519259,1.857713]},"properties":{"amenity":"marketplace"}},
{"type":"Feature","geometry":{"type":"Point","coordinates":[9.8034029,1.8581044]},"properties":{"amenity":"marketplace"}},
{"type":"Feature","geometry":{"type":"Point","coordinates":[9.7859162,1.8419391]},"properties":{"amenity":"marketplace"}},
{"type":"Feature","geometry":{"type":"Point","coordinates":[11.3256651,2.1474101]},"properties":{"amenity":"marketplace"}},
{"type":"Feature","geometry":{"type":"Point","coordinates":[11.0906661,1.8671038]},"properties":{"amenity":"marketplace"}},
{"type":"Feature","geometry":{"type":"Point","coordinates":[9.608649,1.5615604]},"properties":{"amenity":"marketplace"}},
{"type":"Feature","geometry":{"type":"Point","coordinates":[9.7880117,1.8606316]},"properties":{"addr:city":"BATA","addr:street":"Rotonda Principal de Ngoló - Bata","name":"BUBUTOLI","phone":"+240222007888","shop":"supermarket"}},
{"type":"Feature","geometry":{"type":"LineString","coordinates":[[9.7637436,1.8585884],[9.7637811,1.8592452],[9.763816,1.8599503],[9.7638508,1.8603631],[9.7641673,1.8603497],[9.7641271,1.8598296],[9.7641378,1.8595884],[9.7641834,1.8594141],[9.764339,1.859457],[9.7645482,1.8594088],[9.7646367,1.8590334],[9.7649237,1.859138],[9.7650263,1.8588646],[9.7643209,1.8586916],[9.7642572,1.8586726],[9.7640051,1.8586132],[9.7637436,1.8585884]]},"properties":{"addr:city":"Bata","amenity":"marketplace","landuse":"retail"}},
{"type":"Feature","geometry":{"type":"LineString","coordinates":[[9.7849667,1.8417166],[9.7852939,1.8414914],[9.7863507,1.8411751],[9.7869247,1.8418936],[9.7866082,1.8421348],[9.7861925,1.8425209],[9.7862917,1.8426201],[9.7861763,1.8428346],[9.7860678,1.8433291],[9.7861093,1.8434819],[9.785876,1.8435986],[9.7857706,1.8433984],[9.7857771,1.8432372],[9.7857848,1.8430892],[9.7857206,1.8429928],[9.785677,1.8429121],[9.7851793,1.8420991],[9.7851318,1.8420101],[9.7849667,1.8417166]]},"properties":{"amenity":"marketplace","landuse":"retail"}},
{"type":"Feature","geometry":{"type":"LineString","coordinates":[[9.8028678,1.8593939],[9.8028417,1.8593629],[9.8027606,1.8593917],[9.8025569,1.8591448],[9.8021245,1.8585583],[9.802232,1.8581543],[9.8022272,1.858053],[9.8022389,1.8579653],[9.802491,1.8577894],[9.8036939,1.8571099],[9.8040372,1.8569115],[9.8045841,1.8586988],[9.803498,1.8592346],[9.8034531,1.8592582],[9.8033881,1.8591365],[9.803352,1.8591489],[9.8032477,1.8592074],[9.8028678,1.8593939]]},"properties":{"amenity":"marketplace","landuse":"retail","name":"Mercado de Bikuy"}},
{"type":"Feature","geometry":{"type":"LineString","coordinates":[[9.7624489,1.8257512],[9.76298,1.8259387],[9.7629704,1.8260251],[9.764483,1.8265591],[9.7645663,1.8263301],[9.7646387,1.8261105],[9.7647954,1.8256748],[9.762737,1.824936],[9.7624489,1.8257512]]},"properties":{"amenity":"marketplace","landuse":"retail","name":"Mercado Kilómetro Cinco"}},
{"type":"Feature","geometry":{"type":"LineString","coordinates":[[9.7762951,1.8710044],[9.7768262,1.8707122],[9.7767162,1.8703771],[9.7771776,1.8702859],[9.7771105,1.869857],[9.777258,1.8698222],[9.7770408,1.8693155],[9.7767216,1.8689643],[9.7764534,1.8690501],[9.7760484,1.8694334],[9.7756192,1.8697203],[9.7759464,1.8702243],[9.7759645,1.8702859],[9.7759705,1.870371],[9.7760725,1.8703798],[9.7762951,1.8710044]]},"properties":{"amenity":"marketplace","landuse":"retail","name":"Mercado de Mondoassi","name:fr":"Marché Mondoassi","name:ko":"몬도아실 재래시장"}},
{"type":"Feature","geometry":{"type":"LineString","coordinates":[[10.5666033,1.4384912],[10.5679028,1.4379138],[10.5673525,1.4366761],[10.5667322,1.4369518],[10.566053,1.4372536],[10.5666033,1.4384912]]},"properties":{"amenity":"marketplace","landuse":"retail","name":"Mercado","name:fr":"Marché"}},
{"type":"Feature","geometry":{"type":"MultiPolygon","coordinates":[[[[9.7637436,1.8585884],[9.7640051,1.8586132],[9.7642572,1.8586726],[9.7643209,1.8586916],[9.7650263,1.8588646],[9.7649237,1.859138],[9.7646367,1.8590334],[9.7645482,1.8594088],[9.764339,1.859457],[9.7641834,1.8594141],[9.7641378,1.8595884],[9.7641271,1.8598296],[9.7641673,1.8603497],[9.7638508,1.8603631],[9.763816,1.8599503],[9.7637811,1.8592452],[9.7637436,1.8585884]]]]},"properties":{"addr:city":"Bata","amenity":"marketplace","landuse":"retail"}},
{"type":"Feature","geometry":{"type":"MultiPolygon","coordinates":[[[[9.7849667,1.8417166],[9.7852939,1.8414914],[9.7863507,1.8411751],[9.7869247,1.8418936],[9.7866082,1.8421348],[9.7861925,1.8425209],[9.7862917,1.8426201],[9.7861763,1.8428346],[9.7860678,1.8433291],[9.7861093,1.8434819],[9.785876,1.8435986],[9.7857706,1.8433984],[9.7857771,1.8432372],[9.7857848,1.8430892],[9.7857206,1.8429928],[9.785677,1.8429121],[9.7851793,1.8420991],[9.7851318,1.8420101],[9.7849667,1.8417166]]]]},"properties":{"amenity":"marketplace","landuse":"retail"}},
{"type":"Feature","geometry":{"type":"MultiPolygon","coordinates":[[[[9.8021245,1.8585583],[9.802232,1.8581543],[9.8022272,1.858053],[9.8022389,1.8579653],[9.802491,1.8577894],[9.8036939,1.8571099],[9.8040372,1.8569115],[9.8045841,1.8586988],[9.803498,1.8592346],[9.8034531,1.8592582],[9.8033881,1.8591365],[9.803352,1.8591489],[9.8032477,1.8592074],[9.8028678,1.8593939],[9.8028417,1.8593629],[9.8027606,1.8593917],[9.8025569,1.8591448],[9.8021245,1.8585583]]]]},"properties":{"amenity":"marketplace","landuse":"retail","name":"Mercado de Bikuy"}},
{"type":"Feature","geometry":{"type":"MultiPolygon","coordinates":[[[[9.7624489,1.8257512],[9.762737,1.824936],[9.7647954,1.8256748],[9.7646387,1.8261105],[9.7645663,1.8263301],[9.764483,1.8265591],[9.7629704,1.8260251],[9.76298,1.8259387],[9.7624489,1.8257512]]]]},"properties":{"amenity":"marketplace","landuse":"retail","name":"Mercado Kilómetro Cinco"}},
{"type":"Feature","geometry":{"type":"MultiPolygon","coordinates":[[[[9.7756192,1.8697203],[9.7760484,1.8694334],[9.7764534,1.8690501],[9.7767216,1.8689643],[9.7770408,1.8693155],[9.777258,1.8698222],[9.7771105,1.869857],[9.7771776,1.8702859],[9.7767162,1.8703771],[9.7768262,1.8707122],[9.7762951,1.8710044],[9.7760725,1.8703798],[9.7759705,1.870371],[9.7759645,1.8702859],[9.7759464,1.8702243],[9.7756192,1.8697203]]]]},"properties":{"amenity":"marketplace","landuse":"retail","name":"Mercado de Mondoassi","name:fr":"Marché Mondoassi","name:ko":"몬도아실 재래시장"}},
{"type":"Feature","geometry":{"type":"MultiPolygon","coordinates":[[[[10.566053,1.4372536],[10.5667322,1.4369518],[10.5673525,1.4366761],[10.5679028,1.4379138],[10.5666033,1.4384912],[10.566053,1.4372536]]]]},"properties":{"amenity":"marketplace","landuse":"retail","name":"Mercado","name:fr":"Marché"}},
{"type":"Feature","geometry":{"type":"MultiPolygon","coordinates":[[[[8.7800982,3.7517731],[8.7801633,3.7516717],[8.7802934,3.7517407],[8.7802283,3.7518421],[8.7800982,3.7517731]]]]},"properties":{"area":"yes","name":"Supermercados LUMECO","operator":"Supermercados LUMECO","payment:cash":"yes","shop":"supermarket"}}
]}
