{"type":"FeatureCollection","features":[
{"type":"Feature","geometry":{"type":"Point","coordinates":[27.5084692,-29.3349344]},"properties":{"shop":"convenience"}},
{"type":"Feature","geometry":{"type":"Point","coordinates":[27.4938818,-29.3137094]},"properties":{"addr:street":"Moshoeshoe Road","branch":"Sefika mall","brand":"Shoprite","brand:wikidata":"Q1857639","brand:wikipedia":"en:Shoprite Holdings Ltd","name":"Shoprite","shop":"supermarket"}},
{"type":"Feature","geometry":{"type":"Point","coordinates":[27.5173124,-29.2931407]},"properties":{"shop":"convenience"}},
{"type":"Feature","geometry":{"type":"Point","coordinates":[27.5115333,-29.3147317]},"properties":{"shop":"bakery"}},
{"type":"Feature","geometry":{"type":"Point","coordinates":[27.5367301,-29.3690823]},"properties":{"shop":"convenience"}},
{"type":"Feature","geometry":{"type":"Point","coordinates":[27.5198534,-29.300771]},"properties":{"name":"Machache","shop":"butcher"}},
{"type":"Feature","geometry":{"type":"Point","coordinates":[27.4909588,-29.3125466]},"properties":{"name":"Fahida Supermarket","shop":"supermarket"}},
{"type":"Feature","geometry":{"type":"Point","coordinates":[27.477388,-29.3170246]},"properties":{"addr:floor":"1","addr:housename":"Pioneer Mall","addr:street":"Pioneer Road","air_conditioning":"yes","building:levels":"2","check_date":"2023-04-25","currency:M":"yes","currency:R":"yes","fax":"+26622315218","internet_access":"no","name":"Pioneer Mall (Pick n Pay)","opening_hours":"Mo-Sa 08:00-20:00; Su 08:00-17:00","organic":"yes","payment:cash":"yes","payment:credit_cards":"yes","payment:debit_cards":"yes","payment:mastercard":"yes","payment:mobile_phone":"yes","payment:visa":"yes","phone":"+266 2231 8815","second_hand":"no","shop":"supermarket","stroller":"yes","wheelchair":"yes"}},
{"type":"Feature","geometry":{"type":"Point","coordinates":[27.7410282,-29.1469402]},"properties":{"name":"Ha Ntate Sthibi","opening_hours":"PH,Mo-Su 08:00-18:00","shop":"convenience"}},
{"type":"Feature","geometry":{"type":"Point","coordinates":[27.5977383,-29.8305414]},"properties":{"shop":"convenience"}},
{"type":"Feature","geometry":{"type":"Point","coordinates":[27.5991097,-29.8287818]},"properties":{"shop":"convenience"}},
{"type":"Feature","geometry":{"type":"Point","coordinates":[27.5976417,-29.8297082]},"properties":{"shop":"convenience"}},
{"type":"Feature","geometry":{"type":"Point","coordinates":[27.8765792,-30.2709715]},"properties":{"shop":"supermarket"}},
{"type":"Feature","geometry":{"type":"Point","coordinates":[27.8770727,-30.2704341]},"properties":{"shop":"supermarket"}},
{"type":"Feature","geometry":{"type":"Point","coordinates":[27.8757337,-30.2712717]},"properties":{"shop":"butcher"}},
{"type":"Feature","geometry":{"type":"Point","coordinates":[28.1270521,-28.7910691]},"properties":{"shop":"convenience"}},
{"type":"Feature","geometry":{"type":"Point","coordinates":[27.5048255,-29.3317911]},"properties":{"name":"Marabeng Store","shop":"convenience"}},
{"type":"Feature","geometry":{"type":"Point","coordinates":[27.5617681,-29.4050006]},"properties":{"name":"Chinese Shop","opening_hours":"Mo-Su 09:00-18:00","shop":"supermarket"}},
{"type":"Feature","geometry":{"type":"Point","coordinates":[27.559217,-29.4062752]},"properties":{"name":"Masianokeng Bakery","opening_hours":"Mo-Su 12:00-17:00","shop":"bakery"}},
{"type":"Feature","geometry":{"type":"Point","coordinates":[28.1496224,-28.9376722]},"properties":{"shop":"supermarket"}},
{"type":"Feature","geometry":{"type":"Point","coordinates":[28.1989129,-28.9146245]},"properties":{"shop":"convenience"}},
{"type":"Feature","geometry":{"type":"Point","coordinates":[28.2443074,-28.9359314]},"properties":{"name":"Lucky 7","shop":"supermarket"}},
{"type":"Feature","geometry":{"type":"Point","coordinates":[28.2460422,-28.935699]},"properties":{"shop":"supermarket"}},
{"type":"Feature","geometry":{"type":"Point","coordinates":[28.2475443,-28.9361534]},"properties":{"shop":"convenience"}},
{"type":"Feature","geometry":{"type":"Point","coordinates":[28.1624973,-28.9525895]},"properties":{"shop":"supermarket"}},
{"type":"Feature","geometry":{"type":"Point","coordinates":[28.1620486,-28.9528397]},"properties":{"shop":"convenience"}},
{"type":"Feature","geometry":{"type":"Point","coordinates":[28.9721032,-29.3909818]},"properties":{"amenity":"marketplace"}},
{"type":"Feature","geometry":{"type":"Point","coordinates":[27.520083,-29.2907718]},"properties":{"shop":"butcher"}},
{"type":"Feature","geometry":{"type":"Point","coordinates":[27.909908,-28.8902599]},"properties":{"amenity":"fuel","brand":"Shell","fuel:diesel":"yes","fuel:octane_92":"yes","name":"Maputsoe Shell Filling Station","opening_hours":"24/7","shop":"convenience"}},
{"type":"Feature","geometry":{"type":"Point","coordinates":[28.0427092,-28.8752599]},"properties":{"amenity":"marketplace"}},
{"type":"Feature","geometry":{"type":"Point","coordinates":[27.7482626,-29.1483555]},"properties":{"addr:street":"Main North 1","name":"Mohalalitoe Butchers","shop":"butcher"}},
{"type":"Feature","geometry":{"type":"Point","coordinates":[27.7483323,-29.1480654]},"properties":{"addr:street":"Main North 1","name":"Xp Juan","shop":"supermarket"}},
{"type":"Feature","geometry":{"type":"Point","coordinates":[27.750443,-29.1481516]},"properties":{"name":"Roadside Butchers","shop":"butcher"}},
{"type":"Feature","geometry":{"type":"Point","coordinates":[27.4944763,-29.3712109]},"properties":{"check_date":"2023-08-09","internet_access":"no","payment:cards":"no","payment:cash":"yes","payment:credit_cards":"no","payment:debit_cards":"no","shop":"convenience","wheelchair":"no"}},
{"type":"Feature","geometry":{"type":"Point","coordinates":[27.5146853,-29.3676322]},"properties":{"shop":"butcher"}},
{"type":"Feature","geometry":{"type":"Point","coordinates":[27.5147766,-29.367599]},"properties":{"shop":"supermarket"}},
{"type":"Feature","geometry":{"type":"Point","coordinates":[27.5045751,-29.3662413]},"properties":{"air_conditioning":"no","check_date":"2023-12-07","currency:M":"yes","currency:R":"yes","internet_access":"no","name":"Maluti Supermarket","payment:cards":"no","payment:cash":"yes","payment:credit_cards":"no","payment:debit_cards":"no","second_hand":"no","shop":"supermarket","stroller":"limited","toilets":"no","toilets:wheelchair":"limited","wheelchair":"limited"}},
{"type":"Feature","geometry":{"type":"Point","coordinates":[27.5064216,-29.3609465]},"properties":{"name":"Bakubung","shop":"supermarket"}},
{"type":"Feature","geometry":{"type":"Point","coordinates":[27.5146632,-29.367578]},"properties":{"name":"Lekhooa Supermarket & Butchery","shop":"supermarket"}},
{"type":"Feature","geometry":{"type":"Point","coordinates":[27.4577241,-29.3370362]},"properties":{"check_date":"2023-04-14","currency:M":"yes","description":"Bakery","email":"customercare@premierfmcg.com","internet_access":"no","name":"Blue Ribbon","opening_hours":"Mo-Sa 06:00-18:00","payment:credit_cards":"yes","payment:debit_cards":"yes","payment:mastercard":"yes","payment:mobile_phone":"yes","payment:visa":"yes","phone":"+266 5349 4353","second_hand":"no","shop":"bakery","start_date":"December 1989","wheelchair":"yes"}},
{"type":"Feature","geometry":{"type":"Point","coordinates":[27.4601402,-29.357435]},"properties":{"addr:housenumber":"Ha Tsolo, Maseru","addr:street":"Kofi Annan Road","building:levels":"1","check_date":"2023-04-20","currency:M":"yes","currency:R":"yes","description":"Grocery Store","internet_access":"no","name":"Shoprite Usave","opening_hours":"Mo-Fr 08:00-18:00","payment:credit_cards":"yes","payment:debit_cards":"yes","payment:mastercard":"yes","payment:mobile_phone":"yes","payment:visa":"yes","second_hand":"no","shop":"supermarket","stroller":"yes","wheelchair":"limited"}},
{"type":"Feature","geometry":{"type":"Point","coordinates":[27.4957158,-29.3123909]},"properties":{"branch":"Usave","brand":"Shoprite","brand:wikidata":"Q1857639","brand:wikipedia":"en:Shoprite Holdings Ltd","name":"Shoprite","shop":"supermarket"}},
{"type":"Feature","geometry":{"type":"Point","coordinates":[27.4920142,-29.3127357]},"properties":{"name":"Cheapest Supermarket","shop":"supermarket"}},
{"type":"Feature","geometry":{"type":"Point","coordinates":[27.7034968,-30.4006335]},"properties":{"shop":"supermarket"}},
{"type":"Feature","geometry":{"type":"Point","coordinates":[27.7449959,-29.1522724]},"properties":{"name":"ML Butchery & Catering","shop":"butcher"}},
{"type":"Feature","geometry":{"type":"Point","coordinates":[27.5084237,-29.3491104]},"properties":{"shop":"supermarket"}},
{"type":"Feature","geometry":{"type":"Point","coordinates":[27.5081682,-29.3476111]},"properties":{"name":"Qhafutsong Easy Cafe","shop":"convenience"}},
{"type":"Feature","geometry":{"type":"Point","coordinates":[27.5127376,-29.3644698]},"properties":{"name":"Bakubung No2 Supermarket","shop":"supermarket"}},
{"type":"Feature","geometry":{"type":"Point","coordinates":[27.5113158,-29.3571042]},"properties":{"name":"Lily Supermarket","shop":"convenience"}},
{"type":"Feature","geometry":{"type":"Point","coordinates":[27.5098934,-29.353346]},"properties":{"shop":"convenience"}},
{"type":"Feature","geometry":{"type":"Point","coordinates":[27.5083524,-29.3499153]},"properties":{"shop":"convenience"}},
{"type":"Feature","geometry":{"type":"Point","coordinates":[27.508065,-29.3447289]},"properties":{"name":"Habo Rona General Cafe","shop":"convenience"}},
{"type":"Feature","geometry":{"type":"Point","coordinates":[27.5090691,-29.3530763]},"properties":{"check_date":"2023-08-13","internet_access":"no","name":"Relebohile Shopping Centre","shop":"supermarket","wheelchair":"limited"}},
{"type":"Feature","geometry":{"type":"Point","coordinates":[27.507406,-29.3659301]},"properties":{"name":"207","shop":"convenience"}},
{"type":"Feature","geometry":{"type":"Point","coordinates":[27.4472817,-30.1490768]},"properties":{"name":"Sunlight Supermarket","shop":"supermarket"}},
{"type":"Feature","geometry":{"type":"Point","coordinates":[27.4472257,-30.1495831]},"properties":{"shop":"convenience"}},
{"type":"Feature","geometry":{"type":"Point","coordinates":[27.4959368,-29.3496412]},"properties":{"shop":"convenience"}},
{"type":"Feature","geometry":{"type":"Point","coordinates":[27.5334506,-29.3711261]},"properties":{"shop":"convenience"}},
{"type":"Feature","geometry":{"type":"Point","coordinates":[27.5380834,-29.3689076]},"properties":{"shop":"convenience"}},
{"type":"Feature","geometry":{"type":"Point","coordinates":[27.6916093,-30.3987907]},"properties":{"name":"See-Point Shopping Centre","shop":"supermarket"}},
{"type":"Feature","geometry":{"type":"Point","coordinates":[27.7437979,-29.1528301]},"properties":{"name":"Lioli Butchery","shop":"butcher"}},
{"type":"Feature","geometry":{"type":"Point","coordinates":[27.7500122,-29.1438761]},"properties":{"addr:postcode":"200","addr:street":"Main North 1","name":"Twin Sisters Mini Market","operator":"Kotsetse Tale","shop":"supermarket"}},
{"type":"Feature","geometry":{"type":"Point","coordinates":[27.5213039,-29.3687693]},"properties":{"shop":"supermarket"}},
{"type":"Feature","geometry":{"type":"Point","coordinates":[27.4711514,-29.3390634]},"properties":{"name":"Na Le Uena General Cafe","shop":"convenience"}},
{"type":"Feature","geometry":{"type":"Point","coordinates":[27.4714638,-29.338687]},"properties":{"name":"Twins Supermarket","shop":"convenience"}},
{"type":"Feature","geometry":{"type":"Point","coordinates":[27.5091074,-29.3342941]},"properties":{"shop":"supermarket"}},
{"type":"Feature","geometry":{"type":"Point","coordinates":[27.7079268,-30.4077101]},"properties":{"shop":"supermarket"}},
{"type":"Feature","geometry":{"type":"Point","coordinates":[27.5056259,-29.3421327]},"properties":{"shop":"convenience"}},
{"type":"Feature","geometry":{"type":"Point","coordinates":[27.5082945,-29.3332368]},"properties":{"name":"Makhetha Fresh Meat Wholesalers","shop":"butcher"}},
{"type":"Feature","geometry":{"type":"Point","coordinates":[27.4981318,-29.3671965]},"properties":{"addr:floor":"G","air_conditioning":"no","building:levels":"1","check_date":"2023-12-07","currency:M":"yes","currency:R":"yes","internet_access":"no","level":"0","name":"Five Rand","name:en":"Five Rand","payment:cards":"no","payment:cash":"yes","payment:credit_cards":"no","payment:debit_cards":"no","shop":"convenience","wheelchair":"no"}},
{"type":"Feature","geometry":{"type":"Point","coordinates":[27.4977506,-29.3678001]},"properties":{"addr:floor":"G","air_conditioning":"no","building:levels":"1","check_date":"2023-10-16","currency:M":"yes","currency:R":"yes","internet_access":"no","level":"0","name":"Nompiza","name:en":"Nompiza","payment:credit_cards":"yes","payment:mastercard":"yes","payment:mobile_phone":"yes","payment:visa":"yes","second_hand":"no","shop":"convenience","source":"local knowledge","stroller":"yes","wheelchair":"limited"}},
{"type":"Feature","geometry":{"type":"Point","coordinates":[27.4952585,-29.3154521]},"properties":{"shop":"supermarket"}},
{"type":"Feature","geometry":{"type":"Point","coordinates":[27.4663462,-30.1271357]},"properties":{"name":"Roadside Supermarket","name:en":"Roadside Supermarket","shop":"supermarket"}},
{"type":"Feature","geometry":{"type":"Point","coordinates":[27.6902129,-30.398488]},"properties":{"name":"Mr Low Price Mini Store","shop":"supermarket"}},
{"type":"Feature","geometry":{"type":"Point","coordinates":[28.205624,-30.1666179]},"properties":{"shop":"convenience"}},
{"type":"Feature","geometry":{"type":"Point","coordinates":[28.206061299999999,-30.167919]},"properties":{"shop":"convenience"}},
{"type":"Feature","geometry":{"type":"Point","coordinates":[28.1908141,-30.1747899]},"properties":{"shop":"convenience"}},
{"type":"Feature","geometry":{"type":"Point","coordinates":[28.1559532,-30.1925594]},"properties":{"shop":"convenience"}},
{"type":"Feature","geometry":{"type":"Point","coordinates":[28.1430111,-30.1945691]},"properties":{"shop":"supermarket"}},
{"type":"Feature","geometry":{"type":"Point","coordinates":[28.1434491,-30.1945085]},"properties":{"shop":"supermarket"}},
{"type":"Feature","geometry":{"type":"Point","coordinates":[28.142036,-30.1943627]},"properties":{"shop":"convenience"}},
{"type":"Feature","geometry":{"type":"Point","coordinates":[27.4956983,-29.3691294]},"properties":{"name":"Botleng General Cafe","name:en":"Botleng General Cafe","shop":"convenience"}},
{"type":"Feature","geometry":{"type":"Point","coordinates":[27.4553039,-29.3548087]},"properties":{"name":"Thabure Enterprise","name:en":"Thabure Enterprise","shop":"supermarket"}},
{"type":"Feature","geometry":{"type":"Point","coordinates":[27.4549265,-29.3545345]},"properties":{"shop":"convenience"}},
{"type":"Feature","geometry":{"type":"Point","coordinates":[27.4574866,-29.3553424]},"properties":{"name":"By Pass General Cafe","shop":"supermarket"}},
{"type":"Feature","geometry":{"type":"Point","coordinates":[27.4971701,-29.315116]},"properties":{"name":"FU Rong 2","name:en":"FU Rong 2","shop":"supermarket"}},
{"type":"Feature","geometry":{"type":"Point","coordinates":[27.4969055,-29.3151106]},"properties":{"name":"Fu Rong 1","name:en":"Fu Rong 1","shop":"supermarket"}},
{"type":"Feature","geometry":{"type":"Point","coordinates":[27.5119619,-29.3600149]},"properties":{"shop":"convenience"}},
{"type":"Feature","geometry":{"type":"Point","coordinates":[27.5102096,-29.3540715]},"properties":{"shop":"supermarket"}},
{"type":"Feature","geometry":{"type":"Point","coordinates":[27.7455061,-29.1503765]},"properties":{"name":"Jin Lin","shop":"supermarket"}},
{"type":"Feature","geometry":{"type":"Point","coordinates":[27.4797145,-29.3138373]},"properties":{"addr:floor":"G","addr:housenumber":"LNDC Centre","addr:street":"Kingsway Road","brand":"Shoprite","brand:wikidata":"Q1857639","brand:wikipedia":"en:Shoprite Holdings Ltd","check_date":"2023-04-15","currency:M":"yes","currency:R":"yes","description":"Supermarket chain","fax":"+26622310184","internet_access":"no","name":"Shoprite Checkers","opening_hours":"Mo-Fr 08:00-18:00; Sa 08:00-15:00; Su 09:00-13:00","organic":"yes","payment:cash":"yes","payment:coins":"yes","payment:credit_cards":"yes","payment:debit_cards":"yes","payment:mastercard":"yes","payment:visa":"yes","phone":"+266 2231 2371","second_hand":"no","shop":"supermarket","stroller":"yes","wheelchair":"yes"}},
{"type":"Feature","geometry":{"type":"Point","coordinates":[27.4999857,-29.314913]},"properties":{"addr:postcode":"100","addr:street":"Main North 1","name":"Sky Country","name:en":"Sky Country","shop":"convenience"}},
{"type":"Feature","geometry":{"type":"Point","coordinates":[27.7527637,-29.1477253]},"properties":{"addr:street":"Mapoteng Road","name":"Batsoeneng Bakers","name:en":"Batsoeneng Bakers","shop":"bakery"}},
{"type":"Feature","geometry":{"type":"Point","coordinates":[27.7458744,-29.1501606]},"properties":{"name":"nameng market","name:en":"Koko Meat Market","shop":"butcher"}},
{"type":"Feature","geometry":{"type":"Point","coordinates":[28.2693002,-29.5316247]},"properties":{"name":"Frasers","name:en":"Frasers","shop":"supermarket"}},
{"type":"Feature","geometry":{"type":"Point","coordinates":[28.4218763,-28.673979]},"properties":{"shop":"supermarket"}},
{"type":"Feature","geometry":{"type":"Point","coordinates":[28.1030914,-28.8405183]},"properties":{"name":"Sekhibane Store","shop":"convenience"}},
{"type":"Feature","geometry":{"type":"Point","coordinates":[27.7018909,-30.4079874]},"properties":{"name":"Welcome Supermarket","shop":"supermarket","wheelchair":"no"}},
{"type":"Feature","geometry":{"type":"Point","coordinates":[27.7021793,-30.4082812]},"properties":{"shop":"supermarket"}},
{"type":"Feature","geometry":{"type":"Point","coordinates":[27.6914558,-30.3987687]},"properties":{"shop":"supermarket"}},
{"type":"Feature","geometry":{"type":"Point","coordinates":[27.561153,-29.4178732]},"properties":{"name":"Mazenod Bakery","shop":"bakery"}},
{"type":"Feature","geometry":{"type":"Point","coordinates":[27.5119619,-29.354192]},"properties":{"shop":"convenience"}},
{"type":"Feature","geometry":{"type":"Point","coordinates":[27.5108686,-29.3375803]},"properties":{"name":"Shoprite U-Save","shop":"supermarket"}},
{"type":"Feature","geometry":{"type":"Point","coordinates":[27.5136717,-29.340376]},"properties":{"shop":"supermarket"}},
{"type":"Feature","geometry":{"type":"Point","coordinates":[27.5194828,-29.3531052]},"properties":{"shop":"convenience"}},
{"type":"Feature","geometry":{"type":"Point","coordinates":[27.4931534,-29.3145543]},"properties":{"name":"Hlatsoa Cleaning Products","shop":"convenience"}},
{"type":"Feature","geometry":{"type":"Point","coordinates":[27.4918788,-29.3130756]},"properties":{"addr:housenumber":"Cnr Airport Rd & Moshoeshoe Rd","addr:street":"Moshoeshoe Road","check_date":"2023-04-11","description":"Professional Services, Corporate management","internet_access":"yes","name":"Sign World","opening_hours":"Mo-Fr 08:30-17:30; Sa 08:30-13:00","payment:credit_cards":"yes","payment:debit_cards":"yes","payment:mastercard":"yes","payment:visa":"yes","phone":"+266 2231 3221","shop":"convenience","website":"https://www.facebook.com/signworld.ls","wheelchair":"limited"}},
{"type":"Feature","geometry":{"type":"Point","coordinates":[27.4927905,-29.3120707]},"properties":{"name":"Tip-Top","shop":"butcher"}},
{"type":"Feature","geometry":{"type":"Point","coordinates":[27.504646,-29.3317111]},"properties":{"shop":"butcher"}},
{"type":"Feature","geometry":{"type":"Point","coordinates":[27.4953173,-29.3124141]},"properties":{"name":"Maseru Convenience Store","shop":"convenience"}},
{"type":"Feature","geometry":{"type":"Point","coordinates":[27.4959486,-29.3130963]},"properties":{"name":"Africa Supermarket","shop":"supermarket"}},
{"type":"Feature","geometry":{"type":"Point","coordinates":[27.4925393,-29.3140608]},"properties":{"addr:street":"Moshoeshoe Road","name":"JACKPOT Supermarket","shop":"supermarket"}},
{"type":"Feature","geometry":{"type":"Point","coordinates":[27.5066882,-29.3321102]},"properties":{"name":"1,2,3 Supermarket","shop":"supermarket"}},
{"type":"Feature","geometry":{"type":"Point","coordinates":[27.4858821,-29.3356958]},"properties":{"air_conditioning":"yes","building:levels":"1","check_date":"2023-04-30","currency:M":"yes","currency:R":"yes","description":"Grocery Store or Supermarket","internet_access":"no","name":"Shoprite","opening_hours":"Mo-Fr 08:30-19:00; Sa 08:30-17:00; Su 08:00-15:00","organic":"yes","payment:cash":"yes","payment:credit_cards":"yes","payment:mastercard":"yes","payment:visa":"yes","phone":"+266 2232 0367","second_hand":"no","shop":"supermarket","stroller":"yes","website":"https://www.shoprite.co.za","wheelchair":"yes"}},
{"type":"Feature","geometry":{"type":"Point","coordinates":[27.4814477,-29.3358903]},"properties":{"addr:housenumber":"Maseru Mall","addr:street":"Pope John Paul II Road","air_conditioning":"yes","check_date":"2023-04-30","currency:M":"yes","currency:R":"yes","description":"Department Store","email":"gamemaseru@game.co.za","internet_access":"no","name":"Game","opening_hours":"Mo-Fr 08:00-19:00; Sa 08:00-17:00; Su,PH 08:00-15:00","payment:cash":"yes","payment:credit_cards":"yes","payment:mastercard":"yes","payment:visa":"yes","phone":"+266 5226 2000","second_hand":"no","shop":"supermarket","stroller":"yes","website":"https://www.game.co.ls","wheelchair":"yes"}},
{"type":"Feature","geometry":{"type":"Point","coordinates":[27.5302173,-29.3805175]},"properties":{"shop":"supermarket"}},
{"type":"Feature","geometry":{"type":"Point","coordinates":[27.4967873,-29.3148956]},"properties":{"name":"Happy Supermarket","shop":"supermarket"}},
{"type":"Feature","geometry":{"type":"Point","coordinates":[27.5148938,-29.3421255]},"properties":{"name":"Mmelesi Butchery","shop":"butcher"}},
{"type":"Feature","geometry":{"type":"Point","coordinates":[27.4912613,-29.3161484]},"properties":{"addr:housename":"NRH","addr:street":"Kingsway","check_date":"2023-04-18","currency:M":"yes","currency:R":"yes","description":"Grocery Store","internet_access":"no","name":"Usave","payment:cash":"yes","payment:credit_cards":"yes","payment:debit_cards":"yes","payment:mastercard":"yes","payment:visa":"yes","second_hand":"no","shop":"supermarket","stroller":"yes","wheelchair":"yes"}},
{"type":"Feature","geometry":{"type":"Point","coordinates":[27.5195955,-29.3502249]},"properties":{"name":"MR Wors Butchery","shop":"butcher"}},
{"type":"Feature","geometry":{"type":"Point","coordinates":[27.5198128,-29.3492138]},"properties":{"name":"Your Daily Discount Shop","shop":"supermarket"}},
{"type":"Feature","geometry":{"type":"Point","coordinates":[29.0643807,-29.2883324]},"properties":{"addr:floor":"G","addr:housenumber":"Mokhotlong","addr:street":"Mokhotlong main Road","check_date":"2023-05-30","currency:M":"yes","currency:R":"yes","description":"Grocery Store","internet_access":"no","name":"Shoprite","opening_hours":"Mo-Fr 08:00-18:00; Sa 08:00-17:00; Su 08:00-15:00","payment:credit_cards":"yes","payment:mastercard":"yes","payment:mobile_phone":"yes","payment:visa":"yes","phone":"+266 2292 0781","second_hand":"no","shop":"supermarket","stroller":"yes","website":"https://www.shoprite.co.za","wheelchair":"yes"}},
{"type":"Feature","geometry":{"type":"Point","coordinates":[27.6246607,-30.395133]},"properties":{"name":"Machabeng Farm Feed","shop":"farm"}},
{"type":"Feature","geometry":{"type":"Point","coordinates":[28.0432678,-28.8709267]},"properties":{"name":"Hua Long","shop":"supermarket"}},
{"type":"Feature","geometry":{"type":"Point","coordinates":[28.0403134,-28.8749192]},"properties":{"name":"Sms","shop":"supermarket"}},
{"type":"Feature","geometry":{"type":"Point","coordinates":[29.0646351,-29.2882115]},"properties":{"name":"Shoprite","shop":"supermarket"}},
{"type":"Feature","geometry":{"type":"Point","coordinates":[28.2486682,-28.7694271]},"properties":{"name":"Usave","shop":"supermarket"}},
{"type":"Feature","geometry":{"type":"Point","coordinates":[28.2512266,-28.7277484]},"properties":{"entrance":"main"}},
{"type":"Feature","geometry":{"type":"Point","coordinates":[27.981555,-30.2372891]},"properties":{"shop":"convenience"}},
{"type":"Feature","geometry":{"type":"Point","coordinates":[27.9946198,-30.246486]},"properties":{"shop":"convenience"}},
{"type":"Feature","geometry":{"type":"Point","coordinates":[28.0069783,-30.242176]},"properties":{"name":"Meloling General Dealer","shop":"convenience"}},
{"type":"Feature","geometry":{"type":"Point","coordinates":[28.0061696,-30.2450731]},"properties":{"shop":"convenience"}},
{"type":"Feature","geometry":{"type":"Point","coordinates":[28.0584801,-30.2784159]},"properties":{"shop":"convenience"}},
{"type":"Feature","geometry":{"type":"Point","coordinates":[28.1415371,-30.27515]},"properties":{"shop":"convenience"}},
{"type":"Feature","geometry":{"type":"Point","coordinates":[28.142496,-30.1947596]},"properties":{"name":"Doti Store","shop":"convenience"}},
{"type":"Feature","geometry":{"type":"Point","coordinates":[27.9812063,-30.2367049]},"properties":{"name":"Leratong General Dealer","shop":"convenience"}},
{"type":"Feature","geometry":{"type":"Point","coordinates":[27.9957139,-30.2478776]},"properties":{"shop":"convenience"}},
{"type":"Feature","geometry":{"type":"Point","coordinates":[27.4517288,-29.3537557]},"properties":{"shop":"convenience"}},
{"type":"Feature","geometry":{"type":"Point","coordinates":[27.5498452,-29.45169]},"properties":{"name":"Moonshine Cafe & Restaurant","shop":"convenience"}},
{"type":"Feature","geometry":{"type":"Point","coordinates":[27.5020696,-29.3410335]},"properties":{"shop":"convenience"}},
{"type":"Feature","geometry":{"type":"Point","coordinates":[28.1733779,-30.0228921]},"properties":{"shop":"convenience"}},
{"type":"Feature","geometry":{"type":"Point","coordinates":[27.8130745,-29.3193401]},"properties":{"shop":"convenience"}},
{"type":"Feature","geometry":{"type":"Point","coordinates":[27.7732734,-29.5235836]},"properties":{"shop":"convenience"}},
{"type":"Feature","geometry":{"type":"Point","coordinates":[27.7331905,-29.4671121]},"properties":{"shop":"supermarket"}},
{"type":"Feature","geometry":{"type":"Point","coordinates":[27.5372031,-29.3685865]},"properties":{"name":"senone Supermarket","shop":"supermarket"}},
{"type":"Feature","geometry":{"type":"Point","coordinates":[27.5594063,-29.3799567]},"properties":{"name":"Lucky 7 Supermarket","shop":"supermarket"}},
{"type":"Feature","geometry":{"type":"Point","coordinates":[27.5369185,-29.3685724]},"properties":{"name":"Hillside Butchery","shop":"butcher"}},
{"type":"Feature","geometry":{"type":"Point","coordinates":[27.4886264,-29.3150295]},"properties":{"addr:floor":"G","addr:housenumber":"Carlton Centre","addr:street":"Kingsway","air_conditioning":"no","check_date":"2023-05-27","currency:M":"yes","currency:R":"yes","internet_access":"no","name":"Munshi Mini Market (Halal)","opening_hours":"Mo-Sa 09:00-17:00","organic":"yes","payment:credit_cards":"yes","payment:debit_cards":"yes","payment:mastercard":"yes","payment:visa":"yes","second_hand":"no","shop":"convenience","stroller":"limited","wheelchair":"yes"}},
{"type":"Feature","geometry":{"type":"Point","coordinates":[27.2262243,-29.9318516]},"properties":{"name":"also-","name:en":"Lai-Lai General Cafe","shop":"convenience"}},
{"type":"Feature","geometry":{"type":"Point","coordinates":[27.2173253,-29.9420756]},"properties":{"name":"Econet Shop","shop":"convenience"}},
{"type":"Feature","geometry":{"type":"Point","coordinates":[27.4965529,-29.3153147]},"properties":{"addr:city":"Maseru","addr:postcode":"100","addr:street":"Market Road","name":"Ha Mokotso Fruit & Vegetables","organic":"yes","payment:cash":"yes","shop":"farm"}},
{"type":"Feature","geometry":{"type":"Point","coordinates":[27.4786535,-29.3125893]},"properties":{"addr:floor":"G","addr:housenumber":"Maseru","addr:street":"Kingsway","check_date":"2023-05-03","currency:M":"yes","currency:R":"yes","internet_access":"no","name":"Victoria Market Spice Shop","opening_hours":"08:30-18:30","payment:cash":"yes","phone":"57636778","second_hand":"no","shop":"convenience","wheelchair":"limited"}},
{"type":"Feature","geometry":{"type":"Point","coordinates":[27.7593326,-29.1285189]},"properties":{"changing_table":"no","level":"1","name":"Ha Chief","opening_hours":"Mo,Tu,Th,Fr 09:00-18:30; We 09:00-20:00; Sa 09:00-17:00; PH open","shop":"supermarket","toilets":"yes","toilets:access":"customers","toilets:wheelchair":"limited","wheelchair":"limited"}},
{"type":"Feature","geometry":{"type":"Point","coordinates":[27.4793999,-29.3147191]},"properties":{"addr:street":"Pioneer Road","name":"Engen mini Market and pie shop","opening_hours":"24/7","shop":"convenience"}},
{"type":"Feature","geometry":{"type":"Point","coordinates":[27.5006627,-29.3148269]},"properties":{"addr:street":"Main North 1","name":"EconoFoods","shop":"supermarket"}},
{"type":"Feature","geometry":{"type":"Point","coordinates":[27.7599121,-29.1293852]},"properties":{"cash_withdrawal":"M-pesa","changing_table":"no","level":"1","name":"Shibobo Tuck Shop","opening_hours":"Mo,Tu,Th,Fr 09:00-18:30; We 09:00-20:00; Sa 09:00-17:00; PH open","organic":"no","shop":"convenience","toilets":"yes","toilets:access":"permissive","toilets:wheelchair":"no","wheelchair":"limited"}},
{"type":"Feature","geometry":{"type":"Point","coordinates":[28.04891,-28.8736468]},"properties":{"check_date":"2023-06-20","name":"Sekoting Butchery","payment:cash":"yes","shop":"butcher"}},
{"type":"Feature","geometry":{"type":"Point","coordinates":[28.6027477,-29.4656786]},"properties":{"name":"Small shop with basics","shop":"convenience"}},
{"type":"Feature","geometry":{"type":"Point","coordinates":[27.5740327,-29.3545736]},"properties":{"addr:street":"Ha Mot≈°oeneng - Ha Mosalla Road","name":"Butcher - Ha Fako","opening_hours":"Mo-Su 08:00-17:00","shop":"butcher"}},
{"type":"Feature","geometry":{"type":"Point","coordinates":[27.5740685,-29.3545189]},"properties":{"addr:housenumber":"0002","opening_hours":"Mo-Su 09:00-18:00","shop":"butcher"}},
{"type":"Feature","geometry":{"type":"Point","coordinates":[28.1113536,-28.9113374]},"properties":{"check_date":"2024-05-29","shop":"farm"}},
{"type":"Feature","geometry":{"type":"LineString","coordinates":[[27.4762325,-30.1510704],[27.4762122,-30.1510651],[27.4762398,-30.1509857],[27.4762252,-30.1509819],[27.4762509,-30.150908],[27.4762333,-30.1509034],[27.4762716,-30.1507934],[27.4766318,-30.1508871],[27.4764962,-30.1512773],[27.4764029,-30.1512531],[27.4764103,-30.1512317],[27.4763338,-30.1512118],[27.4763404,-30.1511928],[27.4762597,-30.1511718],[27.4762683,-30.1511471],[27.4762109,-30.1511322],[27.4762325,-30.1510704]]},"properties":{"building":"commercial","name":"Mellinium Supestore","shop":"supermarket"}},
{"type":"Feature","geometry":{"type":"LineString","coordinates":[[27.5626378,-29.267131],[27.5625789,-29.2670145],[27.5626977,-29.2669688],[27.5627566,-29.2670852],[27.5626378,-29.267131]]},"properties":{"building":"yes","shop":"supermarket"}},
{"type":"Feature","geometry":{"type":"LineString","coordinates":[[27.5625777,-29.2669243],[27.5625562,-29.2668757],[27.5626692,-29.2668376],[27.5626907,-29.2668862],[27.5625777,-29.2669243]]},"properties":{"building":"yes","shop":"supermarket"}},
{"type":"Feature","geometry":{"type":"LineString","coordinates":[[27.2448174,-29.8217867],[27.2446512,-29.8220464],[27.2447964,-29.8221163],[27.2447856,-29.8221332],[27.2449191,-29.8221975],[27.2450961,-29.8219209],[27.2448174,-29.8217867]]},"properties":{"building":"yes","shop":"supermarket"}},
{"type":"Feature","geometry":{"type":"LineString","coordinates":[[27.244569,-29.8220784],[27.2443759,-29.8224032],[27.2444823,-29.8226815],[27.245057,-29.8227668],[27.2451789,-29.8223771],[27.244569,-29.8220784]]},"properties":{"amenity":"marketplace"}},
{"type":"Feature","geometry":{"type":"LineString","coordinates":[[27.2463277,-29.8241691],[27.2461993,-29.8244528],[27.2466354,-29.8246013],[27.2467607,-29.8243244],[27.2469457,-29.8243875],[27.2469926,-29.8242839],[27.2470095,-29.8242467],[27.2470376,-29.8241844],[27.2469633,-29.8241591],[27.247057,-29.8239521],[27.2468687,-29.823888],[27.246816,-29.8240045],[27.2467858,-29.8239942],[27.2467459,-29.8240824],[27.2467165,-29.8240723],[27.24667,-29.8241751],[27.2466418,-29.8241655],[27.2466024,-29.8242526],[27.2464877,-29.8242135],[27.2465036,-29.8241784],[27.2465283,-29.8241238],[27.2464982,-29.8241135],[27.2465342,-29.8240339],[27.246509,-29.8240254],[27.2465468,-29.823942],[27.2465196,-29.8239327],[27.2465757,-29.8238088],[27.246548,-29.8237994],[27.2465938,-29.823698],[27.2462362,-29.8235762],[27.2462212,-29.8236094],[27.2462356,-29.8236143],[27.2462002,-29.8236925],[27.2462104,-29.823696],[27.2461489,-29.8238319],[27.2462478,-29.8238656],[27.246166,-29.8240463],[27.2462031,-29.8240589],[27.2461765,-29.8241176],[27.2463277,-29.8241691]]},"properties":{"brand":"Shoprite","brand:wikidata":"Q1857639","building":"commercial","name":"Shoprite","shop":"supermarket"}},
{"type":"Feature","geometry":{"type":"LineString","coordinates":[[27.2474282,-29.8234091],[27.247546,-29.823157900000003],[27.2479904,-29.8233149],[27.2479221,-29.8234649],[27.247898,-29.8235211],[27.2478725,-29.823566],[27.2474282,-29.8234091]]},"properties":{"building":"commercial","name":"Asia Supermarket","shop":"supermarket"}},
{"type":"Feature","geometry":{"type":"LineString","coordinates":[[28.6735477,-30.1136971],[28.6735891,-30.1136863],[28.673608,-30.1137404],[28.6735667,-30.1137512],[28.6735477,-30.1136971]]},"properties":{"building":"commercial","name":"subsistence shop","shop":"convenience"}},
{"type":"Feature","geometry":{"type":"LineString","coordinates":[[27.2514839,-29.8085022],[27.2514959,-29.8083458],[27.2514458,-29.808343],[27.2514423,-29.8083888],[27.2514045,-29.8083866],[27.2514001,-29.808444],[27.2514392,-29.8084463],[27.2514352,-29.8084994],[27.2514839,-29.8085022]]},"properties":{"building":"yes","shop":"convenience","source":"bing"}},
{"type":"Feature","geometry":{"type":"LineString","coordinates":[[28.6843818,-30.1182602],[28.6846026,-30.1181553],[28.6846576,-30.118242],[28.6844369,-30.1183469],[28.6843818,-30.1182602]]},"properties":{"building":"yes","shop":"supermarket"}},
{"type":"Feature","geometry":{"type":"LineString","coordinates":[[27.8062984,-29.2773548],[27.806278,-29.2774197],[27.806405,-29.2774502],[27.8064254,-29.2773851],[27.8062984,-29.2773548]]},"properties":{"building":"yes","shop":"farm"}},
{"type":"Feature","geometry":{"type":"LineString","coordinates":[[27.8090537,-29.2748809],[27.8091325,-29.274771],[27.8092633,-29.2748423],[27.8091836,-29.2749534],[27.8091022,-29.274909],[27.8090967,-29.2749167],[27.8090741,-29.2749044],[27.8090805,-29.2748955],[27.8090537,-29.2748809]]},"properties":{"building":"yes","shop":"supermarket"}},
{"type":"Feature","geometry":{"type":"LineString","coordinates":[[27.2451774,-29.8224486],[27.2450906,-29.8227013],[27.245534,-29.8228204],[27.2455868,-29.8226465],[27.2451774,-29.8224486]]},"properties":{"amenity":"marketplace","building":"yes"}},
{"type":"Feature","geometry":{"type":"LineString","coordinates":[[28.0442214,-28.8707115],[28.0444281,-28.870594],[28.0447167,-28.8704292],[28.0449858,-28.8707907],[28.0444937,-28.8710716],[28.044471,-28.871041],[28.044496,-28.8710268],[28.0444034,-28.870902],[28.0443747,-28.8709183],[28.0443504,-28.8708855],[28.0443796,-28.8708689],[28.0442752,-28.870728],[28.0442439,-28.8707456],[28.0442214,-28.8707115]]},"properties":{"brand":"Shoprite","brand:wikidata":"Q1857639","building":"commercial","check_date":"2024-08-05","internet_access":"no","name":"Shoprite","payment:cash":"yes","payment:credit_cards":"yes","payment:mastercard":"yes","payment:mobile_phone":"yes","payment:visa":"yes","shop":"supermarket","wheelchair":"yes"}},
{"type":"Feature","geometry":{"type":"LineString","coordinates":[[27.2465873,-29.8232729],[27.2465672,-29.8233165],[27.2466188,-29.8233369],[27.2466631,-29.8233538],[27.2467174,-29.8233578],[27.246761,-29.8233788],[27.2468126,-29.8233759],[27.2468542,-29.8233898],[27.2468508,-29.8233974],[27.2469078,-29.8234282],[27.2469494,-29.8234265],[27.2470057,-29.8234405],[27.2470473,-29.8234509],[27.2470473,-29.8234428],[27.2471083,-29.8234631],[27.2471117,-29.8234399],[27.2465873,-29.8232729]]},"properties":{"amenity":"marketplace","building":"yes"}},
{"type":"Feature","geometry":{"type":"LineString","coordinates":[[27.246112,-29.8231149],[27.24606,-29.8232193],[27.2460492,-29.8232805],[27.2460512,-29.8234018],[27.2460869,-29.8234316],[27.2461818,-29.8234244],[27.2462461,-29.8233686],[27.2462937,-29.8232446],[27.2462359,-29.823211],[27.2462649,-29.8231626],[27.2462247,-29.8231475],[27.246112,-29.8231149]]},"properties":{"amenity":"marketplace"}},
{"type":"Feature","geometry":{"type":"LineString","coordinates":[[27.2464031,-29.8232621],[27.2464634,-29.8232842],[27.246442,-29.8233284],[27.2464674,-29.8233494],[27.2464406,-29.8234029],[27.2463642,-29.8233761],[27.2463092,-29.8235064],[27.2463373,-29.8235006],[27.2463373,-29.8235495],[27.2462824,-29.8235553],[27.2462314,-29.823539],[27.2463213,-29.8233563],[27.2463508,-29.8233668],[27.2464031,-29.8232621]]},"properties":{"amenity":"marketplace","building":"yes"}},
{"type":"Feature","geometry":{"type":"LineString","coordinates":[[27.2498562,-29.823052],[27.2496926,-29.8232126],[27.2496577,-29.8232428],[27.2495826,-29.8233778],[27.2495853,-29.823436],[27.2500896,-29.8235895],[27.2501164,-29.8236477],[27.2504597,-29.8237408],[27.2506877,-29.8232801],[27.2498562,-29.823052]]},"properties":{"amenity":"marketplace"}},
{"type":"Feature","geometry":{"type":"LineString","coordinates":[[27.2490464,-29.8231423],[27.2491108,-29.8231004],[27.2491671,-29.8230329],[27.2492019,-29.8230375],[27.2491724,-29.823112],[27.2491778,-29.8231725],[27.2491161,-29.82324],[27.2490464,-29.8232214],[27.2490464,-29.8231423]]},"properties":{"amenity":"marketplace","building":"yes"}},
{"type":"Feature","geometry":{"type":"LineString","coordinates":[[27.2486475,-29.8240616],[27.2486314,-29.8241826],[27.2485965,-29.8242896],[27.2486877,-29.8242966],[27.2487789,-29.824271],[27.248795,-29.8242268],[27.2487682,-29.824173300000003],[27.2486985,-29.8242012],[27.248677,-29.8241849],[27.2486877,-29.8241128],[27.2486475,-29.8240616]]},"properties":{"amenity":"marketplace","building":"yes"}},
{"type":"Feature","geometry":{"type":"LineString","coordinates":[[27.243121,-29.8224316],[27.2431192,-29.8226267],[27.2433394,-29.8226507],[27.2436172,-29.822609],[27.2437201,-29.822599],[27.2437355,-29.8225079],[27.2437561,-29.8224948],[27.2438017,-29.8225309],[27.2438273,-29.8225115],[27.2438597,-29.8225411],[27.244051,-29.8224239],[27.2442108,-29.8223076],[27.2443315,-29.822161],[27.2444362,-29.8220339],[27.2443401,-29.8219515],[27.244294,-29.8219957],[27.2441947,-29.8220818],[27.2441439,-29.8221427],[27.2441868,-29.8222196],[27.2440306,-29.822347],[27.24398,-29.8223691],[27.2439469,-29.8223706],[27.2438217,-29.8224396],[27.2436863,-29.8224228],[27.2436552,-29.8225224],[27.243121,-29.8224316]]},"properties":{"amenity":"marketplace"}},
{"type":"Feature","geometry":{"type":"LineString","coordinates":[[27.7419255,-29.150904],[27.7420704,-29.1508599],[27.742103,-29.150931],[27.7421356,-29.1509196],[27.7421551,-29.1509552],[27.7421372,-29.1509637],[27.7422229,-29.1511618],[27.7417924,-29.151293],[27.7417428,-29.1511724],[27.7418687,-29.1511333],[27.7419381,-29.151105],[27.7419507,-29.1511023],[27.742004,-29.1510874],[27.7419869,-29.1510408],[27.7419353,-29.1509215],[27.741905,-29.1509266],[27.7418991,-29.1509133],[27.7419255,-29.150904]]},"properties":{"building":"yes","name":"Mansoor's","opening_hours":"Mo-Sa 09:00-17:30","shop":"supermarket"}},
{"type":"Feature","geometry":{"type":"LineString","coordinates":[[27.7416462,-29.1514547],[27.7417193,-29.1514477],[27.7417152,-29.1514154],[27.7419366,-29.151394],[27.7419407,-29.1514263],[27.742056,-29.1514152],[27.7420888,-29.1516548],[27.7419693,-29.1516628],[27.7419783,-29.1517618],[27.7416884,-29.1517898],[27.7416462,-29.1514547]]},"properties":{"building":"commercial","name":"Shoprite Usave","shop":"supermarket"}},
{"type":"Feature","geometry":{"type":"LineString","coordinates":[[27.742244,-29.1515786],[27.7422585,-29.151764],[27.7425964,-29.1517439],[27.7425819,-29.1515585],[27.7424631,-29.1515667],[27.7423601,-29.1515744],[27.742244,-29.1515786]]},"properties":{"building":"commercial","name":"Rite Price","opening_hours":"sunrise-sunset","shop":"supermarket"}},
{"type":"Feature","geometry":{"type":"LineString","coordinates":[[27.7578127,-29.1330414],[27.7578485,-29.1330919],[27.7579438,-29.1330403],[27.757908,-29.1329898],[27.7578127,-29.1330414]]},"properties":{"building":"commercial","name":"Scalo Shop","shop":"convenience"}},
{"type":"Feature","geometry":{"type":"LineString","coordinates":[[28.0530548,-29.8412637],[28.0529742,-29.8413896],[28.0527801,-29.841296],[28.0528436,-29.8411967],[28.052814,-29.8411824],[28.052807,-29.8411933],[28.0527814,-29.841181],[28.0528055,-29.8411435],[28.0530548,-29.8412637]]},"properties":{"building":"yes","shop":"convenience"}},
{"type":"Feature","geometry":{"type":"LineString","coordinates":[[27.7462208,-29.1499518],[27.7463555,-29.1498621],[27.7464109,-29.1499256],[27.7462762,-29.1500153],[27.7462208,-29.1499518]]},"properties":{"building":"commercial","shop":"butcher"}},
{"type":"Feature","geometry":{"type":"LineString","coordinates":[[27.7468007,-29.1495358],[27.746922,-29.1496794],[27.7468189,-29.1497457],[27.7466977,-29.1496022],[27.7468007,-29.1495358]]},"properties":{"amenity":"marketplace","building":"commercial"}},
{"type":"Feature","geometry":{"type":"LineString","coordinates":[[27.7411922,-29.1501995],[27.7412762,-29.1501726],[27.7412794,-29.1501803],[27.7413155,-29.1501688],[27.7413252,-29.150192],[27.7416408,-29.1500909],[27.7417333,-29.1503112],[27.7413981,-29.1504186],[27.7413822,-29.1503808],[27.741317,-29.1504016],[27.7413246,-29.1504198],[27.7412856,-29.1504323],[27.7412919,-29.1504473],[27.7410907,-29.1505118],[27.741021,-29.1503458],[27.741226,-29.1502801],[27.7411922,-29.1501995]]},"properties":{"building":"yes","name":"Four Square","opening_hours":"Mo-Sa 09:00-17:00","shop":"supermarket"}},
{"type":"Feature","geometry":{"type":"LineString","coordinates":[[28.2491322,-28.7638723],[28.2493445,-28.7642571],[28.2493936,-28.7642446],[28.2494058,-28.7642607],[28.249463,-28.7642428],[28.2494916,-28.7642893],[28.2497938,-28.7642267],[28.249802,-28.7642446],[28.2498591,-28.7642392],[28.2498632,-28.7641945],[28.2498101,-28.7641515],[28.249563,-28.7639994],[28.2495304,-28.7640119],[28.2494548,-28.7639689],[28.2494609,-28.7639367],[28.2492527,-28.7637989],[28.2491322,-28.7638723]]},"properties":{"building":"supermarket","name":"Lewis","shop":"supermarket"}},
{"type":"Feature","geometry":{"type":"LineString","coordinates":[[28.2488731,-28.7646677],[28.2492066,-28.7645625],[28.2493087,-28.7648113],[28.2489752,-28.764916500000003],[28.2488731,-28.7646677]]},"properties":{"building":"commercial","name":"Saverite Supermarket","shop":"supermarket"}},
{"type":"Feature","geometry":{"type":"LineString","coordinates":[[27.7438249,-29.1499659],[27.7438493,-29.1499972],[27.743835,-29.1500057],[27.7438532,-29.150029],[27.7439141,-29.1499928],[27.7439464,-29.1500343],[27.7439728,-29.1500186],[27.7439554,-29.1499962],[27.7439796,-29.1499819],[27.7439222,-29.1499082],[27.7438249,-29.1499659]]},"properties":{"building":"yes","shop":"convenience"}},
{"type":"Feature","geometry":{"type":"LineString","coordinates":[[27.7464557,-29.1492734],[27.7465591,-29.1492087],[27.7467059,-29.1493874],[27.7466024,-29.1494522],[27.7464557,-29.1492734]]},"properties":{"building":"yes","name":"Best Price","shop":"supermarket"}},
{"type":"Feature","geometry":{"type":"LineString","coordinates":[[27.7459638,-29.1496184],[27.7460746,-29.1495547],[27.7461805,-29.1494939],[27.7463009,-29.1496539],[27.7460842,-29.1497784],[27.7459638,-29.1496184]]},"properties":{"building":"commercial","name":"Roadside Butchers","shop":"butcher"}},
{"type":"Feature","geometry":{"type":"LineString","coordinates":[[27.4689801,-30.1355339],[27.4690203,-30.1356157],[27.4689197,-30.1356526],[27.4688796,-30.1355708],[27.4689801,-30.1355339]]},"properties":{"building":"yes","shop":"supermarket"}},
{"type":"Feature","geometry":{"type":"LineString","coordinates":[[28.250789,-28.7656036],[28.2506894,-28.7652021],[28.2506302,-28.7651833],[28.250357,-28.7652421],[28.2502882,-28.7653009],[28.2501966,-28.7653167],[28.2501622,-28.7653669],[28.2500542,-28.7653913],[28.249997,-28.7654587],[28.2500591,-28.7657499],[28.250789,-28.7656036]]},"properties":{"building":"supermarket","name":"ha malome","shop":"supermarket"}},
{"type":"Feature","geometry":{"type":"LineString","coordinates":[[28.2515168,-28.7674382],[28.2516812,-28.7673803],[28.2517597,-28.7675515],[28.2515953,-28.7676094],[28.2515168,-28.7674382]]},"properties":{"building":"commercial","name":"Gren's No 2 Supermarket","shop":"supermarket"}},
{"type":"Feature","geometry":{"type":"LineString","coordinates":[[28.2529192,-28.7675991],[28.2530585,-28.7675203],[28.2530409,-28.7674963],[28.253111,-28.7674566],[28.2531287,-28.7674805],[28.2531603,-28.7674626],[28.2532989,-28.7676506],[28.2530579,-28.7677872],[28.2529192,-28.7675991]]},"properties":{"building":"commercial","name":"Malome Supermarket","shop":"supermarket"}},
{"type":"Feature","geometry":{"type":"LineString","coordinates":[[28.2518169,-28.7674131],[28.251809,-28.767385],[28.2518635,-28.7673732],[28.2519099,-28.7675369],[28.2517848,-28.7675641],[28.2517463,-28.7674285],[28.2518169,-28.7674131]]},"properties":{"building":"commercial","name":"High Way Supermarket","shop":"supermarket"}},
{"type":"Feature","geometry":{"type":"LineString","coordinates":[[27.7054419,-30.4079603],[27.7057139,-30.4079854],[27.7056837,-30.4082287],[27.7054828,-30.4082102],[27.7055062,-30.4080205],[27.7054352,-30.408014],[27.7054419,-30.4079603]]},"properties":{"amenity":"marketplace"}},
{"type":"Feature","geometry":{"type":"LineString","coordinates":[[27.7264454,-29.4505372],[27.7264774,-29.4503947],[27.7266107,-29.4504173],[27.7265788,-29.4505598],[27.7264454,-29.4505372]]},"properties":{"name":"Ha 'Ma Sqao","shop":"convenience","source:geometry":"Bing"}},
{"type":"Feature","geometry":{"type":"LineString","coordinates":[[27.7249812,-29.4486297],[27.7248539,-29.4485945],[27.7248854,-29.448508],[27.7250127,-29.4485431],[27.7249812,-29.4486297]]},"properties":{"building":"yes","capacity":"50","delivery":"yes","name":"Stevo","shop":"convenience","source:geometry":"Bing","takeaway":"yes"}},
{"type":"Feature","geometry":{"type":"LineString","coordinates":[[27.7238531,-29.4490435],[27.7237783,-29.4490196],[27.7238199,-29.448921],[27.72371,-29.4488858],[27.7237405,-29.4488133],[27.7239252,-29.4488724],[27.7238531,-29.4490435]]},"properties":{"building":"yes","name":"Mzalas","shop":"convenience","source:geometry":"Bing"}},
{"type":"Feature","geometry":{"type":"LineString","coordinates":[[27.4682062,-30.1474901],[27.4683336,-30.1474914],[27.4683313,-30.1476571],[27.4682039,-30.1476557],[27.4682062,-30.1474901]]},"properties":{"building":"yes","shop":"farm"}},
{"type":"Feature","geometry":{"type":"LineString","coordinates":[[27.4906115,-29.3148794],[27.4908093,-29.3148606],[27.4908268,-29.3150005],[27.4909823,-29.3149857],[27.4910099,-29.3152073],[27.4906565,-29.3152408],[27.4906115,-29.3148794]]},"properties":{"addr:housenumber":"Maseru","addr:street":"Kingsway","amenity":"marketplace","building":"commercial","check_date":"2023-05-11","description":"Street Vendors","internet_access":"no","name":"Mafafa","payment:cards":"no","payment:credit_cards":"no","payment:debit_cards":"no","wheelchair":"limited"}},
{"type":"Feature","geometry":{"type":"LineString","coordinates":[[27.4797655,-30.1541901],[27.4799111,-30.1541331],[27.4799332,-30.1541753],[27.4799502,-30.1541686],[27.4799968,-30.1542577],[27.4798342,-30.1543214],[27.4797655,-30.1541901]]},"properties":{"building":"yes","name":"Ha Mafoso","shop":"butcher"}},
{"type":"Feature","geometry":{"type":"LineString","coordinates":[[27.4807833,-30.1541459],[27.4808648,-30.1542088],[27.4807713,-30.1542993],[27.4806898,-30.1542364],[27.4807833,-30.1541459]]},"properties":{"building":"yes","shop":"butcher"}},
{"type":"Feature","geometry":{"type":"LineString","coordinates":[[27.4805169,-30.1525013],[27.4804853,-30.152474],[27.4803489,-30.1523526],[27.4805051,-30.1522175],[27.4807554,-30.1523642],[27.4815261,-30.1525776],[27.4813033,-30.1530903],[27.4814362,-30.1534639],[27.4815536,-30.1537905],[27.4814429,-30.153847],[27.481302,-30.1536651],[27.4812626,-30.1536878],[27.4812175,-30.1536976],[27.4810766,-30.1536115],[27.4809658,-30.1536196],[27.4808775,-30.1537284],[27.480701,-30.1536261],[27.4810222,-30.1531389],[27.4810146,-30.1530365],[27.4808569,-30.1529586],[27.4808212,-30.1528352],[27.4809132,-30.1526776],[27.4805169,-30.1525013]]},"properties":{"amenity":"marketplace","fixme":"confirm","landuse":"retail","name":"Marketplace"}},
{"type":"Feature","geometry":{"type":"LineString","coordinates":[[27.4746425,-29.2956623],[27.4746982,-29.295655],[27.4747223,-29.2957958],[27.4746667,-29.295803],[27.4746425,-29.2956623]]},"properties":{"amenity":"marketplace","building":"yes"}},
{"type":"Feature","geometry":{"type":"LineString","coordinates":[[27.4808279,-30.1522963],[27.481013,-30.151851],[27.4820805,-30.1521433],[27.4819893,-30.1523195],[27.481933,-30.1524935],[27.4821395,-30.1525561],[27.4821181,-30.1526303],[27.4823058,-30.1526906],[27.4822844,-30.1528182],[27.4816648,-30.152577],[27.4816836,-30.152512],[27.4808279,-30.1522963]]},"properties":{"amenity":"marketplace"}},
{"type":"Feature","geometry":{"type":"LineString","coordinates":[[27.4920175,-29.3131223],[27.4920737,-29.3131059],[27.4921394,-29.3131404],[27.4921603,-29.3132058],[27.4921523,-29.313231],[27.4921945,-29.3132895],[27.4922635,-29.3130176],[27.4922957,-29.3129907],[27.492749,-29.3130737],[27.4926578,-29.3133684],[27.4925988,-29.313552],[27.4925565,-29.3135877],[27.4924854,-29.3135818],[27.4922703,-29.3134538],[27.4921448,-29.313376],[27.4921147,-29.3133444],[27.492,-29.3132848],[27.4919444,-29.3132579],[27.4919457,-29.3131965],[27.4919906,-29.3131357],[27.4920175,-29.3131223]]},"properties":{"amenity":"marketplace","name":"Sefika"}},
{"type":"Feature","geometry":{"type":"LineString","coordinates":[[28.2499928,-28.7678132],[28.2500382,-28.7678815],[28.2499915,-28.7679053],[28.2500386,-28.7679761],[28.2499637,-28.7680144],[28.2499163,-28.7679432],[28.2498523,-28.7679759],[28.2498072,-28.7679081],[28.2499928,-28.7678132]]},"properties":{"building":"commercial","name":"Qholaqhoe Butchery","shop":"butcher"}},
{"type":"Feature","geometry":{"type":"LineString","coordinates":[[28.2511015,-28.7682298],[28.2509213,-28.7680287],[28.2510008,-28.767974],[28.2510345,-28.7680115],[28.2511092,-28.7679601],[28.2512557,-28.7681236],[28.2511015,-28.7682298]]},"properties":{"building":"commercial","name":"Line Up Supermarket","shop":"supermarket"}},
{"type":"Feature","geometry":{"type":"LineString","coordinates":[[28.2516637,-28.7678156],[28.2517293,-28.7677836],[28.25184,-28.7679575],[28.2517744,-28.7679896],[28.2516637,-28.7678156]]},"properties":{"building":"commercial","name":"Friendly Mini Market","shop":"convenience"}},
{"type":"Feature","geometry":{"type":"LineString","coordinates":[[28.2519683,-28.7660906],[28.2527628,-28.7659386],[28.2530472,-28.7668991],[28.252246,-28.7670703],[28.2519683,-28.7660906]]},"properties":{"amenity":"marketplace","name":"Botha-Bothe Flea Market and Taxi Rank"}},
{"type":"Feature","geometry":{"type":"LineString","coordinates":[[28.2528175,-28.7677941],[28.2527316,-28.7678521],[28.2525563,-28.7676523],[28.2526422,-28.7675943],[28.2526976,-28.7676574],[28.2528175,-28.7677941]]},"properties":{"building":"yes","name":"Butchery","shop":"butcher"}},
{"type":"Feature","geometry":{"type":"LineString","coordinates":[[27.4962083,-29.3134974],[27.4963092,-29.3138651],[27.4965541,-29.313814],[27.4963819,-29.3131865],[27.4962249,-29.3132192],[27.4962379,-29.3132665],[27.4961393,-29.313287],[27.4961947,-29.3134887],[27.4961977,-29.3134996],[27.4962083,-29.3134974]]},"properties":{"building":"yes","shop":"supermarket"}},
{"type":"Feature","geometry":{"type":"LineString","coordinates":[[27.5337756,-29.2768956],[27.533814,-29.2768838],[27.5337951,-29.276837],[27.5339263,-29.2767966],[27.5339716,-29.2769085],[27.5339168,-29.2769254],[27.5339088,-29.2769057],[27.533794,-29.276941],[27.5337756,-29.2768956]]},"properties":{"building":"commercial","shop":"convenience"}},
{"type":"Feature","geometry":{"type":"LineString","coordinates":[[27.5370661,-29.3692616],[27.5371106,-29.3692152],[27.5367716,-29.3690428],[27.5366965,-29.3689095],[27.5367716,-29.3688815],[27.5367388,-29.3688104],[27.5366668,-29.3688394],[27.5366482,-29.3688043],[27.5365355,-29.3688908],[27.5366669,-29.3691293],[27.5367594,-29.3691617],[27.5367376,-29.3692026],[27.5367829,-29.3692234],[27.5367273,-29.3692915],[27.536787,-29.3693681],[27.5368969,-29.3693249],[27.5370661,-29.3692616]]},"properties":{"addr:housename":"Hillside shopping complex","building":"commercial","building:levels":"1","shop":"supermarket"}},
{"type":"Feature","geometry":{"type":"LineString","coordinates":[[27.5271491,-29.2833156],[27.5270943,-29.2834303],[27.5271543,-29.2834522],[27.5271249,-29.2835135],[27.5271916,-29.2835378],[27.5272208,-29.2834766],[27.5272825,-29.283499],[27.5273375,-29.2833841],[27.5271491,-29.2833156]]},"properties":{"building":"commercial","shop":"supermarket"}},
{"type":"Feature","geometry":{"type":"LineString","coordinates":[[27.4709993,-29.2997941],[27.4710393,-29.300537],[27.4714037,-29.300522],[27.47139,-29.3002695],[27.4717062,-29.3002565],[27.4717017,-29.300173],[27.4717662,-29.3001703],[27.4717486,-29.2998438],[27.4716994,-29.2998459],[27.471695,-29.2997655],[27.4709993,-29.2997941]]},"properties":{"addr:housenumber":"Maseru, Industrial Area","addr:street":"Lepoqo Road","building":"retail","building:levels":"1","check_date":"2023-04-17","currency:M":"yes","currency:R":"yes","internet_access":"no","name":"Browns Cash and Carry","opening_hours":"Mo-Fr 08:00-17:00; Sa-Su 08:30-12:00","payment:credit_cards":"yes","payment:debit_cards":"yes","payment:mastercard":"yes","payment:mobile_phone":"yes","payment:visa":"yes","phone":"+266 2231 3209","roof:levels":"1","roof:shape":"gambrel","second_hand":"no","shop":"supermarket","stroller":"yes","wheelchair":"limited"}},
{"type":"Feature","geometry":{"type":"LineString","coordinates":[[28.3721291,-28.6882633],[28.3720805,-28.688481],[28.3722121,-28.6885037],[28.3722608,-28.6882859],[28.3721291,-28.6882633]]},"properties":{"building":"yes","shop":"convenience"}},
{"type":"Feature","geometry":{"type":"LineString","coordinates":[[27.539777,-29.2758098],[27.5398897,-29.2758793],[27.5399803,-29.2757674],[27.5398677,-29.2756979],[27.539777,-29.2758098]]},"properties":{"building":"yes","fixme":"Check name.","name":"Supermarket","shop":"supermarket"}},
{"type":"Feature","geometry":{"type":"LineString","coordinates":[[27.4875805,-29.3317348],[27.4875376,-29.3318014],[27.4876306,-29.3318469],[27.4876137,-29.3318732],[27.4876807,-29.3319059],[27.4876881,-29.3318944],[27.4878417,-29.3319696],[27.4879106,-29.3318625],[27.487735,-29.3317766],[27.4877277,-29.331788],[27.4876788,-29.3317641],[27.4876935,-29.3317412],[27.4876328,-29.3317115],[27.4876089,-29.3317487],[27.4875805,-29.3317348]]},"properties":{"building":"yes","name":"Bakery","shop":"bakery"}},
{"type":"Feature","geometry":{"type":"LineString","coordinates":[[27.7647408,-28.972678],[27.7648366,-28.9724913],[27.764988,-28.9725459],[27.7650813,-28.9726232],[27.7649989,-28.9727804],[27.7647408,-28.972678]]},"properties":{"shop":"butcher"}},
{"type":"Feature","geometry":{"type":"LineString","coordinates":[[27.7642437,-28.9728979],[27.7640005,-28.9728232],[27.7640486,-28.9727031],[27.7642919,-28.9727778],[27.7642437,-28.9728979]]},"properties":{"building":"yes","name":"Basotho Supermarket","shop":"supermarket"}},
{"type":"Feature","geometry":{"type":"LineString","coordinates":[[27.7635832,-28.972112],[27.7635246,-28.9721828],[27.7635725,-28.9722984],[27.7635778,-28.9724768],[27.7637954,-28.9724696],[27.7637844,-28.9722233],[27.7635832,-28.972112]]},"properties":{"name":"Galaxy butchery","shop":"butcher"}},
{"type":"Feature","geometry":{"type":"LineString","coordinates":[[28.1269955,-28.7913045],[28.1271215,-28.791159],[28.1272305,-28.7909788],[28.127186,-28.7908955],[28.1269289,-28.7908505],[28.1268913,-28.791276],[28.1269955,-28.7913045]]},"properties":{"landuse":"retail","name":"Bakuena general dealer","shop":"convenience"}},
{"type":"Feature","geometry":{"type":"LineString","coordinates":[[27.5277333,-29.2987937],[27.5280053,-29.2986021],[27.5280808,-29.2986836],[27.5278088,-29.2988752],[27.5277333,-29.2987937]]},"properties":{"building":"retail","shop":"supermarket"}},
{"type":"Feature","geometry":{"type":"LineString","coordinates":[[28.20933,-29.001323],[28.2091427,-29.0014417],[28.2091326,-29.0014294],[28.2090468,-29.0014837],[28.2089115,-29.0015401],[28.2088652,-29.0013859],[28.2092043,-29.0011712],[28.20933,-29.001323]]},"properties":{"building":"supermarket","name":"Hilight Supermarket","shop":"supermarket","source":"Bing"}},
{"type":"Feature","geometry":{"type":"LineString","coordinates":[[27.5494175,-29.28551],[27.5496049,-29.2854091],[27.5496477,-29.2854696],[27.5496131,-29.2854882],[27.5496713,-29.2855703],[27.5495184,-29.2856526],[27.5494175,-29.28551]]},"properties":{"building":"retail","name":"Machabeng","shop":"supermarket","source":"Bing"}},
{"type":"Feature","geometry":{"type":"LineString","coordinates":[[27.5236941,-29.3222518],[27.5236599,-29.3221773],[27.5237262,-29.3221541],[27.5237604,-29.3222286],[27.5236941,-29.3222518]]},"properties":{"building":"commercial","name":"Lap lume","shop":"convenience"}},
{"type":"Feature","geometry":{"type":"LineString","coordinates":[[27.5517789,-29.4107742],[27.5517679,-29.4108414],[27.5518382,-29.4108502],[27.5518634,-29.4106974],[27.551782,-29.4106873],[27.5517679,-29.4107729],[27.5517789,-29.4107742]]},"properties":{"building":"yes","name":"Mini shop","opening_hours":"12:00+","operator":"Jubere","shop":"supermarket"}},
{"type":"Feature","geometry":{"type":"LineString","coordinates":[[27.5179044,-29.3063278],[27.5177358,-29.3064181],[27.5180603,-29.3065631],[27.5181381,-29.3064695],[27.5179044,-29.3063278]]},"properties":{"building":"commercial","name":"Lancer's Gap Supermakert","opening_hours":"sunrise-sunset","shop":"supermarket"}},
{"type":"Feature","geometry":{"type":"LineString","coordinates":[[27.5257711,-29.3204462],[27.5257938,-29.3203653],[27.525988,-29.3204066],[27.5259736,-29.3204578],[27.5259514,-29.3204531],[27.5259431,-29.3204826],[27.5257711,-29.3204462]]},"properties":{"building":"commercial","name":"Litaung","shop":"convenience"}},
{"type":"Feature","geometry":{"type":"LineString","coordinates":[[27.5317959,-29.3172129],[27.5316988,-29.3172617],[27.5317991,-29.3174134],[27.5318962,-29.3173646],[27.5317959,-29.3172129]]},"properties":{"building":"yes","name":"Mkhehlane Shopping Complex","shop":"convenience"}},
{"type":"Feature","geometry":{"type":"LineString","coordinates":[[27.5329858,-29.322069],[27.5329928,-29.322183],[27.53322,-29.3221725],[27.5332123,-29.3220462],[27.5331743,-29.322048],[27.533172,-29.3220098],[27.5330798,-29.3220141],[27.5330817,-29.322046],[27.5330257,-29.3220486],[27.5330268,-29.3220671],[27.5329858,-29.322069]]},"properties":{"building":"commercial","name":"Makara Shopping Centre","shop":"convenience"}},
{"type":"Feature","geometry":{"type":"LineString","coordinates":[[28.1636198,-28.9357984],[28.1638081,-28.9358319],[28.1637908,-28.9359065],[28.1636025,-28.9358731],[28.1636198,-28.9357984]]},"properties":{"shop":"convenience"}},
{"type":"Feature","geometry":{"type":"LineString","coordinates":[[29.0386515,-29.2876461],[29.0386978,-29.2876431],[29.038709,-29.287775],[29.0386626,-29.287778],[29.0386515,-29.2876461]]},"properties":{"building":"retail","fixme":"Check details","name":"Butcher","shop":"butcher"}},
{"type":"Feature","geometry":{"type":"LineString","coordinates":[[28.1716614,-28.9357492],[28.1718666,-28.9354414],[28.1716263,-28.9353407],[28.1715184,-28.9354987],[28.1713991,-28.935817],[28.1716614,-28.9357492]]},"properties":{"name":"Motloheloa Store","shop":"convenience"}},
{"type":"Feature","geometry":{"type":"LineString","coordinates":[[29.0219553,-29.3516443],[29.0221324,-29.3516102],[29.0221796,-29.3517969],[29.0220025,-29.3518309],[29.0219553,-29.3516443]]},"properties":{"building":"yes","shop":"supermarket"}},
{"type":"Feature","geometry":{"type":"LineString","coordinates":[[27.7640578,-28.9726811],[27.764093,-28.9725831],[27.7643577,-28.9726559],[27.7643224,-28.972754],[27.7640578,-28.9726811]]},"properties":{"building":"yes","name":"Basotho Supermarket","shop":"supermarket"}},
{"type":"Feature","geometry":{"type":"LineString","coordinates":[[28.1690612,-28.949315],[28.1691832,-28.9492967],[28.1692165,-28.9494668],[28.1690945,-28.9494851],[28.1690612,-28.949315]]},"properties":{"building":"yes","shop":"supermarket"}},
{"type":"Feature","geometry":{"type":"LineString","coordinates":[[27.5340836,-29.286023],[27.5341741,-29.286123],[27.5342983,-29.2860376],[27.5341777,-29.2859041],[27.5340931,-29.2859623],[27.5341233,-29.2859957],[27.5340836,-29.286023]]},"properties":{"building":"yes","name":"Phahameng","operator":"Maitin","shop":"supermarket"}},
{"type":"Feature","geometry":{"type":"LineString","coordinates":[[28.1312079,-28.9258842],[28.1311676,-28.9259433],[28.1312395,-28.9259809],[28.1312798,-28.9259218],[28.1312079,-28.9258842]]},"properties":{"building":"yes","shop":"convenience"}},
{"type":"Feature","geometry":{"type":"LineString","coordinates":[[28.1305573,-28.9265566],[28.1306313,-28.9264832],[28.1305328,-28.9264071],[28.1304588,-28.9264805],[28.1305573,-28.9265566]]},"properties":{"building":"yes","shop":"supermarket"}},
{"type":"Feature","geometry":{"type":"LineString","coordinates":[[27.5236563,-29.2873117],[27.5234565,-29.2873238],[27.5234813,-29.2876413],[27.5235386,-29.2876021],[27.5237446,-29.2873833],[27.5236563,-29.2873117]]},"properties":{"building":"yes","name":"Nutri-Foods","shop":"supermarket"}},
{"type":"Feature","geometry":{"type":"LineString","coordinates":[[27.5234255,-29.2867188],[27.5235049,-29.2867858],[27.5235884,-29.2867106],[27.523509,-29.2866436],[27.5234255,-29.2867188]]},"properties":{"building":"yes","name":"Thembalethu","shop":"butcher"}},
{"type":"Feature","geometry":{"type":"LineString","coordinates":[[27.5227665,-29.2863578],[27.5227811,-29.2866476],[27.5231169,-29.2866347],[27.5231142,-29.2865813],[27.5228444,-29.2865916],[27.5228325,-29.2863552],[27.5227665,-29.2863578]]},"properties":{"amenity":"marketplace","building":"yes"}},
{"type":"Feature","geometry":{"type":"LineString","coordinates":[[27.5228217,-29.2862975],[27.522878,-29.2863467],[27.5230537,-29.2863396],[27.5230979,-29.2862858],[27.5228217,-29.2862975]]},"properties":{"amenity":"marketplace","building":"yes"}},
{"type":"Feature","geometry":{"type":"LineString","coordinates":[[27.5230906,-29.2862505],[27.5229739,-29.2861686],[27.5230298,-29.2861096],[27.5229822,-29.2860754],[27.5230537,-29.2859998],[27.5231013,-29.2860341],[27.5232234,-29.2861125],[27.5230906,-29.2862505]]},"properties":{"building":"yes","name":"Pholoho General Cafe","shop":"supermarket"}},
{"type":"Feature","geometry":{"type":"LineString","coordinates":[[28.117741,-28.9206868],[28.1178213,-28.9207424],[28.1177734,-28.9207953],[28.1176931,-28.9207398],[28.117741,-28.9206868]]},"properties":{"building":"yes","shop":"convenience"}},
{"type":"Feature","geometry":{"type":"LineString","coordinates":[[27.4560758,-29.5597225],[27.456075,-29.5597772],[27.4561617,-29.5597781],[27.4561624,-29.5597234],[27.4560758,-29.5597225]]},"properties":{"building":"yes","name":"Proxi","shop":"convenience"}},
{"type":"Feature","geometry":{"type":"LineString","coordinates":[[28.210786,-29.0034138],[28.2108837,-29.0033786],[28.2109496,-29.0035182],[28.2108519,-29.0035535],[28.210786,-29.0034138]]},"properties":{"building":"yes","shop":"bakery"}},
{"type":"Feature","geometry":{"type":"LineString","coordinates":[[28.2097983,-29.0014842],[28.210005,-29.0012968],[28.2099162,-29.0012219],[28.2097095,-29.0014092],[28.2097983,-29.0014842]]},"properties":{"building":"yes","shop":"supermarket"}},
{"type":"Feature","geometry":{"type":"LineString","coordinates":[[28.2091646,-29.0011596],[28.2090579,-29.0010626],[28.2089821,-29.0011263],[28.2090888,-29.0012233],[28.2091646,-29.0011596]]},"properties":{"building":"yes","shop":"supermarket"}},
{"type":"Feature","geometry":{"type":"LineString","coordinates":[[28.2099133,-29.0010057],[28.2099668,-29.0009663],[28.209828,-29.0008219],[28.2097745,-29.0008612],[28.2099133,-29.0010057]]},"properties":{"building":"yes","shop":"bakery"}},
{"type":"Feature","geometry":{"type":"LineString","coordinates":[[28.2094214,-29.0006664],[28.2096483,-29.0005209],[28.2098132,-29.0007177],[28.2095862,-29.0008631],[28.2094214,-29.0006664]]},"properties":{"building":"yes","shop":"supermarket"}},
{"type":"Feature","geometry":{"type":"LineString","coordinates":[[28.2094257,-29.0003792],[28.2095387,-29.0002932],[28.2094016,-29.0001556],[28.2092887,-29.0002416],[28.2094102,-29.000361],[28.2094257,-29.0003792]]},"properties":{"building":"yes","shop":"supermarket"}},
{"type":"Feature","geometry":{"type":"LineString","coordinates":[[27.490948,-29.590617],[27.4910343,-29.5912481],[27.4915824,-29.5911421],[27.49142,-29.5905508],[27.490948,-29.590617]]},"properties":{"name":"Profi","shop":"supermarket"}},
{"type":"Feature","geometry":{"type":"LineString","coordinates":[[27.4580516,-29.5604109],[27.4577871,-29.5609619],[27.4577957,-29.561091],[27.4578005,-29.5611999],[27.4585838,-29.5611243],[27.4584906,-29.5604371],[27.4580516,-29.5604109]]},"properties":{"landuse":"commercial","name":"Profi","shop":"supermarket"}},
{"type":"Feature","geometry":{"type":"LineString","coordinates":[[27.7441383,-29.5781752],[27.7442781,-29.5783495],[27.7443506,-29.5783055],[27.7444136,-29.578384],[27.74436,-29.5784165],[27.7443311,-29.5783804],[27.744236,-29.578438],[27.7442059,-29.5784005],[27.744157,-29.5784302],[27.7440521,-29.5782993],[27.744032,-29.5783115],[27.7439933,-29.5782632],[27.7441383,-29.5781752]]},"properties":{"building":"yes","shop":"supermarket"}},
{"type":"Feature","geometry":{"type":"LineString","coordinates":[[27.7489058,-29.5774969],[27.7487631,-29.5776393],[27.7488127,-29.5776769],[27.7487574,-29.5777321],[27.7488601,-29.5778098],[27.7489154,-29.5777547],[27.74894,-29.5777733],[27.749064,-29.5776494],[27.7491098,-29.5776841],[27.7491498,-29.5776442],[27.7491005,-29.5776069],[27.7490792,-29.5776282],[27.7489058,-29.5774969]]},"properties":{"building":"yes","name":"Frazers supermarket","shop":"supermarket"}},
{"type":"Feature","geometry":{"type":"LineString","coordinates":[[27.7377479,-29.5730119],[27.7377441,-29.5731324],[27.7379488,-29.5731222],[27.7379751,-29.5729843],[27.7377479,-29.5729818],[27.7377479,-29.5730119]]},"properties":{"shop":"convenience"}},
{"type":"Feature","geometry":{"type":"LineString","coordinates":[[27.7561916,-29.5586249],[27.7561434,-29.5585822],[27.7561099,-29.5586108],[27.7561394,-29.558637],[27.756152,-29.5586262],[27.7561707,-29.5586428],[27.7561916,-29.5586249]]},"properties":{"building":"yes","shop":"convenience"}},
{"type":"Feature","geometry":{"type":"LineString","coordinates":[[27.5212184,-29.314011],[27.5213052,-29.3139644],[27.5213354,-29.3140073],[27.5213677,-29.3139899],[27.5214013,-29.3140376],[27.521369,-29.3140549],[27.5213894,-29.3140837],[27.5212858,-29.3141393],[27.5212486,-29.3140865],[27.5212654,-29.3140775],[27.5212184,-29.314011]]},"properties":{"building":"commercial","name":"Phuthalichaba Supermakert","opening_hours":"sunrise-sunset","shop":"supermarket"}},
{"type":"Feature","geometry":{"type":"LineString","coordinates":[[27.5215252,-29.3145795],[27.5216201,-29.3145316],[27.5216813,-29.3146239],[27.5215864,-29.3146717],[27.5215252,-29.3145795]]},"properties":{"building":"commercial","name":"Soweto Butchery","opening_hours":"sunrise-sunset","shop":"butcher"}},
{"type":"Feature","geometry":{"type":"LineString","coordinates":[[27.5384971,-29.2962765],[27.5386139,-29.2961863],[27.5387858,-29.2963556],[27.5387202,-29.2964063],[27.5387092,-29.2963955],[27.5386582,-29.296435],[27.5384971,-29.2962765]]},"properties":{"building":"yes","name":"Mpeoa","shop":"supermarket"}},
{"type":"Feature","geometry":{"type":"LineString","coordinates":[[28.2129125,-29.0073887],[28.2130248,-29.0073799],[28.2130132,-29.0072663],[28.2129009,-29.0072751],[28.2129125,-29.0073887]]},"properties":{"building":"yes","shop":"supermarket"}},
{"type":"Feature","geometry":{"type":"LineString","coordinates":[[28.2138695,-29.0115616],[28.2138034,-29.0116017],[28.2138543,-29.0116659],[28.2139203,-29.0116258],[28.2138695,-29.0115616]]},"properties":{"building":"yes","shop":"convenience"}},
{"type":"Feature","geometry":{"type":"LineString","coordinates":[[27.5278329,-29.278174],[27.5278239,-29.2780695],[27.5279752,-29.2780595],[27.5279842,-29.278164],[27.5278329,-29.278174]]},"properties":{"building":"commercial","name":"Busy Corner Cafe","shop":"convenience"}},
{"type":"Feature","geometry":{"type":"LineString","coordinates":[[27.5370594,-29.3110061],[27.537056,-29.3109216],[27.5371034,-29.3109201],[27.5371023,-29.3108913],[27.5372577,-29.3108866],[27.5372622,-29.3109999],[27.5370594,-29.3110061]]},"properties":{"building":"yes","shop":"supermarket"}},
{"type":"Feature","geometry":{"type":"LineString","coordinates":[[29.0328631,-29.2997558],[29.0328654,-29.2998358],[29.0330423,-29.2998319],[29.0330404,-29.2997648],[29.0329922,-29.299753],[29.0328631,-29.2997558]]},"properties":{"shop":"supermarket"}},
{"type":"Feature","geometry":{"type":"LineString","coordinates":[[28.8707718,-29.2066624],[28.8710072,-29.2065769],[28.8709561,-29.2064698],[28.870949,-29.2064723],[28.8709254,-29.2064227],[28.8708281,-29.206458],[28.8708314,-29.2064651],[28.8707004,-29.2065127],[28.8707718,-29.2066624]]},"properties":{"building":"commercial","shop":"convenience"}},
{"type":"Feature","geometry":{"type":"LineString","coordinates":[[28.8705945,-29.206515],[28.870766,-29.2064268],[28.8706987,-29.206327],[28.8706686,-29.2063425],[28.8706638,-29.2063353],[28.8706371,-29.206349],[28.8705975,-29.2062903],[28.8704824,-29.2063495],[28.8705207,-29.2064063],[28.8705493,-29.2064479],[28.8705945,-29.206515]]},"properties":{"building":"commercial","shop":"convenience"}},
{"type":"Feature","geometry":{"type":"LineString","coordinates":[[28.8704411,-29.206282],[28.8705654,-29.2062025],[28.8704585,-29.206075],[28.8704125,-29.2061043],[28.8704296,-29.2061247],[28.8703512,-29.2061748],[28.8704411,-29.206282]]},"properties":{"building":"commercial","shop":"convenience"}},
{"type":"Feature","geometry":{"type":"LineString","coordinates":[[28.8702083,-29.205944],[28.8702698,-29.2059188],[28.8702856,-29.2059482],[28.8703686,-29.2059142],[28.8704552,-29.2060752],[28.8702867,-29.2061442],[28.8702611,-29.2060964],[28.8702849,-29.2060867],[28.8702083,-29.205944]]},"properties":{"building":"commercial","shop":"convenience"}},
{"type":"Feature","geometry":{"type":"LineString","coordinates":[[28.870081,-29.2073313],[28.870045,-29.207303],[28.870054,-29.2072943],[28.8699856,-29.2072406],[28.8699929,-29.2072335],[28.8697333,-29.2070299],[28.8698529,-29.2069138],[28.8701067,-29.2071129],[28.8700916,-29.2071276],[28.8701776,-29.2071951],[28.87037,-29.2070535],[28.8704522,-29.2071387],[28.8701804,-29.2073387],[28.8701955,-29.2073538],[28.8701464,-29.2073913],[28.8701291,-29.207374],[28.8701023,-29.2073945],[28.8700572,-29.2073495],[28.870081,-29.2073313]]},"properties":{"building":"commercial","shop":"supermarket"}},
{"type":"Feature","geometry":{"type":"LineString","coordinates":[[28.8721788,-29.2089341],[28.8723003,-29.2087524],[28.8721066,-29.2086537],[28.8720562,-29.2087292],[28.8719082,-29.2086537],[28.8718371,-29.2087599],[28.8721788,-29.2089341]]},"properties":{"building":"commercial","shop":"supermarket"}},
{"type":"Feature","geometry":{"type":"LineString","coordinates":[[28.2717181,-28.9252423],[28.2718098,-28.9252407],[28.271809,-28.925206],[28.2717173,-28.9252076],[28.2717181,-28.9252423]]},"properties":{"building":"yes","shop":"convenience"}},
{"type":"Feature","geometry":{"type":"LineString","coordinates":[[27.7388256,-29.061497],[27.7389255,-29.0618653],[27.738969,-29.0618563],[27.7388691,-29.061488],[27.7388256,-29.061497]]},"properties":{"amenity":"marketplace","name":"Kolonyama Market"}},
{"type":"Feature","geometry":{"type":"LineString","coordinates":[[27.7651403,-28.9718979],[27.7652482,-28.971862],[27.7652145,-28.9717843],[27.7651065,-28.9718201],[27.7651403,-28.9718979]]},"properties":{"building":"yes","name":"Super U","shop":"supermarket"}},
{"type":"Feature","geometry":{"type":"LineString","coordinates":[[27.436011,-29.691511],[27.4360583,-29.6913565],[27.4361728,-29.6913829],[27.4361255,-29.6915375],[27.436011,-29.691511]]},"properties":{"building:colour":"cream","building:levels":"1","building:material":"plaster","roof:colour":"silver","roof:material":"metal","roof:orientation":"along","roof:shape":"flat","shop":"supermarket"}},
{"type":"Feature","geometry":{"type":"LineString","coordinates":[[27.4378996,-29.6914041],[27.4379221,-29.6913587],[27.4379807,-29.6913804],[27.4379776,-29.6913867],[27.4379617,-29.6914189],[27.4379559,-29.6914167],[27.4379524,-29.6914238],[27.4378996,-29.6914041]]},"properties":{"building:colour":"silver","building:levels":"1","building:material":"metal","roof:colour":"silver","roof:material":"metal","roof:orientation":"along","roof:shape":"gabled","shop":"farm"}},
{"type":"Feature","geometry":{"type":"LineString","coordinates":[[27.4354126,-29.6919699],[27.4354402,-29.6917551],[27.435518,-29.6917626],[27.4354905,-29.6919775],[27.4354126,-29.6919699]]},"properties":{"building":"warehouse","building:colour":"red","building:levels":"1","building:material":"plaster","roof:colour":"brown","roof:material":"roof_tiles","roof:orientation":"along","roof:shape":"flat","shop":"supermarket"}},
{"type":"Feature","geometry":{"type":"LineString","coordinates":[[28.2576878,-28.9405287],[28.2577219,-28.9404774],[28.2577634,-28.9404986],[28.2577292,-28.9405498],[28.2576878,-28.9405287]]},"properties":{"building":"yes","shop":"convenience"}},
{"type":"Feature","geometry":{"type":"LineString","coordinates":[[27.7640941,-28.9725059],[27.763967,-28.9724251],[27.7639295,-28.9724657],[27.7638972,-28.9724644],[27.7638736,-28.9724929],[27.7640516,-28.9725647],[27.7640941,-28.9725059]]},"properties":{"building":"yes","shop":"butcher"}},
{"type":"Feature","geometry":{"type":"LineString","coordinates":[[27.4964427,-29.3144662],[27.4957094,-29.3146266],[27.4956678,-29.3146371],[27.4956005,-29.3151363],[27.4965549,-29.3149541],[27.4964427,-29.3144662]]},"properties":{"amenity":"marketplace","landuse":"retail","name":"Maseru Market"}},
{"type":"Feature","geometry":{"type":"LineString","coordinates":[[27.6093027,-29.2867616],[27.6092651,-29.2868193],[27.6093672,-29.28687],[27.6094049,-29.2868122],[27.6093027,-29.2867616]]},"properties":{"name:en":"Ha 'Masekete","shop":"convenience"}},
{"type":"Feature","geometry":{"type":"LineString","coordinates":[[27.6100149,-29.2861426],[27.6101735,-29.2861427],[27.6101734,-29.2861987],[27.6100953,-29.2861986],[27.6100953,-29.2862065],[27.6100148,-29.2862065],[27.6100149,-29.2861426]]},"properties":{"shop":"convenience"}},
{"type":"Feature","geometry":{"type":"LineString","coordinates":[[28.2115161,-28.9742365],[28.2115654,-28.9742603],[28.2116375,-28.9741462],[28.2115882,-28.9741224],[28.2115161,-28.9742365]]},"properties":{"building":"yes","shop":"convenience"}},
{"type":"Feature","geometry":{"type":"LineString","coordinates":[[27.5231893,-29.3184378],[27.5229835,-29.3185276],[27.5230532,-29.318649],[27.523259,-29.3185593],[27.5231893,-29.3184378]]},"properties":{"building":"commercial","building:levels":"1","roof:levels":"1","shop":"convenience"}},
{"type":"Feature","geometry":{"type":"LineString","coordinates":[[28.1527605,-28.9362654],[28.1527416,-28.9362085],[28.1528409,-28.9361833],[28.1528597,-28.9362402],[28.1527605,-28.9362654]]},"properties":{"building":"yes","shop":"convenience"}},
{"type":"Feature","geometry":{"type":"LineString","coordinates":[[28.152634,-28.9364993],[28.1526898,-28.9364845],[28.1527149,-28.9365566],[28.1527547,-28.9365459],[28.1527662,-28.9365789],[28.1526705,-28.9366043],[28.152634,-28.9364993]]},"properties":{"building":"yes","shop":"supermarket"}},
{"type":"Feature","geometry":{"type":"LineString","coordinates":[[28.0529263,-29.8434827],[28.0529893,-29.8432535],[28.0533805,-29.8433344],[28.0533174,-29.8435636],[28.0529263,-29.8434827]]},"properties":{"building":"yes","shop":"supermarket"}},
{"type":"Feature","geometry":{"type":"LineString","coordinates":[[28.4213009,-28.6739712],[28.4211506,-28.6741277],[28.4213206,-28.6742514],[28.4214266,-28.6741394],[28.4213836,-28.6741081],[28.4214305,-28.6740585],[28.4213009,-28.6739712]]},"properties":{"building":"yes","name":"Qholaqhoe Supermarket","shop":"supermarket"}},
{"type":"Feature","geometry":{"type":"LineString","coordinates":[[28.2124657,-28.8046609],[28.212477,-28.8047323],[28.2125291,-28.804726],[28.2125178,-28.8046546],[28.2124657,-28.8046609]]},"properties":{"building":"yes","shop":"farm"}},
{"type":"Feature","geometry":{"type":"LineString","coordinates":[[28.2125353,-28.8047297],[28.212536,-28.8047647],[28.21259,-28.8047638],[28.2125893,-28.8047288],[28.2125353,-28.8047297]]},"properties":{"building":"yes","shop":"farm"}},
{"type":"Feature","geometry":{"type":"LineString","coordinates":[[28.6048951,-29.5173357],[28.6049436,-29.517145],[28.6049528,-29.5169885],[28.6049424,-29.5169373],[28.6051995,-29.5168771],[28.6052249,-29.5169735],[28.605203,-29.5170597],[28.6051419,-29.51713],[28.6050462,-29.5172163],[28.6049609,-29.5172895],[28.6048951,-29.5173357]]},"properties":{"amenity":"marketplace"}},
{"type":"Feature","geometry":{"type":"LineString","coordinates":[[28.5994067,-29.5284458],[28.5993839,-29.5283564],[28.5994018,-29.52825],[28.5995551,-29.5281862],[28.599697,-29.5281663],[28.5998176,-29.528172],[28.5999057,-29.5281862],[28.5999302,-29.5282983],[28.5998764,-29.5284728],[28.5998568,-29.5286189],[28.599772,-29.5286388],[28.5995616,-29.5286132],[28.5995682,-29.5284856],[28.5995486,-29.5284487],[28.5995029,-29.5284444],[28.5994394,-29.5284487],[28.5994067,-29.5284458]]},"properties":{"amenity":"marketplace","name":"Dip"}},
{"type":"Feature","geometry":{"type":"LineString","coordinates":[[28.2359096,-28.9339515],[28.2359446,-28.9339034],[28.2360104,-28.9339401],[28.2359754,-28.9339882],[28.2359096,-28.9339515]]},"properties":{"building":"yes","name":"Potse General Cafe","shop":"convenience"}},
{"type":"Feature","geometry":{"type":"LineString","coordinates":[[28.1452796,-29.5422466],[28.1453165,-29.5422524],[28.1453207,-29.5422322],[28.1454372,-29.5422504],[28.1454333,-29.5422695],[28.145474,-29.5422759],[28.1454527,-29.5423789],[28.1452585,-29.5423485],[28.1452796,-29.5422466]]},"properties":{"building":"commercial","fixme":"Check name","shop":"convenience"}},
{"type":"Feature","geometry":{"type":"LineString","coordinates":[[28.0420701,-28.8766909],[28.0420969,-28.8766133],[28.042172,-28.8764067],[28.0422659,-28.8762446],[28.0427273,-28.8753544],[28.0428506,-28.8751618],[28.042915,-28.8751008],[28.0432724,-28.8751907],[28.0433952,-28.8752077],[28.043557,-28.875717],[28.0435534,-28.8758735],[28.0433817,-28.8761389],[28.043371,-28.8762916],[28.0433603,-28.8764184],[28.043194,-28.8767331],[28.0433334,-28.8767778],[28.0432825,-28.8768365],[28.0431752,-28.8769234],[28.0431408,-28.8769427],[28.0430018,-28.8768399],[28.0429365,-28.8769187],[28.0427997,-28.8768412],[28.0426253,-28.8769797],[28.0422284,-28.8767613],[28.0420701,-28.8766909]]},"properties":{"amenity":"marketplace","landuse":"commercial"}},
{"type":"Feature","geometry":{"type":"LineString","coordinates":[[27.4986085,-29.3396686],[27.4984837,-29.339907],[27.498494,-29.3399111],[27.4983701,-29.3401478],[27.4985231,-29.3402087],[27.4986441,-29.3399775],[27.4986269,-29.3399706],[27.4987546,-29.3397267],[27.4986085,-29.3396686]]},"properties":{"building":"yes","name":"Chivas Butchery","shop":"butcher"}},
{"type":"Feature","geometry":{"type":"LineString","coordinates":[[27.4986877,-29.3400562],[27.4986613,-29.3401275],[27.4986054,-29.3401117],[27.4986319,-29.3400405],[27.4986877,-29.3400562]]},"properties":{"building":"yes","name":"Mampho Shopping complex","shop":"supermarket"}},
{"type":"Feature","geometry":{"type":"LineString","coordinates":[[28.2511902,-28.7278083],[28.251179,-28.7277562],[28.2512266,-28.7277484],[28.2512756,-28.7277404],[28.2512867,-28.7277925],[28.2511902,-28.7278083]]},"properties":{"building":"retail","payment:cash":"yes","shop":"convenience"}},
{"type":"Feature","geometry":{"type":"LineString","coordinates":[[27.6253023,-30.3955697],[27.6253145,-30.3954404],[27.625003800000003,-30.3954187],[27.6250272,-30.395169],[27.6252342,-30.3951835],[27.6252295,-30.395234],[27.6252853,-30.3952379],[27.6252781,-30.3953153],[27.6252222,-30.3953113],[27.6252178,-30.3953584],[27.625593,-30.3953846],[27.6255738,-30.3955887],[27.6253023,-30.3955697]]},"properties":{"building":"retail","name":"Mitchell Trading Co","shop":"supermarket"}},
{"type":"Feature","geometry":{"type":"LineString","coordinates":[[27.6258299,-30.3955509],[27.6257666,-30.3955338],[27.6258444,-30.3953198],[27.625971,-30.3953541],[27.6259275,-30.3954739],[27.6258641,-30.3954567],[27.6258299,-30.3955509]]},"properties":{"building":"supermarket","name":"Waitjokotja Supermarket","shop":"supermarket"}},
{"type":"Feature","geometry":{"type":"LineString","coordinates":[[27.8839848,-29.2307639],[27.8840624,-29.230799],[27.8840136,-29.2308813],[27.883936,-29.2308462],[27.8839848,-29.2307639]]},"properties":{"building":"yes","shop":"convenience"}},
{"type":"Feature","geometry":{"type":"LineString","coordinates":[[28.1451135,-29.5421573],[28.1451198,-29.5422008],[28.1450018,-29.5422137],[28.1449955,-29.5421702],[28.1451135,-29.5421573]]},"properties":{"building":"commercial","fixme":"Check name","shop":"convenience"}},
{"type":"Feature","geometry":{"type":"LineString","coordinates":[[27.5994699,-30.4172054],[27.5994562,-30.417153],[27.5995012,-30.4171443],[27.5995148,-30.4171968],[27.5994699,-30.4172054]]},"properties":{"amenity":"bar","building":"yes","shop":"convenience"}},
{"type":"Feature","geometry":{"type":"LineString","coordinates":[[27.5368462,-29.4081252],[27.5367888,-29.4081728],[27.5368621,-29.4082398],[27.5369195,-29.4081922],[27.5368462,-29.4081252]]},"properties":{"building":"yes","shop":"convenience"}},
{"type":"Feature","geometry":{"type":"LineString","coordinates":[[27.4376458,-29.6910117],[27.4379512,-29.6910066],[27.4379498,-29.6909469],[27.4376445,-29.6909522],[27.4376458,-29.6910117]]},"properties":{"building":"chicken_coop","building:colour":"grey","building:levels":"1","building:material":"metal","butcher":"poultry","roof:colour":"red","roof:material":"metal","roof:orientation":"along","roof:shape":"gal","shop":"butcher"}},
{"type":"Feature","geometry":{"type":"LineString","coordinates":[[27.6200255,-29.4106911],[27.6201477,-29.4107448],[27.6200645,-29.4108885],[27.6199423,-29.4108348],[27.6200255,-29.4106911]]},"properties":{"building":"yes","shop":"convenience"}},
{"type":"Feature","geometry":{"type":"LineString","coordinates":[[27.6197539,-29.41126],[27.6198904,-29.4113151],[27.6198489,-29.4113933],[27.6197123,-29.4113383],[27.6197539,-29.41126]]},"properties":{"building":"yes","shop":"convenience"}},
{"type":"Feature","geometry":{"type":"LineString","coordinates":[[27.6191969,-29.4111045],[27.6194271,-29.4111957],[27.6193786,-29.4112886],[27.6191484,-29.4111975],[27.6191969,-29.4111045]]},"properties":{"building":"yes","building:levels":"2","shop":"convenience"}},
{"type":"Feature","geometry":{"type":"LineString","coordinates":[[27.6194303,-29.4113197],[27.6195196,-29.4113605],[27.6195343,-29.411336],[27.6196055,-29.4113685],[27.6195866,-29.4113999],[27.619679,-29.4114419],[27.6196425,-29.4115026],[27.6194994,-29.4114373],[27.6195028,-29.4114317],[27.619393,-29.4113816],[27.6194303,-29.4113197]]},"properties":{"building":"yes","shop":"convenience"}},
{"type":"Feature","geometry":{"type":"LineString","coordinates":[[28.1686396,-28.9494632],[28.1687067,-28.9494744],[28.1687408,-28.949317],[28.1686527,-28.9493024],[28.1686365,-28.9493772],[28.1686575,-28.9493806],[28.1686396,-28.9494632]]},"properties":{"building":"yes","shop":"convenience"}},
{"type":"Feature","geometry":{"type":"LineString","coordinates":[[28.1682727,-28.9496745],[28.1683375,-28.9496461],[28.168324,-28.9496224],[28.1683978,-28.9495901],[28.1683551,-28.9495154],[28.1682165,-28.949576],[28.1682727,-28.9496745]]},"properties":{"building":"yes","shop":"supermarket"}},
{"type":"Feature","geometry":{"type":"LineString","coordinates":[[27.7512363,-29.1482667],[27.7511365,-29.148221],[27.7511596,-29.1481826],[27.7510273,-29.1481219],[27.7509808,-29.1481992],[27.7512129,-29.1483056],[27.7512363,-29.1482667]]},"properties":{"building":"commercial","name":"TY Meat Market","shop":"butcher"}},
{"type":"Feature","geometry":{"type":"LineString","coordinates":[[27.4376454,-29.6909467],[27.4376438,-29.6908704],[27.4379718,-29.6908648],[27.4379735,-29.6909409],[27.4376454,-29.6909467]]},"properties":{"building":"chicken_coop","building:colour":"grey","building:levels":"1","building:material":"metal","butcher":"poultry","roof:colour":"red","roof:material":"metal","roof:orientation":"along","roof:shape":"gal","shop":"butcher"}},
{"type":"Feature","geometry":{"type":"LineString","coordinates":[[27.4364392,-29.6919453],[27.4364957,-29.6919645],[27.4364743,-29.6920119],[27.4364178,-29.6919926],[27.4364392,-29.6919453]]},"properties":{"building":"commercial","building:colour":"grey","building:levels":"1","building:material":"plaster","name":"Motsekuoa Bakery","roof:colour":"silver","roof:material":"metal","roof:orientation":"along","roof:shape":"flat","shop":"bakery"}},
{"type":"Feature","geometry":{"type":"LineString","coordinates":[[27.8661181,-29.228734],[27.8660436,-29.2286216],[27.8661437,-29.2285711],[27.8662182,-29.2286835],[27.8661181,-29.228734]]},"properties":{"building":"commercial","building:colour":"yellow","building:levels":"1","building:material":"plaster","building:part":"yes","name":"Makara General Dealers","opening_hours":"sunrise-sunset","roof:colour":"silver","roof:levels":"1","roof:material":"metal","roof:orientation":"along","roof:shape":"skillion","shop":"convenience","wheelchair":"limited"}},
{"type":"Feature","geometry":{"type":"LineString","coordinates":[[27.8666599,-29.2286971],[27.8666116,-29.2286573],[27.8666347,-29.228636],[27.866683,-29.2286757],[27.8666599,-29.2286971]]},"properties":{"amenity":"marketplace","building":"commercial","building:colour":"silver","building:levels":"2","building:material":"metal","building:part":"yes","height":"2","opening_hours":"sunrise-sunset","organic":"no","roof:colour":"silver","roof:material":"metal","wheelchair":"yes"}},
{"type":"Feature","geometry":{"type":"LineString","coordinates":[[27.5388319,-29.2678314],[27.5380487,-29.2684093],[27.5376236,-29.2685579],[27.5372211,-29.2681959],[27.5371027,-29.2683185],[27.5368264,-29.2679641],[27.5366186,-29.2673241],[27.5365051,-29.2671727],[27.5372839,-29.2666603],[27.5375801,-29.2670118],[27.5378819,-29.2668187],[27.5388319,-29.2678314]]},"properties":{"name":"Meraka Abattoir","shop":"butcher"}},
{"type":"Feature","geometry":{"type":"LineString","coordinates":[[27.5186491,-29.3004869],[27.5187524,-29.2999629],[27.5194336,-29.2998144],[27.520491,-29.3016206],[27.5207707,-29.3020821],[27.5205414,-29.3022224],[27.5200412,-29.3019184],[27.519604,-29.3016073],[27.5191212,-29.3012424],[27.5190876,-29.3012184],[27.5192231,-29.3011248],[27.5191319,-29.3010003],[27.5186491,-29.3004869]]},"properties":{"name":"Machache","shop":"butcher"}},
{"type":"Feature","geometry":{"type":"LineString","coordinates":[[28.8707783,-29.207579],[28.8708026,-29.2076512],[28.8711079,-29.2075527],[28.8710694,-29.2073479],[28.8711221,-29.2073403],[28.8711136,-29.207295],[28.8711236,-29.2072936],[28.871115,-29.2072476],[28.871052,-29.2072566],[28.8710517,-29.2072547],[28.8708825,-29.2072788],[28.8709293,-29.2075292],[28.8708378,-29.2075581],[28.870782,-29.2073039],[28.8707201,-29.2073142],[28.8707783,-29.207579]]},"properties":{"building":"commercial","shop":"convenience"}},
{"type":"Feature","geometry":{"type":"LineString","coordinates":[[28.8706326,-29.2067831],[28.870578,-29.2068008],[28.8705574,-29.2067525],[28.8707518,-29.2066894],[28.8707968,-29.206795],[28.8707159,-29.2068212],[28.8706326,-29.2067831]]},"properties":{"building":"commercial","shop":"convenience"}},
{"type":"Feature","geometry":{"type":"LineString","coordinates":[[28.8707662,-29.2066899],[28.8709485,-29.2066435],[28.8709731,-29.206717],[28.870946,-29.2067239],[28.8710577,-29.2070582],[28.8709025,-29.2070977],[28.8707662,-29.2066899]]},"properties":{"building":"commercial","shop":"convenience"}},
{"type":"Feature","geometry":{"type":"LineString","coordinates":[[27.6194758,-29.2932892],[27.619453,-29.2932354],[27.6194991,-29.2932206],[27.6195233,-29.2932779],[27.6194841,-29.2932905],[27.6194826,-29.293287],[27.6194758,-29.2932892]]},"properties":{"shop":"convenience"}},
{"type":"Feature","geometry":{"type":"LineString","coordinates":[[27.5393437,-29.4065046],[27.5393856,-29.406489],[27.5394203,-29.4065596],[27.5394559,-29.4065464],[27.5394762,-29.4065879],[27.5393792,-29.406624],[27.5393592,-29.4065832],[27.5393787,-29.406576],[27.5393437,-29.4065046]]},"properties":{"shop":"convenience"}},
{"type":"Feature","geometry":{"type":"LineString","coordinates":[[27.5450095,-29.4067156],[27.545113,-29.4066951],[27.5451225,-29.4067316],[27.5451048,-29.4067351],[27.5451148,-29.4067736],[27.545101,-29.4067763],[27.5451211,-29.4068533],[27.545086,-29.4068602],[27.5450882,-29.4068688],[27.5450363,-29.4068791],[27.5450135,-29.4067922],[27.5450287,-29.4067892],[27.5450095,-29.4067156]]},"properties":{"shop":"convenience"}},
{"type":"Feature","geometry":{"type":"LineString","coordinates":[[27.5201391,-29.3194993],[27.5202314,-29.3194247],[27.520305,-29.3194939],[27.5202657,-29.3195257],[27.5203125,-29.3195698],[27.5203518,-29.319538],[27.5203669,-29.3195522],[27.5202745,-29.3196268],[27.5202457,-29.3195996],[27.5202175,-29.3196223],[27.520184,-29.3195908],[27.5202121,-29.3195681],[27.5201391,-29.3194993]]},"properties":{"building":"commercial","name":"Ha Leshalaba","shop":"convenience"}},
{"type":"Feature","geometry":{"type":"LineString","coordinates":[[27.5232104,-29.318623],[27.52322,-29.3186539],[27.5231616,-29.3186676],[27.5231804,-29.3187285],[27.5232227,-29.3187176],[27.523222,-29.3186956],[27.5233329,-29.3186931],[27.5233358,-29.3187903],[27.5232353,-29.3187926],[27.5232361,-29.3187833],[27.523143,-29.3188051],[27.5230952,-29.31865],[27.5232104,-29.318623]]},"properties":{"building":"commercial","building:levels":"1","roof:levels":"1","shop":"convenience"}},
{"type":"Feature","geometry":{"type":"LineString","coordinates":[[27.3870821,-29.564707],[27.3871545,-29.5646277],[27.3872243,-29.5646759],[27.3871519,-29.5647552],[27.3870821,-29.564707]]},"properties":{"building":"commercial","shop":"convenience"}},
{"type":"Feature","geometry":{"type":"LineString","coordinates":[[27.3912361,-29.5616467],[27.3913474,-29.561635],[27.3913588,-29.5617174],[27.3912475,-29.5617291],[27.3912361,-29.5616467]]},"properties":{"building":"construction","shop":"convenience"}},
{"type":"Feature","geometry":{"type":"LineString","coordinates":[[27.5994875,-30.417244],[27.5995177,-30.4172124],[27.599574,-30.4172523],[27.5995439,-30.4172839],[27.5994875,-30.417244]]},"properties":{"building":"yes","shop":"convenience"}},
{"type":"Feature","geometry":{"type":"LineString","coordinates":[[28.0429028,-28.8732552],[28.0427016,-28.8735747],[28.0424843,-28.8734713],[28.0424709,-28.8734948],[28.0418943,-28.8732153],[28.0420927,-28.8728935],[28.0423851,-28.8725318],[28.0425514,-28.8726328],[28.0423449,-28.8729006],[28.0424468,-28.8729546],[28.0423851,-28.8730274],[28.0425675,-28.873112],[28.0429028,-28.8732552]]},"properties":{"building":"yes","shop":"supermarket"}},
{"type":"Feature","geometry":{"type":"LineString","coordinates":[[27.9297238,-29.4210963],[27.9298025,-29.4211315],[27.9297406,-29.4212366],[27.9297457,-29.4212388],[27.9296929,-29.4213284],[27.9296091,-29.4212909],[27.9297238,-29.4210963]]},"properties":{"building":"commercial","name":"Chalalisa Super Market","shop":"convenience"}},
{"type":"Feature","geometry":{"type":"LineString","coordinates":[[28.8717705,-29.2088313],[28.8718239,-29.2087584],[28.8719291,-29.2088171],[28.8718757,-29.20889],[28.8717705,-29.2088313]]},"properties":{"building":"yes","shop":"supermarket"}},
{"type":"Feature","geometry":{"type":"LineString","coordinates":[[28.870137,-29.2063301],[28.8702528,-29.2064833],[28.8701237,-29.2065633],[28.8700075,-29.2064127],[28.870137,-29.2063301]]},"properties":{"building":"commercial","shop":"convenience"}},
{"type":"Feature","geometry":{"type":"LineString","coordinates":[[28.8699541,-29.2065091],[28.8700153,-29.2064687],[28.8701118,-29.2065801],[28.8702529,-29.206487],[28.8703571,-29.2066073],[28.8701548,-29.2067408],[28.8699541,-29.2065091]]},"properties":{"building":"commercial","shop":"convenience"}},
{"type":"Feature","geometry":{"type":"LineString","coordinates":[[28.8700118,-29.2061593],[28.8701344,-29.2063217],[28.8700024,-29.2063977],[28.8698798,-29.2062352],[28.8699837,-29.2061754],[28.8700118,-29.2061593]]},"properties":{"building":"commercial","shop":"convenience"}},
{"type":"Feature","geometry":{"type":"MultiPolygon","coordinates":[[[[27.4762109,-30.1511322],[27.4762683,-30.1511471],[27.4762597,-30.1511718],[27.4763404,-30.1511928],[27.4763338,-30.1512118],[27.4764103,-30.1512317],[27.4764029,-30.1512531],[27.4764962,-30.1512773],[27.4766318,-30.1508871],[27.4762716,-30.1507934],[27.4762333,-30.1509034],[27.4762509,-30.150908],[27.4762252,-30.1509819],[27.4762398,-30.1509857],[27.4762122,-30.1510651],[27.4762325,-30.1510704],[27.4762109,-30.1511322]]]]},"properties":{"building":"commercial","name":"Mellinium Supestore","shop":"supermarket"}},
{"type":"Feature","geometry":{"type":"MultiPolygon","coordinates":[[[[27.5625789,-29.2670145],[27.5626378,-29.267131],[27.5627566,-29.2670852],[27.5626977,-29.2669688],[27.5625789,-29.2670145]]]]},"properties":{"building":"yes","shop":"supermarket"}},
{"type":"Feature","geometry":{"type":"MultiPolygon","coordinates":[[[[27.5625562,-29.2668757],[27.5625777,-29.2669243],[27.5626907,-29.2668862],[27.5626692,-29.2668376],[27.5625562,-29.2668757]]]]},"properties":{"building":"yes","shop":"supermarket"}},
{"type":"Feature","geometry":{"type":"MultiPolygon","coordinates":[[[[27.2446512,-29.8220464],[27.2447964,-29.8221163],[27.2447856,-29.8221332],[27.2449191,-29.8221975],[27.2450961,-29.8219209],[27.2448174,-29.8217867],[27.2446512,-29.8220464]]]]},"properties":{"building":"yes","shop":"supermarket"}},
{"type":"Feature","geometry":{"type":"MultiPolygon","coordinates":[[[[27.2443759,-29.8224032],[27.2444823,-29.8226815],[27.245057,-29.8227668],[27.2451789,-29.8223771],[27.244569,-29.8220784],[27.2443759,-29.8224032]]]]},"properties":{"amenity":"marketplace"}},
{"type":"Feature","geometry":{"type":"MultiPolygon","coordinates":[[[[27.2461489,-29.8238319],[27.2462478,-29.8238656],[27.246166,-29.8240463],[27.2462031,-29.8240589],[27.2461765,-29.8241176],[27.2463277,-29.8241691],[27.2461993,-29.8244528],[27.2466354,-29.8246013],[27.2467607,-29.8243244],[27.2469457,-29.8243875],[27.2469926,-29.8242839],[27.2470095,-29.8242467],[27.2470376,-29.8241844],[27.2469633,-29.8241591],[27.247057,-29.8239521],[27.2468687,-29.823888],[27.246816,-29.8240045],[27.2467858,-29.8239942],[27.2467459,-29.8240824],[27.2467165,-29.8240723],[27.24667,-29.8241751],[27.2466418,-29.8241655],[27.2466024,-29.8242526],[27.2464877,-29.8242135],[27.2465036,-29.8241784],[27.2465283,-29.8241238],[27.2464982,-29.8241135],[27.2465342,-29.8240339],[27.246509,-29.8240254],[27.2465468,-29.823942],[27.2465196,-29.8239327],[27.2465757,-29.8238088],[27.246548,-29.8237994],[27.2465938,-29.823698],[27.2462362,-29.8235762],[27.2462212,-29.8236094],[27.2462356,-29.8236143],[27.2462002,-29.8236925],[27.2462104,-29.823696],[27.2461489,-29.8238319]]]]},"properties":{"brand":"Shoprite","brand:wikidata":"Q1857639","building":"commercial","name":"Shoprite","shop":"supermarket"}},
{"type":"Feature","geometry":{"type":"MultiPolygon","coordinates":[[[[27.2474282,-29.8234091],[27.2478725,-29.823566],[27.247898,-29.8235211],[27.2479221,-29.8234649],[27.2479904,-29.8233149],[27.247546,-29.823157900000003],[27.2474282,-29.8234091]]]]},"properties":{"building":"commercial","name":"Asia Supermarket","shop":"supermarket"}},
{"type":"Feature","geometry":{"type":"MultiPolygon","coordinates":[[[[28.6735477,-30.1136971],[28.6735667,-30.1137512],[28.673608,-30.1137404],[28.6735891,-30.1136863],[28.6735477,-30.1136971]]]]},"properties":{"building":"commercial","name":"subsistence shop","shop":"convenience"}},
{"type":"Feature","geometry":{"type":"MultiPolygon","coordinates":[[[[27.2514001,-29.808444],[27.2514392,-29.8084463],[27.2514352,-29.8084994],[27.2514839,-29.8085022],[27.2514959,-29.8083458],[27.2514458,-29.808343],[27.2514423,-29.8083888],[27.2514045,-29.8083866],[27.2514001,-29.808444]]]]},"properties":{"building":"yes","shop":"convenience","source":"bing"}},
{"type":"Feature","geometry":{"type":"MultiPolygon","coordinates":[[[[28.6843818,-30.1182602],[28.6844369,-30.1183469],[28.6846576,-30.118242],[28.6846026,-30.1181553],[28.6843818,-30.1182602]]]]},"properties":{"building":"yes","shop":"supermarket"}},
{"type":"Feature","geometry":{"type":"MultiPolygon","coordinates":[[[[27.806278,-29.2774197],[27.806405,-29.2774502],[27.8064254,-29.2773851],[27.8062984,-29.2773548],[27.806278,-29.2774197]]]]},"properties":{"building":"yes","shop":"farm"}},
{"type":"Feature","geometry":{"type":"MultiPolygon","coordinates":[[[[27.8090537,-29.2748809],[27.8090805,-29.2748955],[27.8090741,-29.2749044],[27.8090967,-29.2749167],[27.8091022,-29.274909],[27.8091836,-29.2749534],[27.8092633,-29.2748423],[27.8091325,-29.274771],[27.8090537,-29.2748809]]]]},"properties":{"building":"yes","shop":"supermarket"}},
{"type":"Feature","geometry":{"type":"MultiPolygon","coordinates":[[[[27.2450906,-29.8227013],[27.245534,-29.8228204],[27.2455868,-29.8226465],[27.2451774,-29.8224486],[27.2450906,-29.8227013]]]]},"properties":{"amenity":"marketplace","building":"yes"}},
{"type":"Feature","geometry":{"type":"MultiPolygon","coordinates":[[[[28.0442214,-28.8707115],[28.0442439,-28.8707456],[28.0442752,-28.870728],[28.0443796,-28.8708689],[28.0443504,-28.8708855],[28.0443747,-28.8709183],[28.0444034,-28.870902],[28.044496,-28.8710268],[28.044471,-28.871041],[28.0444937,-28.8710716],[28.0449858,-28.8707907],[28.0447167,-28.8704292],[28.0444281,-28.870594],[28.0442214,-28.8707115]]]]},"properties":{"brand":"Shoprite","brand:wikidata":"Q1857639","building":"commercial","check_date":"2024-08-05","internet_access":"no","name":"Shoprite","payment:cash":"yes","payment:credit_cards":"yes","payment:mastercard":"yes","payment:mobile_phone":"yes","payment:visa":"yes","shop":"supermarket","wheelchair":"yes"}},
{"type":"Feature","geometry":{"type":"MultiPolygon","coordinates":[[[[27.2465672,-29.8233165],[27.2466188,-29.8233369],[27.2466631,-29.8233538],[27.2467174,-29.8233578],[27.246761,-29.8233788],[27.2468126,-29.8233759],[27.2468542,-29.8233898],[27.2468508,-29.8233974],[27.2469078,-29.8234282],[27.2469494,-29.8234265],[27.2470057,-29.8234405],[27.2470473,-29.8234509],[27.2470473,-29.8234428],[27.2471083,-29.8234631],[27.2471117,-29.8234399],[27.2465873,-29.8232729],[27.2465672,-29.8233165]]]]},"properties":{"amenity":"marketplace","building":"yes"}},
{"type":"Feature","geometry":{"type":"MultiPolygon","coordinates":[[[[27.2460492,-29.8232805],[27.2460512,-29.8234018],[27.2460869,-29.8234316],[27.2461818,-29.8234244],[27.2462461,-29.8233686],[27.2462937,-29.8232446],[27.2462359,-29.823211],[27.2462649,-29.8231626],[27.2462247,-29.8231475],[27.246112,-29.8231149],[27.24606,-29.8232193],[27.2460492,-29.8232805]]]]},"properties":{"amenity":"marketplace"}},
{"type":"Feature","geometry":{"type":"MultiPolygon","coordinates":[[[[27.2462314,-29.823539],[27.2462824,-29.8235553],[27.2463373,-29.8235495],[27.2463373,-29.8235006],[27.2463092,-29.8235064],[27.2463642,-29.8233761],[27.2464406,-29.8234029],[27.2464674,-29.8233494],[27.246442,-29.8233284],[27.2464634,-29.8232842],[27.2464031,-29.8232621],[27.2463508,-29.8233668],[27.2463213,-29.8233563],[27.2462314,-29.823539]]]]},"properties":{"amenity":"marketplace","building":"yes"}},
{"type":"Feature","geometry":{"type":"MultiPolygon","coordinates":[[[[27.2495826,-29.8233778],[27.2495853,-29.823436],[27.2500896,-29.8235895],[27.2501164,-29.8236477],[27.2504597,-29.8237408],[27.2506877,-29.8232801],[27.2498562,-29.823052],[27.2496926,-29.8232126],[27.2496577,-29.8232428],[27.2495826,-29.8233778]]]]},"properties":{"amenity":"marketplace"}},
{"type":"Feature","geometry":{"type":"MultiPolygon","coordinates":[[[[27.2490464,-29.8232214],[27.2491161,-29.82324],[27.2491778,-29.8231725],[27.2491724,-29.823112],[27.2492019,-29.8230375],[27.2491671,-29.8230329],[27.2491108,-29.8231004],[27.2490464,-29.8231423],[27.2490464,-29.8232214]]]]},"properties":{"amenity":"marketplace","building":"yes"}},
{"type":"Feature","geometry":{"type":"MultiPolygon","coordinates":[[[[27.2485965,-29.8242896],[27.2486877,-29.8242966],[27.2487789,-29.824271],[27.248795,-29.8242268],[27.2487682,-29.824173300000003],[27.2486985,-29.8242012],[27.248677,-29.8241849],[27.2486877,-29.8241128],[27.2486475,-29.8240616],[27.2486314,-29.8241826],[27.2485965,-29.8242896]]]]},"properties":{"amenity":"marketplace","building":"yes"}},
{"type":"Feature","geometry":{"type":"MultiPolygon","coordinates":[[[[27.2431192,-29.8226267],[27.2433394,-29.8226507],[27.2436172,-29.822609],[27.2437201,-29.822599],[27.2437355,-29.8225079],[27.2437561,-29.8224948],[27.2438017,-29.8225309],[27.2438273,-29.8225115],[27.2438597,-29.8225411],[27.244051,-29.8224239],[27.2442108,-29.8223076],[27.2443315,-29.822161],[27.2444362,-29.8220339],[27.2443401,-29.8219515],[27.244294,-29.8219957],[27.2441947,-29.8220818],[27.2441439,-29.8221427],[27.2441868,-29.8222196],[27.2440306,-29.822347],[27.24398,-29.8223691],[27.2439469,-29.8223706],[27.2438217,-29.8224396],[27.2436863,-29.8224228],[27.2436552,-29.8225224],[27.243121,-29.8224316],[27.2431192,-29.8226267]]]]},"properties":{"amenity":"marketplace"}},
{"type":"Feature","geometry":{"type":"MultiPolygon","coordinates":[[[[27.7417428,-29.1511724],[27.7417924,-29.151293],[27.7422229,-29.1511618],[27.7421372,-29.1509637],[27.7421551,-29.1509552],[27.7421356,-29.1509196],[27.742103,-29.150931],[27.7420704,-29.1508599],[27.7419255,-29.150904],[27.7418991,-29.1509133],[27.741905,-29.1509266],[27.7419353,-29.1509215],[27.7419869,-29.1510408],[27.742004,-29.1510874],[27.7419507,-29.1511023],[27.7419381,-29.151105],[27.7418687,-29.1511333],[27.7417428,-29.1511724]]]]},"properties":{"building":"yes","name":"Mansoor's","opening_hours":"Mo-Sa 09:00-17:30","shop":"supermarket"}},
{"type":"Feature","geometry":{"type":"MultiPolygon","coordinates":[[[[27.7416462,-29.1514547],[27.7416884,-29.1517898],[27.7419783,-29.1517618],[27.7419693,-29.1516628],[27.7420888,-29.1516548],[27.742056,-29.1514152],[27.7419407,-29.1514263],[27.7419366,-29.151394],[27.7417152,-29.1514154],[27.7417193,-29.1514477],[27.7416462,-29.1514547]]]]},"properties":{"building":"commercial","name":"Shoprite Usave","shop":"supermarket"}},
{"type":"Feature","geometry":{"type":"MultiPolygon","coordinates":[[[[27.742244,-29.1515786],[27.7422585,-29.151764],[27.7425964,-29.1517439],[27.7425819,-29.1515585],[27.7424631,-29.1515667],[27.7423601,-29.1515744],[27.742244,-29.1515786]]]]},"properties":{"building":"commercial","name":"Rite Price","opening_hours":"sunrise-sunset","shop":"supermarket"}},
{"type":"Feature","geometry":{"type":"MultiPolygon","coordinates":[[[[27.7578127,-29.1330414],[27.7578485,-29.1330919],[27.7579438,-29.1330403],[27.757908,-29.1329898],[27.7578127,-29.1330414]]]]},"properties":{"building":"commercial","name":"Scalo Shop","shop":"convenience"}},
{"type":"Feature","geometry":{"type":"MultiPolygon","coordinates":[[[[28.0527801,-29.841296],[28.0529742,-29.8413896],[28.0530548,-29.8412637],[28.0528055,-29.8411435],[28.0527814,-29.841181],[28.052807,-29.8411933],[28.052814,-29.8411824],[28.0528436,-29.8411967],[28.0527801,-29.841296]]]]},"properties":{"building":"yes","shop":"convenience"}},
{"type":"Feature","geometry":{"type":"MultiPolygon","coordinates":[[[[27.7462208,-29.1499518],[27.7462762,-29.1500153],[27.7464109,-29.1499256],[27.7463555,-29.1498621],[27.7462208,-29.1499518]]]]},"properties":{"building":"commercial","shop":"butcher"}},
{"type":"Feature","geometry":{"type":"MultiPolygon","coordinates":[[[[27.7466977,-29.1496022],[27.7468189,-29.1497457],[27.746922,-29.1496794],[27.7468007,-29.1495358],[27.7466977,-29.1496022]]]]},"properties":{"amenity":"marketplace","building":"commercial"}},
{"type":"Feature","geometry":{"type":"MultiPolygon","coordinates":[[[[27.741021,-29.1503458],[27.7410907,-29.1505118],[27.7412919,-29.1504473],[27.7412856,-29.1504323],[27.7413246,-29.1504198],[27.741317,-29.1504016],[27.7413822,-29.1503808],[27.7413981,-29.1504186],[27.7417333,-29.1503112],[27.7416408,-29.1500909],[27.7413252,-29.150192],[27.7413155,-29.1501688],[27.7412794,-29.1501803],[27.7412762,-29.1501726],[27.7411922,-29.1501995],[27.741226,-29.1502801],[27.741021,-29.1503458]]]]},"properties":{"building":"yes","name":"Four Square","opening_hours":"Mo-Sa 09:00-17:00","shop":"supermarket"}},
{"type":"Feature","geometry":{"type":"MultiPolygon","coordinates":[[[[28.2491322,-28.7638723],[28.2493445,-28.7642571],[28.2493936,-28.7642446],[28.2494058,-28.7642607],[28.249463,-28.7642428],[28.2494916,-28.7642893],[28.2497938,-28.7642267],[28.249802,-28.7642446],[28.2498591,-28.7642392],[28.2498632,-28.7641945],[28.2498101,-28.7641515],[28.249563,-28.7639994],[28.2495304,-28.7640119],[28.2494548,-28.7639689],[28.2494609,-28.7639367],[28.2492527,-28.7637989],[28.2491322,-28.7638723]]]]},"properties":{"building":"supermarket","name":"Lewis","shop":"supermarket"}},
{"type":"Feature","geometry":{"type":"MultiPolygon","coordinates":[[[[28.2488731,-28.7646677],[28.2489752,-28.764916500000003],[28.2493087,-28.7648113],[28.2492066,-28.7645625],[28.2488731,-28.7646677]]]]},"properties":{"building":"commercial","name":"Saverite Supermarket","shop":"supermarket"}},
{"type":"Feature","geometry":{"type":"MultiPolygon","coordinates":[[[[27.7438249,-29.1499659],[27.7438493,-29.1499972],[27.743835,-29.1500057],[27.7438532,-29.150029],[27.7439141,-29.1499928],[27.7439464,-29.1500343],[27.7439728,-29.1500186],[27.7439554,-29.1499962],[27.7439796,-29.1499819],[27.7439222,-29.1499082],[27.7438249,-29.1499659]]]]},"properties":{"building":"yes","shop":"convenience"}},
{"type":"Feature","geometry":{"type":"MultiPolygon","coordinates":[[[[27.7464557,-29.1492734],[27.7466024,-29.1494522],[27.7467059,-29.1493874],[27.7465591,-29.1492087],[27.7464557,-29.1492734]]]]},"properties":{"building":"yes","name":"Best Price","shop":"supermarket"}},
{"type":"Feature","geometry":{"type":"MultiPolygon","coordinates":[[[[27.7459638,-29.1496184],[27.7460842,-29.1497784],[27.7463009,-29.1496539],[27.7461805,-29.1494939],[27.7460746,-29.1495547],[27.7459638,-29.1496184]]]]},"properties":{"building":"commercial","name":"Roadside Butchers","shop":"butcher"}},
{"type":"Feature","geometry":{"type":"MultiPolygon","coordinates":[[[[27.4688796,-30.1355708],[27.4689197,-30.1356526],[27.4690203,-30.1356157],[27.4689801,-30.1355339],[27.4688796,-30.1355708]]]]},"properties":{"building":"yes","shop":"supermarket"}},
{"type":"Feature","geometry":{"type":"MultiPolygon","coordinates":[[[[28.249997,-28.7654587],[28.2500591,-28.7657499],[28.250789,-28.7656036],[28.2506894,-28.7652021],[28.2506302,-28.7651833],[28.250357,-28.7652421],[28.2502882,-28.7653009],[28.2501966,-28.7653167],[28.2501622,-28.7653669],[28.2500542,-28.7653913],[28.249997,-28.7654587]]]]},"properties":{"building":"supermarket","name":"ha malome","shop":"supermarket"}},
{"type":"Feature","geometry":{"type":"MultiPolygon","coordinates":[[[[28.2515168,-28.7674382],[28.2515953,-28.7676094],[28.2517597,-28.7675515],[28.2516812,-28.7673803],[28.2515168,-28.7674382]]]]},"properties":{"building":"commercial","name":"Gren's No 2 Supermarket","shop":"supermarket"}},
{"type":"Feature","geometry":{"type":"MultiPolygon","coordinates":[[[[28.2529192,-28.7675991],[28.2530579,-28.7677872],[28.2532989,-28.7676506],[28.2531603,-28.7674626],[28.2531287,-28.7674805],[28.253111,-28.7674566],[28.2530409,-28.7674963],[28.2530585,-28.7675203],[28.2529192,-28.7675991]]]]},"properties":{"building":"commercial","name":"Malome Supermarket","shop":"supermarket"}},
{"type":"Feature","geometry":{"type":"MultiPolygon","coordinates":[[[[28.2517463,-28.7674285],[28.2517848,-28.7675641],[28.2519099,-28.7675369],[28.2518635,-28.7673732],[28.251809,-28.767385],[28.2518169,-28.7674131],[28.2517463,-28.7674285]]]]},"properties":{"building":"commercial","name":"High Way Supermarket","shop":"supermarket"}},
{"type":"Feature","geometry":{"type":"MultiPolygon","coordinates":[[[[27.7054352,-30.408014],[27.7055062,-30.4080205],[27.7054828,-30.4082102],[27.7056837,-30.4082287],[27.7057139,-30.4079854],[27.7054419,-30.4079603],[27.7054352,-30.408014]]]]},"properties":{"amenity":"marketplace"}},
{"type":"Feature","geometry":{"type":"MultiPolygon","coordinates":[[[[27.7264454,-29.4505372],[27.7265788,-29.4505598],[27.7266107,-29.4504173],[27.7264774,-29.4503947],[27.7264454,-29.4505372]]]]},"properties":{"name":"Ha 'Ma Sqao","shop":"convenience","source:geometry":"Bing"}},
{"type":"Feature","geometry":{"type":"MultiPolygon","coordinates":[[[[27.7248539,-29.4485945],[27.7249812,-29.4486297],[27.7250127,-29.4485431],[27.7248854,-29.448508],[27.7248539,-29.4485945]]]]},"properties":{"building":"yes","capacity":"50","delivery":"yes","name":"Stevo","shop":"convenience","source:geometry":"Bing","takeaway":"yes"}},
{"type":"Feature","geometry":{"type":"MultiPolygon","coordinates":[[[[27.72371,-29.4488858],[27.7238199,-29.448921],[27.7237783,-29.4490196],[27.7238531,-29.4490435],[27.7239252,-29.4488724],[27.7237405,-29.4488133],[27.72371,-29.4488858]]]]},"properties":{"building":"yes","name":"Mzalas","shop":"convenience","source:geometry":"Bing"}},
{"type":"Feature","geometry":{"type":"MultiPolygon","coordinates":[[[[27.4682039,-30.1476557],[27.4683313,-30.1476571],[27.4683336,-30.1474914],[27.4682062,-30.1474901],[27.4682039,-30.1476557]]]]},"properties":{"building":"yes","shop":"farm"}},
{"type":"Feature","geometry":{"type":"MultiPolygon","coordinates":[[[[27.4906115,-29.3148794],[27.4906565,-29.3152408],[27.4910099,-29.3152073],[27.4909823,-29.3149857],[27.4908268,-29.3150005],[27.4908093,-29.3148606],[27.4906115,-29.3148794]]]]},"properties":{"addr:housenumber":"Maseru","addr:street":"Kingsway","amenity":"marketplace","building":"commercial","check_date":"2023-05-11","description":"Street Vendors","internet_access":"no","name":"Mafafa","payment:cards":"no","payment:credit_cards":"no","payment:debit_cards":"no","wheelchair":"limited"}},
{"type":"Feature","geometry":{"type":"MultiPolygon","coordinates":[[[[27.4797655,-30.1541901],[27.4798342,-30.1543214],[27.4799968,-30.1542577],[27.4799502,-30.1541686],[27.4799332,-30.1541753],[27.4799111,-30.1541331],[27.4797655,-30.1541901]]]]},"properties":{"building":"yes","name":"Ha Mafoso","shop":"butcher"}},
{"type":"Feature","geometry":{"type":"MultiPolygon","coordinates":[[[[27.4806898,-30.1542364],[27.4807713,-30.1542993],[27.4808648,-30.1542088],[27.4807833,-30.1541459],[27.4806898,-30.1542364]]]]},"properties":{"building":"yes","shop":"butcher"}},
{"type":"Feature","geometry":{"type":"MultiPolygon","coordinates":[[[[27.4803489,-30.1523526],[27.4804853,-30.152474],[27.4805169,-30.1525013],[27.4809132,-30.1526776],[27.4808212,-30.1528352],[27.4808569,-30.1529586],[27.4810146,-30.1530365],[27.4810222,-30.1531389],[27.480701,-30.1536261],[27.4808775,-30.1537284],[27.4809658,-30.1536196],[27.4810766,-30.1536115],[27.4812175,-30.1536976],[27.4812626,-30.1536878],[27.481302,-30.1536651],[27.4814429,-30.153847],[27.4815536,-30.1537905],[27.4814362,-30.1534639],[27.4813033,-30.1530903],[27.4815261,-30.1525776],[27.4807554,-30.1523642],[27.4805051,-30.1522175],[27.4803489,-30.1523526]]]]},"properties":{"amenity":"marketplace","fixme":"confirm","landuse":"retail","name":"Marketplace"}},
{"type":"Feature","geometry":{"type":"MultiPolygon","coordinates":[[[[27.4746425,-29.2956623],[27.4746667,-29.295803],[27.4747223,-29.2957958],[27.4746982,-29.295655],[27.4746425,-29.2956623]]]]},"properties":{"amenity":"marketplace","building":"yes"}},
{"type":"Feature","geometry":{"type":"MultiPolygon","coordinates":[[[[27.4808279,-30.1522963],[27.4816836,-30.152512],[27.4816648,-30.152577],[27.4822844,-30.1528182],[27.4823058,-30.1526906],[27.4821181,-30.1526303],[27.4821395,-30.1525561],[27.481933,-30.1524935],[27.4819893,-30.1523195],[27.4820805,-30.1521433],[27.481013,-30.151851],[27.4808279,-30.1522963]]]]},"properties":{"amenity":"marketplace"}},
{"type":"Feature","geometry":{"type":"MultiPolygon","coordinates":[[[[27.4919444,-29.3132579],[27.492,-29.3132848],[27.4921147,-29.3133444],[27.4921448,-29.313376],[27.4922703,-29.3134538],[27.4924854,-29.3135818],[27.4925565,-29.3135877],[27.4925988,-29.313552],[27.4926578,-29.3133684],[27.492749,-29.3130737],[27.4922957,-29.3129907],[27.4922635,-29.3130176],[27.4921945,-29.3132895],[27.4921523,-29.313231],[27.4921603,-29.3132058],[27.4921394,-29.3131404],[27.4920737,-29.3131059],[27.4920175,-29.3131223],[27.4919906,-29.3131357],[27.4919457,-29.3131965],[27.4919444,-29.3132579]]]]},"properties":{"amenity":"marketplace","name":"Sefika"}},
{"type":"Feature","geometry":{"type":"MultiPolygon","coordinates":[[[[28.2498072,-28.7679081],[28.2498523,-28.7679759],[28.2499163,-28.7679432],[28.2499637,-28.7680144],[28.2500386,-28.7679761],[28.2499915,-28.7679053],[28.2500382,-28.7678815],[28.2499928,-28.7678132],[28.2498072,-28.7679081]]]]},"properties":{"building":"commercial","name":"Qholaqhoe Butchery","shop":"butcher"}},
{"type":"Feature","geometry":{"type":"MultiPolygon","coordinates":[[[[28.2509213,-28.7680287],[28.2511015,-28.7682298],[28.2512557,-28.7681236],[28.2511092,-28.7679601],[28.2510345,-28.7680115],[28.2510008,-28.767974],[28.2509213,-28.7680287]]]]},"properties":{"building":"commercial","name":"Line Up Supermarket","shop":"supermarket"}},
{"type":"Feature","geometry":{"type":"MultiPolygon","coordinates":[[[[28.2516637,-28.7678156],[28.2517744,-28.7679896],[28.25184,-28.7679575],[28.2517293,-28.7677836],[28.2516637,-28.7678156]]]]},"properties":{"building":"commercial","name":"Friendly Mini Market","shop":"convenience"}},
{"type":"Feature","geometry":{"type":"MultiPolygon","coordinates":[[[[28.2519683,-28.7660906],[28.252246,-28.7670703],[28.2530472,-28.7668991],[28.2527628,-28.7659386],[28.2519683,-28.7660906]]]]},"properties":{"amenity":"marketplace","name":"Botha-Bothe Flea Market and Taxi Rank"}},
{"type":"Feature","geometry":{"type":"MultiPolygon","coordinates":[[[[28.2525563,-28.7676523],[28.2527316,-28.7678521],[28.2528175,-28.7677941],[28.2526976,-28.7676574],[28.2526422,-28.7675943],[28.2525563,-28.7676523]]]]},"properties":{"building":"yes","name":"Butchery","shop":"butcher"}},
{"type":"Feature","geometry":{"type":"MultiPolygon","coordinates":[[[[27.4961393,-29.313287],[27.4961947,-29.3134887],[27.4961977,-29.3134996],[27.4962083,-29.3134974],[27.4963092,-29.3138651],[27.4965541,-29.313814],[27.4963819,-29.3131865],[27.4962249,-29.3132192],[27.4962379,-29.3132665],[27.4961393,-29.313287]]]]},"properties":{"building":"yes","shop":"supermarket"}},
{"type":"Feature","geometry":{"type":"MultiPolygon","coordinates":[[[[27.5337756,-29.2768956],[27.533794,-29.276941],[27.5339088,-29.2769057],[27.5339168,-29.2769254],[27.5339716,-29.2769085],[27.5339263,-29.2767966],[27.5337951,-29.276837],[27.533814,-29.2768838],[27.5337756,-29.2768956]]]]},"properties":{"building":"commercial","shop":"convenience"}},
{"type":"Feature","geometry":{"type":"MultiPolygon","coordinates":[[[[27.5365355,-29.3688908],[27.5366669,-29.3691293],[27.5367594,-29.3691617],[27.5367376,-29.3692026],[27.5367829,-29.3692234],[27.5367273,-29.3692915],[27.536787,-29.3693681],[27.5368969,-29.3693249],[27.5370661,-29.3692616],[27.5371106,-29.3692152],[27.5367716,-29.3690428],[27.5366965,-29.3689095],[27.5367716,-29.3688815],[27.5367388,-29.3688104],[27.5366668,-29.3688394],[27.5366482,-29.3688043],[27.5365355,-29.3688908]]]]},"properties":{"addr:housename":"Hillside shopping complex","building":"commercial","building:levels":"1","shop":"supermarket"}},
{"type":"Feature","geometry":{"type":"MultiPolygon","coordinates":[[[[27.5270943,-29.2834303],[27.5271543,-29.2834522],[27.5271249,-29.2835135],[27.5271916,-29.2835378],[27.5272208,-29.2834766],[27.5272825,-29.283499],[27.5273375,-29.2833841],[27.5271491,-29.2833156],[27.5270943,-29.2834303]]]]},"properties":{"building":"commercial","shop":"supermarket"}},
{"type":"Feature","geometry":{"type":"MultiPolygon","coordinates":[[[[27.4709993,-29.2997941],[27.4710393,-29.300537],[27.4714037,-29.300522],[27.47139,-29.3002695],[27.4717062,-29.3002565],[27.4717017,-29.300173],[27.4717662,-29.3001703],[27.4717486,-29.2998438],[27.4716994,-29.2998459],[27.471695,-29.2997655],[27.4709993,-29.2997941]]]]},"properties":{"addr:housenumber":"Maseru, Industrial Area","addr:street":"Lepoqo Road","building":"retail","building:levels":"1","check_date":"2023-04-17","currency:M":"yes","currency:R":"yes","internet_access":"no","name":"Browns Cash and Carry","opening_hours":"Mo-Fr 08:00-17:00; Sa-Su 08:30-12:00","payment:credit_cards":"yes","payment:debit_cards":"yes","payment:mastercard":"yes","payment:mobile_phone":"yes","payment:visa":"yes","phone":"+266 2231 3209","roof:levels":"1","roof:shape":"gambrel","second_hand":"no","shop":"supermarket","stroller":"yes","wheelchair":"limited"}},
{"type":"Feature","geometry":{"type":"MultiPolygon","coordinates":[[[[28.3720805,-28.688481],[28.3722121,-28.6885037],[28.3722608,-28.6882859],[28.3721291,-28.6882633],[28.3720805,-28.688481]]]]},"properties":{"building":"yes","shop":"convenience"}},
{"type":"Feature","geometry":{"type":"MultiPolygon","coordinates":[[[[27.539777,-29.2758098],[27.5398897,-29.2758793],[27.5399803,-29.2757674],[27.5398677,-29.2756979],[27.539777,-29.2758098]]]]},"properties":{"building":"yes","fixme":"Check name.","name":"Supermarket","shop":"supermarket"}},
{"type":"Feature","geometry":{"type":"MultiPolygon","coordinates":[[[[27.4875376,-29.3318014],[27.4876306,-29.3318469],[27.4876137,-29.3318732],[27.4876807,-29.3319059],[27.4876881,-29.3318944],[27.4878417,-29.3319696],[27.4879106,-29.3318625],[27.487735,-29.3317766],[27.4877277,-29.331788],[27.4876788,-29.3317641],[27.4876935,-29.3317412],[27.4876328,-29.3317115],[27.4876089,-29.3317487],[27.4875805,-29.3317348],[27.4875376,-29.3318014]]]]},"properties":{"building":"yes","name":"Bakery","shop":"bakery"}},
{"type":"Feature","geometry":{"type":"MultiPolygon","coordinates":[[[[27.7647408,-28.972678],[27.7649989,-28.9727804],[27.7650813,-28.9726232],[27.764988,-28.9725459],[27.7648366,-28.9724913],[27.7647408,-28.972678]]]]},"properties":{"shop":"butcher"}},
{"type":"Feature","geometry":{"type":"MultiPolygon","coordinates":[[[[27.7640005,-28.9728232],[27.7642437,-28.9728979],[27.7642919,-28.9727778],[27.7640486,-28.9727031],[27.7640005,-28.9728232]]]]},"properties":{"building":"yes","name":"Basotho Supermarket","shop":"supermarket"}},
{"type":"Feature","geometry":{"type":"MultiPolygon","coordinates":[[[[27.7635246,-28.9721828],[27.7635725,-28.9722984],[27.7635778,-28.9724768],[27.7637954,-28.9724696],[27.7637844,-28.9722233],[27.7635832,-28.972112],[27.7635246,-28.9721828]]]]},"properties":{"name":"Galaxy butchery","shop":"butcher"}},
{"type":"Feature","geometry":{"type":"MultiPolygon","coordinates":[[[[28.1268913,-28.791276],[28.1269955,-28.7913045],[28.1271215,-28.791159],[28.1272305,-28.7909788],[28.127186,-28.7908955],[28.1269289,-28.7908505],[28.1268913,-28.791276]]]]},"properties":{"landuse":"retail","name":"Bakuena general dealer","shop":"convenience"}},
{"type":"Feature","geometry":{"type":"MultiPolygon","coordinates":[[[[27.5277333,-29.2987937],[27.5278088,-29.2988752],[27.5280808,-29.2986836],[27.5280053,-29.2986021],[27.5277333,-29.2987937]]]]},"properties":{"building":"retail","shop":"supermarket"}},
{"type":"Feature","geometry":{"type":"MultiPolygon","coordinates":[[[[28.2088652,-29.0013859],[28.2089115,-29.0015401],[28.2090468,-29.0014837],[28.2091326,-29.0014294],[28.2091427,-29.0014417],[28.20933,-29.001323],[28.2092043,-29.0011712],[28.2088652,-29.0013859]]]]},"properties":{"building":"supermarket","name":"Hilight Supermarket","shop":"supermarket","source":"Bing"}},
{"type":"Feature","geometry":{"type":"MultiPolygon","coordinates":[[[[27.5494175,-29.28551],[27.5495184,-29.2856526],[27.5496713,-29.2855703],[27.5496131,-29.2854882],[27.5496477,-29.2854696],[27.5496049,-29.2854091],[27.5494175,-29.28551]]]]},"properties":{"building":"retail","name":"Machabeng","shop":"supermarket","source":"Bing"}},
{"type":"Feature","geometry":{"type":"MultiPolygon","coordinates":[[[[27.5236599,-29.3221773],[27.5236941,-29.3222518],[27.5237604,-29.3222286],[27.5237262,-29.3221541],[27.5236599,-29.3221773]]]]},"properties":{"building":"commercial","name":"Lap lume","shop":"convenience"}},
{"type":"Feature","geometry":{"type":"MultiPolygon","coordinates":[[[[27.5517679,-29.4108414],[27.5518382,-29.4108502],[27.5518634,-29.4106974],[27.551782,-29.4106873],[27.5517679,-29.4107729],[27.5517789,-29.4107742],[27.5517679,-29.4108414]]]]},"properties":{"building":"yes","name":"Mini shop","opening_hours":"12:00+","operator":"Jubere","shop":"supermarket"}},
{"type":"Feature","geometry":{"type":"MultiPolygon","coordinates":[[[[27.5177358,-29.3064181],[27.5180603,-29.3065631],[27.5181381,-29.3064695],[27.5179044,-29.3063278],[27.5177358,-29.3064181]]]]},"properties":{"building":"commercial","name":"Lancer's Gap Supermakert","opening_hours":"sunrise-sunset","shop":"supermarket"}},
{"type":"Feature","geometry":{"type":"MultiPolygon","coordinates":[[[[27.5257711,-29.3204462],[27.5259431,-29.3204826],[27.5259514,-29.3204531],[27.5259736,-29.3204578],[27.525988,-29.3204066],[27.5257938,-29.3203653],[27.5257711,-29.3204462]]]]},"properties":{"building":"commercial","name":"Litaung","shop":"convenience"}},
{"type":"Feature","geometry":{"type":"MultiPolygon","coordinates":[[[[27.5316988,-29.3172617],[27.5317991,-29.3174134],[27.5318962,-29.3173646],[27.5317959,-29.3172129],[27.5316988,-29.3172617]]]]},"properties":{"building":"yes","name":"Mkhehlane Shopping Complex","shop":"convenience"}},
{"type":"Feature","geometry":{"type":"MultiPolygon","coordinates":[[[[27.5329858,-29.322069],[27.5329928,-29.322183],[27.53322,-29.3221725],[27.5332123,-29.3220462],[27.5331743,-29.322048],[27.533172,-29.3220098],[27.5330798,-29.3220141],[27.5330817,-29.322046],[27.5330257,-29.3220486],[27.5330268,-29.3220671],[27.5329858,-29.322069]]]]},"properties":{"building":"commercial","name":"Makara Shopping Centre","shop":"convenience"}},
{"type":"Feature","geometry":{"type":"MultiPolygon","coordinates":[[[[28.1636025,-28.9358731],[28.1637908,-28.9359065],[28.1638081,-28.9358319],[28.1636198,-28.9357984],[28.1636025,-28.9358731]]]]},"properties":{"shop":"convenience"}},
{"type":"Feature","geometry":{"type":"MultiPolygon","coordinates":[[[[29.0386515,-29.2876461],[29.0386626,-29.287778],[29.038709,-29.287775],[29.0386978,-29.2876431],[29.0386515,-29.2876461]]]]},"properties":{"building":"retail","fixme":"Check details","name":"Butcher","shop":"butcher"}},
{"type":"Feature","geometry":{"type":"MultiPolygon","coordinates":[[[[28.1713991,-28.935817],[28.1716614,-28.9357492],[28.1718666,-28.9354414],[28.1716263,-28.9353407],[28.1715184,-28.9354987],[28.1713991,-28.935817]]]]},"properties":{"name":"Motloheloa Store","shop":"convenience"}},
{"type":"Feature","geometry":{"type":"MultiPolygon","coordinates":[[[[29.0219553,-29.3516443],[29.0220025,-29.3518309],[29.0221796,-29.3517969],[29.0221324,-29.3516102],[29.0219553,-29.3516443]]]]},"properties":{"building":"yes","shop":"supermarket"}},
{"type":"Feature","geometry":{"type":"MultiPolygon","coordinates":[[[[27.7640578,-28.9726811],[27.7643224,-28.972754],[27.7643577,-28.9726559],[27.764093,-28.9725831],[27.7640578,-28.9726811]]]]},"properties":{"building":"yes","name":"Basotho Supermarket","shop":"supermarket"}},
{"type":"Feature","geometry":{"type":"MultiPolygon","coordinates":[[[[28.1690612,-28.949315],[28.1690945,-28.9494851],[28.1692165,-28.9494668],[28.1691832,-28.9492967],[28.1690612,-28.949315]]]]},"properties":{"building":"yes","shop":"supermarket"}},
{"type":"Feature","geometry":{"type":"MultiPolygon","coordinates":[[[[27.5340836,-29.286023],[27.5341741,-29.286123],[27.5342983,-29.2860376],[27.5341777,-29.2859041],[27.5340931,-29.2859623],[27.5341233,-29.2859957],[27.5340836,-29.286023]]]]},"properties":{"building":"yes","name":"Phahameng","operator":"Maitin","shop":"supermarket"}},
{"type":"Feature","geometry":{"type":"MultiPolygon","coordinates":[[[[28.1311676,-28.9259433],[28.1312395,-28.9259809],[28.1312798,-28.9259218],[28.1312079,-28.9258842],[28.1311676,-28.9259433]]]]},"properties":{"building":"yes","shop":"convenience"}},
{"type":"Feature","geometry":{"type":"MultiPolygon","coordinates":[[[[28.1304588,-28.9264805],[28.1305573,-28.9265566],[28.1306313,-28.9264832],[28.1305328,-28.9264071],[28.1304588,-28.9264805]]]]},"properties":{"building":"yes","shop":"supermarket"}},
{"type":"Feature","geometry":{"type":"MultiPolygon","coordinates":[[[[27.5234565,-29.2873238],[27.5234813,-29.2876413],[27.5235386,-29.2876021],[27.5237446,-29.2873833],[27.5236563,-29.2873117],[27.5234565,-29.2873238]]]]},"properties":{"building":"yes","name":"Nutri-Foods","shop":"supermarket"}},
{"type":"Feature","geometry":{"type":"MultiPolygon","coordinates":[[[[27.5234255,-29.2867188],[27.5235049,-29.2867858],[27.5235884,-29.2867106],[27.523509,-29.2866436],[27.5234255,-29.2867188]]]]},"properties":{"building":"yes","name":"Thembalethu","shop":"butcher"}},
{"type":"Feature","geometry":{"type":"MultiPolygon","coordinates":[[[[27.5227665,-29.2863578],[27.5227811,-29.2866476],[27.5231169,-29.2866347],[27.5231142,-29.2865813],[27.5228444,-29.2865916],[27.5228325,-29.2863552],[27.5227665,-29.2863578]]]]},"properties":{"amenity":"marketplace","building":"yes"}},
{"type":"Feature","geometry":{"type":"MultiPolygon","coordinates":[[[[27.5228217,-29.2862975],[27.522878,-29.2863467],[27.5230537,-29.2863396],[27.5230979,-29.2862858],[27.5228217,-29.2862975]]]]},"properties":{"amenity":"marketplace","building":"yes"}},
{"type":"Feature","geometry":{"type":"MultiPolygon","coordinates":[[[[27.5229739,-29.2861686],[27.5230906,-29.2862505],[27.5232234,-29.2861125],[27.5231013,-29.2860341],[27.5230537,-29.2859998],[27.5229822,-29.2860754],[27.5230298,-29.2861096],[27.5229739,-29.2861686]]]]},"properties":{"building":"yes","name":"Pholoho General Cafe","shop":"supermarket"}},
{"type":"Feature","geometry":{"type":"MultiPolygon","coordinates":[[[[28.1176931,-28.9207398],[28.1177734,-28.9207953],[28.1178213,-28.9207424],[28.117741,-28.9206868],[28.1176931,-28.9207398]]]]},"properties":{"building":"yes","shop":"convenience"}},
{"type":"Feature","geometry":{"type":"MultiPolygon","coordinates":[[[[27.456075,-29.5597772],[27.4561617,-29.5597781],[27.4561624,-29.5597234],[27.4560758,-29.5597225],[27.456075,-29.5597772]]]]},"properties":{"building":"yes","name":"Proxi","shop":"convenience"}},
{"type":"Feature","geometry":{"type":"MultiPolygon","coordinates":[[[[28.210786,-29.0034138],[28.2108519,-29.0035535],[28.2109496,-29.0035182],[28.2108837,-29.0033786],[28.210786,-29.0034138]]]]},"properties":{"building":"yes","shop":"bakery"}},
{"type":"Feature","geometry":{"type":"MultiPolygon","coordinates":[[[[28.2097095,-29.0014092],[28.2097983,-29.0014842],[28.210005,-29.0012968],[28.2099162,-29.0012219],[28.2097095,-29.0014092]]]]},"properties":{"building":"yes","shop":"supermarket"}},
{"type":"Feature","geometry":{"type":"MultiPolygon","coordinates":[[[[28.2089821,-29.0011263],[28.2090888,-29.0012233],[28.2091646,-29.0011596],[28.2090579,-29.0010626],[28.2089821,-29.0011263]]]]},"properties":{"building":"yes","shop":"supermarket"}},
{"type":"Feature","geometry":{"type":"MultiPolygon","coordinates":[[[[28.2097745,-29.0008612],[28.2099133,-29.0010057],[28.2099668,-29.0009663],[28.209828,-29.0008219],[28.2097745,-29.0008612]]]]},"properties":{"building":"yes","shop":"bakery"}},
{"type":"Feature","geometry":{"type":"MultiPolygon","coordinates":[[[[28.2094214,-29.0006664],[28.2095862,-29.0008631],[28.2098132,-29.0007177],[28.2096483,-29.0005209],[28.2094214,-29.0006664]]]]},"properties":{"building":"yes","shop":"supermarket"}},
{"type":"Feature","geometry":{"type":"MultiPolygon","coordinates":[[[[28.2092887,-29.0002416],[28.2094102,-29.000361],[28.2094257,-29.0003792],[28.2095387,-29.0002932],[28.2094016,-29.0001556],[28.2092887,-29.0002416]]]]},"properties":{"building":"yes","shop":"supermarket"}},
{"type":"Feature","geometry":{"type":"MultiPolygon","coordinates":[[[[27.490948,-29.590617],[27.4910343,-29.5912481],[27.4915824,-29.5911421],[27.49142,-29.5905508],[27.490948,-29.590617]]]]},"properties":{"name":"Profi","shop":"supermarket"}},
{"type":"Feature","geometry":{"type":"MultiPolygon","coordinates":[[[[27.4577871,-29.5609619],[27.4577957,-29.561091],[27.4578005,-29.5611999],[27.4585838,-29.5611243],[27.4584906,-29.5604371],[27.4580516,-29.5604109],[27.4577871,-29.5609619]]]]},"properties":{"landuse":"commercial","name":"Profi","shop":"supermarket"}},
{"type":"Feature","geometry":{"type":"MultiPolygon","coordinates":[[[[27.7439933,-29.5782632],[27.744032,-29.5783115],[27.7440521,-29.5782993],[27.744157,-29.5784302],[27.7442059,-29.5784005],[27.744236,-29.578438],[27.7443311,-29.5783804],[27.74436,-29.5784165],[27.7444136,-29.578384],[27.7443506,-29.5783055],[27.7442781,-29.5783495],[27.7441383,-29.5781752],[27.7439933,-29.5782632]]]]},"properties":{"building":"yes","shop":"supermarket"}},
{"type":"Feature","geometry":{"type":"MultiPolygon","coordinates":[[[[27.7487574,-29.5777321],[27.7488601,-29.5778098],[27.7489154,-29.5777547],[27.74894,-29.5777733],[27.749064,-29.5776494],[27.7491098,-29.5776841],[27.7491498,-29.5776442],[27.7491005,-29.5776069],[27.7490792,-29.5776282],[27.7489058,-29.5774969],[27.7487631,-29.5776393],[27.7488127,-29.5776769],[27.7487574,-29.5777321]]]]},"properties":{"building":"yes","name":"Frazers supermarket","shop":"supermarket"}},
{"type":"Feature","geometry":{"type":"MultiPolygon","coordinates":[[[[27.7377441,-29.5731324],[27.7379488,-29.5731222],[27.7379751,-29.5729843],[27.7377479,-29.5729818],[27.7377479,-29.5730119],[27.7377441,-29.5731324]]]]},"properties":{"shop":"convenience"}},
{"type":"Feature","geometry":{"type":"MultiPolygon","coordinates":[[[[27.7561099,-29.5586108],[27.7561394,-29.558637],[27.756152,-29.5586262],[27.7561707,-29.5586428],[27.7561916,-29.5586249],[27.7561434,-29.5585822],[27.7561099,-29.5586108]]]]},"properties":{"building":"yes","shop":"convenience"}},
{"type":"Feature","geometry":{"type":"MultiPolygon","coordinates":[[[[27.5212184,-29.314011],[27.5212654,-29.3140775],[27.5212486,-29.3140865],[27.5212858,-29.3141393],[27.5213894,-29.3140837],[27.521369,-29.3140549],[27.5214013,-29.3140376],[27.5213677,-29.3139899],[27.5213354,-29.3140073],[27.5213052,-29.3139644],[27.5212184,-29.314011]]]]},"properties":{"building":"commercial","name":"Phuthalichaba Supermakert","opening_hours":"sunrise-sunset","shop":"supermarket"}},
{"type":"Feature","geometry":{"type":"MultiPolygon","coordinates":[[[[27.5215252,-29.3145795],[27.5215864,-29.3146717],[27.5216813,-29.3146239],[27.5216201,-29.3145316],[27.5215252,-29.3145795]]]]},"properties":{"building":"commercial","name":"Soweto Butchery","opening_hours":"sunrise-sunset","shop":"butcher"}},
{"type":"Feature","geometry":{"type":"MultiPolygon","coordinates":[[[[27.5384971,-29.2962765],[27.5386582,-29.296435],[27.5387092,-29.2963955],[27.5387202,-29.2964063],[27.5387858,-29.2963556],[27.5386139,-29.2961863],[27.5384971,-29.2962765]]]]},"properties":{"building":"yes","name":"Mpeoa","shop":"supermarket"}},
{"type":"Feature","geometry":{"type":"MultiPolygon","coordinates":[[[[28.2129009,-29.0072751],[28.2129125,-29.0073887],[28.2130248,-29.0073799],[28.2130132,-29.0072663],[28.2129009,-29.0072751]]]]},"properties":{"building":"yes","shop":"supermarket"}},
{"type":"Feature","geometry":{"type":"MultiPolygon","coordinates":[[[[28.2138034,-29.0116017],[28.2138543,-29.0116659],[28.2139203,-29.0116258],[28.2138695,-29.0115616],[28.2138034,-29.0116017]]]]},"properties":{"building":"yes","shop":"convenience"}},
{"type":"Feature","geometry":{"type":"MultiPolygon","coordinates":[[[[27.5278239,-29.2780695],[27.5278329,-29.278174],[27.5279842,-29.278164],[27.5279752,-29.2780595],[27.5278239,-29.2780695]]]]},"properties":{"building":"commercial","name":"Busy Corner Cafe","shop":"convenience"}},
{"type":"Feature","geometry":{"type":"MultiPolygon","coordinates":[[[[27.537056,-29.3109216],[27.5370594,-29.3110061],[27.5372622,-29.3109999],[27.5372577,-29.3108866],[27.5371023,-29.3108913],[27.5371034,-29.3109201],[27.537056,-29.3109216]]]]},"properties":{"building":"yes","shop":"supermarket"}},
{"type":"Feature","geometry":{"type":"MultiPolygon","coordinates":[[[[29.0328631,-29.2997558],[29.0328654,-29.2998358],[29.0330423,-29.2998319],[29.0330404,-29.2997648],[29.0329922,-29.299753],[29.0328631,-29.2997558]]]]},"properties":{"shop":"supermarket"}},
{"type":"Feature","geometry":{"type":"MultiPolygon","coordinates":[[[[28.8707004,-29.2065127],[28.8707718,-29.2066624],[28.8710072,-29.2065769],[28.8709561,-29.2064698],[28.870949,-29.2064723],[28.8709254,-29.2064227],[28.8708281,-29.206458],[28.8708314,-29.2064651],[28.8707004,-29.2065127]]]]},"properties":{"building":"commercial","shop":"convenience"}},
{"type":"Feature","geometry":{"type":"MultiPolygon","coordinates":[[[[28.8704824,-29.2063495],[28.8705207,-29.2064063],[28.8705493,-29.2064479],[28.8705945,-29.206515],[28.870766,-29.2064268],[28.8706987,-29.206327],[28.8706686,-29.2063425],[28.8706638,-29.2063353],[28.8706371,-29.206349],[28.8705975,-29.2062903],[28.8704824,-29.2063495]]]]},"properties":{"building":"commercial","shop":"convenience"}},
{"type":"Feature","geometry":{"type":"MultiPolygon","coordinates":[[[[28.8703512,-29.2061748],[28.8704411,-29.206282],[28.8705654,-29.2062025],[28.8704585,-29.206075],[28.8704125,-29.2061043],[28.8704296,-29.2061247],[28.8703512,-29.2061748]]]]},"properties":{"building":"commercial","shop":"convenience"}},
{"type":"Feature","geometry":{"type":"MultiPolygon","coordinates":[[[[28.8702083,-29.205944],[28.8702849,-29.2060867],[28.8702611,-29.2060964],[28.8702867,-29.2061442],[28.8704552,-29.2060752],[28.8703686,-29.2059142],[28.8702856,-29.2059482],[28.8702698,-29.2059188],[28.8702083,-29.205944]]]]},"properties":{"building":"commercial","shop":"convenience"}},
{"type":"Feature","geometry":{"type":"MultiPolygon","coordinates":[[[[28.8697333,-29.2070299],[28.8699929,-29.2072335],[28.8699856,-29.2072406],[28.870054,-29.2072943],[28.870045,-29.207303],[28.870081,-29.2073313],[28.8700572,-29.2073495],[28.8701023,-29.2073945],[28.8701291,-29.207374],[28.8701464,-29.2073913],[28.8701955,-29.2073538],[28.8701804,-29.2073387],[28.8704522,-29.2071387],[28.87037,-29.2070535],[28.8701776,-29.2071951],[28.8700916,-29.2071276],[28.8701067,-29.2071129],[28.8698529,-29.2069138],[28.8697333,-29.2070299]]]]},"properties":{"building":"commercial","shop":"supermarket"}},
{"type":"Feature","geometry":{"type":"MultiPolygon","coordinates":[[[[28.8718371,-29.2087599],[28.8721788,-29.2089341],[28.8723003,-29.2087524],[28.8721066,-29.2086537],[28.8720562,-29.2087292],[28.8719082,-29.2086537],[28.8718371,-29.2087599]]]]},"properties":{"building":"commercial","shop":"supermarket"}},
{"type":"Feature","geometry":{"type":"MultiPolygon","coordinates":[[[[28.2717173,-28.9252076],[28.2717181,-28.9252423],[28.2718098,-28.9252407],[28.271809,-28.925206],[28.2717173,-28.9252076]]]]},"properties":{"building":"yes","shop":"convenience"}},
{"type":"Feature","geometry":{"type":"MultiPolygon","coordinates":[[[[27.7388256,-29.061497],[27.7389255,-29.0618653],[27.738969,-29.0618563],[27.7388691,-29.061488],[27.7388256,-29.061497]]]]},"properties":{"amenity":"marketplace","name":"Kolonyama Market"}},
{"type":"Feature","geometry":{"type":"MultiPolygon","coordinates":[[[[27.7651065,-28.9718201],[27.7651403,-28.9718979],[27.7652482,-28.971862],[27.7652145,-28.9717843],[27.7651065,-28.9718201]]]]},"properties":{"building":"yes","name":"Super U","shop":"supermarket"}},
{"type":"Feature","geometry":{"type":"MultiPolygon","coordinates":[[[[27.436011,-29.691511],[27.4361255,-29.6915375],[27.4361728,-29.6913829],[27.4360583,-29.6913565],[27.436011,-29.691511]]]]},"properties":{"building:colour":"cream","building:levels":"1","building:material":"plaster","roof:colour":"silver","roof:material":"metal","roof:orientation":"along","roof:shape":"flat","shop":"supermarket"}},
{"type":"Feature","geometry":{"type":"MultiPolygon","coordinates":[[[[27.4378996,-29.6914041],[27.4379524,-29.6914238],[27.4379559,-29.6914167],[27.4379617,-29.6914189],[27.4379776,-29.6913867],[27.4379807,-29.6913804],[27.4379221,-29.6913587],[27.4378996,-29.6914041]]]]},"properties":{"building:colour":"silver","building:levels":"1","building:material":"metal","roof:colour":"silver","roof:material":"metal","roof:orientation":"along","roof:shape":"gabled","shop":"farm"}},
{"type":"Feature","geometry":{"type":"MultiPolygon","coordinates":[[[[27.4354126,-29.6919699],[27.4354905,-29.6919775],[27.435518,-29.6917626],[27.4354402,-29.6917551],[27.4354126,-29.6919699]]]]},"properties":{"building":"warehouse","building:colour":"red","building:levels":"1","building:material":"plaster","roof:colour":"brown","roof:material":"roof_tiles","roof:orientation":"along","roof:shape":"flat","shop":"supermarket"}},
{"type":"Feature","geometry":{"type":"MultiPolygon","coordinates":[[[[28.2576878,-28.9405287],[28.2577292,-28.9405498],[28.2577634,-28.9404986],[28.2577219,-28.9404774],[28.2576878,-28.9405287]]]]},"properties":{"building":"yes","shop":"convenience"}},
{"type":"Feature","geometry":{"type":"MultiPolygon","coordinates":[[[[27.7638736,-28.9724929],[27.7640516,-28.9725647],[27.7640941,-28.9725059],[27.763967,-28.9724251],[27.7639295,-28.9724657],[27.7638972,-28.9724644],[27.7638736,-28.9724929]]]]},"properties":{"building":"yes","shop":"butcher"}},
{"type":"Feature","geometry":{"type":"MultiPolygon","coordinates":[[[[27.4956005,-29.3151363],[27.4965549,-29.3149541],[27.4964427,-29.3144662],[27.4957094,-29.3146266],[27.4956678,-29.3146371],[27.4956005,-29.3151363]]]]},"properties":{"amenity":"marketplace","landuse":"retail","name":"Maseru Market"}},
{"type":"Feature","geometry":{"type":"MultiPolygon","coordinates":[[[[27.6092651,-29.2868193],[27.6093672,-29.28687],[27.6094049,-29.2868122],[27.6093027,-29.2867616],[27.6092651,-29.2868193]]]]},"properties":{"name:en":"Ha 'Masekete","shop":"convenience"}},
{"type":"Feature","geometry":{"type":"MultiPolygon","coordinates":[[[[27.6100148,-29.2862065],[27.6100953,-29.2862065],[27.6100953,-29.2861986],[27.6101734,-29.2861987],[27.6101735,-29.2861427],[27.6100149,-29.2861426],[27.6100148,-29.2862065]]]]},"properties":{"shop":"convenience"}},
{"type":"Feature","geometry":{"type":"MultiPolygon","coordinates":[[[[28.2115161,-28.9742365],[28.2115654,-28.9742603],[28.2116375,-28.9741462],[28.2115882,-28.9741224],[28.2115161,-28.9742365]]]]},"properties":{"building":"yes","shop":"convenience"}},
{"type":"Feature","geometry":{"type":"MultiPolygon","coordinates":[[[[27.5229835,-29.3185276],[27.5230532,-29.318649],[27.523259,-29.3185593],[27.5231893,-29.3184378],[27.5229835,-29.3185276]]]]},"properties":{"building":"commercial","building:levels":"1","roof:levels":"1","shop":"convenience"}},
{"type":"Feature","geometry":{"type":"MultiPolygon","coordinates":[[[[28.1527416,-28.9362085],[28.1527605,-28.9362654],[28.1528597,-28.9362402],[28.1528409,-28.9361833],[28.1527416,-28.9362085]]]]},"properties":{"building":"yes","shop":"convenience"}},
{"type":"Feature","geometry":{"type":"MultiPolygon","coordinates":[[[[28.152634,-28.9364993],[28.1526705,-28.9366043],[28.1527662,-28.9365789],[28.1527547,-28.9365459],[28.1527149,-28.9365566],[28.1526898,-28.9364845],[28.152634,-28.9364993]]]]},"properties":{"building":"yes","shop":"supermarket"}},
{"type":"Feature","geometry":{"type":"MultiPolygon","coordinates":[[[[28.0529263,-29.8434827],[28.0533174,-29.8435636],[28.0533805,-29.8433344],[28.0529893,-29.8432535],[28.0529263,-29.8434827]]]]},"properties":{"building":"yes","shop":"supermarket"}},
{"type":"Feature","geometry":{"type":"MultiPolygon","coordinates":[[[[28.4211506,-28.6741277],[28.4213206,-28.6742514],[28.4214266,-28.6741394],[28.4213836,-28.6741081],[28.4214305,-28.6740585],[28.4213009,-28.6739712],[28.4211506,-28.6741277]]]]},"properties":{"building":"yes","name":"Qholaqhoe Supermarket","shop":"supermarket"}},
{"type":"Feature","geometry":{"type":"MultiPolygon","coordinates":[[[[28.2124657,-28.8046609],[28.212477,-28.8047323],[28.2125291,-28.804726],[28.2125178,-28.8046546],[28.2124657,-28.8046609]]]]},"properties":{"building":"yes","shop":"farm"}},
{"type":"Feature","geometry":{"type":"MultiPolygon","coordinates":[[[[28.2125353,-28.8047297],[28.212536,-28.8047647],[28.21259,-28.8047638],[28.2125893,-28.8047288],[28.2125353,-28.8047297]]]]},"properties":{"building":"yes","shop":"farm"}},
{"type":"Feature","geometry":{"type":"MultiPolygon","coordinates":[[[[28.6048951,-29.5173357],[28.6049609,-29.5172895],[28.6050462,-29.5172163],[28.6051419,-29.51713],[28.605203,-29.5170597],[28.6052249,-29.5169735],[28.6051995,-29.5168771],[28.6049424,-29.5169373],[28.6049528,-29.5169885],[28.6049436,-29.517145],[28.6048951,-29.5173357]]]]},"properties":{"amenity":"marketplace"}},
{"type":"Feature","geometry":{"type":"MultiPolygon","coordinates":[[[[28.5993839,-29.5283564],[28.5994067,-29.5284458],[28.5994394,-29.5284487],[28.5995029,-29.5284444],[28.5995486,-29.5284487],[28.5995682,-29.5284856],[28.5995616,-29.5286132],[28.599772,-29.5286388],[28.5998568,-29.5286189],[28.5998764,-29.5284728],[28.5999302,-29.5282983],[28.5999057,-29.5281862],[28.5998176,-29.528172],[28.599697,-29.5281663],[28.5995551,-29.5281862],[28.5994018,-29.52825],[28.5993839,-29.5283564]]]]},"properties":{"amenity":"marketplace","name":"Dip"}},
{"type":"Feature","geometry":{"type":"MultiPolygon","coordinates":[[[[28.2359096,-28.9339515],[28.2359754,-28.9339882],[28.2360104,-28.9339401],[28.2359446,-28.9339034],[28.2359096,-28.9339515]]]]},"properties":{"building":"yes","name":"Potse General Cafe","shop":"convenience"}},
{"type":"Feature","geometry":{"type":"MultiPolygon","coordinates":[[[[28.1452585,-29.5423485],[28.1454527,-29.5423789],[28.145474,-29.5422759],[28.1454333,-29.5422695],[28.1454372,-29.5422504],[28.1453207,-29.5422322],[28.1453165,-29.5422524],[28.1452796,-29.5422466],[28.1452585,-29.5423485]]]]},"properties":{"building":"commercial","fixme":"Check name","shop":"convenience"}},
{"type":"Feature","geometry":{"type":"MultiPolygon","coordinates":[[[[28.0420701,-28.8766909],[28.0422284,-28.8767613],[28.0426253,-28.8769797],[28.0427997,-28.8768412],[28.0429365,-28.8769187],[28.0430018,-28.8768399],[28.0431408,-28.8769427],[28.0431752,-28.8769234],[28.0432825,-28.8768365],[28.0433334,-28.8767778],[28.043194,-28.8767331],[28.0433603,-28.8764184],[28.043371,-28.8762916],[28.0433817,-28.8761389],[28.0435534,-28.8758735],[28.043557,-28.875717],[28.0433952,-28.8752077],[28.0432724,-28.8751907],[28.042915,-28.8751008],[28.0428506,-28.8751618],[28.0427273,-28.8753544],[28.0422659,-28.8762446],[28.042172,-28.8764067],[28.0420969,-28.8766133],[28.0420701,-28.8766909]]]]},"properties":{"amenity":"marketplace","landuse":"commercial"}},
{"type":"Feature","geometry":{"type":"MultiPolygon","coordinates":[[[[27.4983701,-29.3401478],[27.4985231,-29.3402087],[27.4986441,-29.3399775],[27.4986269,-29.3399706],[27.4987546,-29.3397267],[27.4986085,-29.3396686],[27.4984837,-29.339907],[27.498494,-29.3399111],[27.4983701,-29.3401478]]]]},"properties":{"building":"yes","name":"Chivas Butchery","shop":"butcher"}},
{"type":"Feature","geometry":{"type":"MultiPolygon","coordinates":[[[[27.4986054,-29.3401117],[27.4986613,-29.3401275],[27.4986877,-29.3400562],[27.4986319,-29.3400405],[27.4986054,-29.3401117]]]]},"properties":{"building":"yes","name":"Mampho Shopping complex","shop":"supermarket"}},
{"type":"Feature","geometry":{"type":"MultiPolygon","coordinates":[[[[28.251179,-28.7277562],[28.2511902,-28.7278083],[28.2512867,-28.7277925],[28.2512756,-28.7277404],[28.2512266,-28.7277484],[28.251179,-28.7277562]]]]},"properties":{"building":"retail","payment:cash":"yes","shop":"convenience"}},
{"type":"Feature","geometry":{"type":"MultiPolygon","coordinates":[[[[27.625003800000003,-30.3954187],[27.6253145,-30.3954404],[27.6253023,-30.3955697],[27.6255738,-30.3955887],[27.625593,-30.3953846],[27.6252178,-30.3953584],[27.6252222,-30.3953113],[27.6252781,-30.3953153],[27.6252853,-30.3952379],[27.6252295,-30.395234],[27.6252342,-30.3951835],[27.6250272,-30.395169],[27.625003800000003,-30.3954187]]]]},"properties":{"building":"retail","name":"Mitchell Trading Co","shop":"supermarket"}},
{"type":"Feature","geometry":{"type":"MultiPolygon","coordinates":[[[[27.6257666,-30.3955338],[27.6258299,-30.3955509],[27.6258641,-30.3954567],[27.6259275,-30.3954739],[27.625971,-30.3953541],[27.6258444,-30.3953198],[27.6257666,-30.3955338]]]]},"properties":{"building":"supermarket","name":"Waitjokotja Supermarket","shop":"supermarket"}},
{"type":"Feature","geometry":{"type":"MultiPolygon","coordinates":[[[[27.883936,-29.2308462],[27.8840136,-29.2308813],[27.8840624,-29.230799],[27.8839848,-29.2307639],[27.883936,-29.2308462]]]]},"properties":{"building":"yes","shop":"convenience"}},
{"type":"Feature","geometry":{"type":"MultiPolygon","coordinates":[[[[28.1449955,-29.5421702],[28.1450018,-29.5422137],[28.1451198,-29.5422008],[28.1451135,-29.5421573],[28.1449955,-29.5421702]]]]},"properties":{"building":"commercial","fixme":"Check name","shop":"convenience"}},
{"type":"Feature","geometry":{"type":"MultiPolygon","coordinates":[[[[27.5994562,-30.417153],[27.5994699,-30.4172054],[27.5995148,-30.4171968],[27.5995012,-30.4171443],[27.5994562,-30.417153]]]]},"properties":{"amenity":"bar","building":"yes","shop":"convenience"}},
{"type":"Feature","geometry":{"type":"MultiPolygon","coordinates":[[[[27.5367888,-29.4081728],[27.5368621,-29.4082398],[27.5369195,-29.4081922],[27.5368462,-29.4081252],[27.5367888,-29.4081728]]]]},"properties":{"building":"yes","shop":"convenience"}},
{"type":"Feature","geometry":{"type":"MultiPolygon","coordinates":[[[[27.4376445,-29.6909522],[27.4376458,-29.6910117],[27.4379512,-29.6910066],[27.4379498,-29.6909469],[27.4376445,-29.6909522]]]]},"properties":{"building":"chicken_coop","building:colour":"grey","building:levels":"1","building:material":"metal","butcher":"poultry","roof:colour":"red","roof:material":"metal","roof:orientation":"along","roof:shape":"gal","shop":"butcher"}},
{"type":"Feature","geometry":{"type":"MultiPolygon","coordinates":[[[[27.6199423,-29.4108348],[27.6200645,-29.4108885],[27.6201477,-29.4107448],[27.6200255,-29.4106911],[27.6199423,-29.4108348]]]]},"properties":{"building":"yes","shop":"convenience"}},
{"type":"Feature","geometry":{"type":"MultiPolygon","coordinates":[[[[27.6197123,-29.4113383],[27.6198489,-29.4113933],[27.6198904,-29.4113151],[27.6197539,-29.41126],[27.6197123,-29.4113383]]]]},"properties":{"building":"yes","shop":"convenience"}},
{"type":"Feature","geometry":{"type":"MultiPolygon","coordinates":[[[[27.6191484,-29.4111975],[27.6193786,-29.4112886],[27.6194271,-29.4111957],[27.6191969,-29.4111045],[27.6191484,-29.4111975]]]]},"properties":{"building":"yes","building:levels":"2","shop":"convenience"}},
{"type":"Feature","geometry":{"type":"MultiPolygon","coordinates":[[[[27.619393,-29.4113816],[27.6195028,-29.4114317],[27.6194994,-29.4114373],[27.6196425,-29.4115026],[27.619679,-29.4114419],[27.6195866,-29.4113999],[27.6196055,-29.4113685],[27.6195343,-29.411336],[27.6195196,-29.4113605],[27.6194303,-29.4113197],[27.619393,-29.4113816]]]]},"properties":{"building":"yes","shop":"convenience"}},
{"type":"Feature","geometry":{"type":"MultiPolygon","coordinates":[[[[28.1686365,-28.9493772],[28.1686575,-28.9493806],[28.1686396,-28.9494632],[28.1687067,-28.9494744],[28.1687408,-28.949317],[28.1686527,-28.9493024],[28.1686365,-28.9493772]]]]},"properties":{"building":"yes","shop":"convenience"}},
{"type":"Feature","geometry":{"type":"MultiPolygon","coordinates":[[[[28.1682165,-28.949576],[28.1682727,-28.9496745],[28.1683375,-28.9496461],[28.168324,-28.9496224],[28.1683978,-28.9495901],[28.1683551,-28.9495154],[28.1682165,-28.949576]]]]},"properties":{"building":"yes","shop":"supermarket"}},
{"type":"Feature","geometry":{"type":"MultiPolygon","coordinates":[[[[27.7509808,-29.1481992],[27.7512129,-29.1483056],[27.7512363,-29.1482667],[27.7511365,-29.148221],[27.7511596,-29.1481826],[27.7510273,-29.1481219],[27.7509808,-29.1481992]]]]},"properties":{"building":"commercial","name":"TY Meat Market","shop":"butcher"}},
{"type":"Feature","geometry":{"type":"MultiPolygon","coordinates":[[[[27.4376438,-29.6908704],[27.4376454,-29.6909467],[27.4379735,-29.6909409],[27.4379718,-29.6908648],[27.4376438,-29.6908704]]]]},"properties":{"building":"chicken_coop","building:colour":"grey","building:levels":"1","building:material":"metal","butcher":"poultry","roof:colour":"red","roof:material":"metal","roof:orientation":"along","roof:shape":"gal","shop":"butcher"}},
{"type":"Feature","geometry":{"type":"MultiPolygon","coordinates":[[[[27.4364178,-29.6919926],[27.4364743,-29.6920119],[27.4364957,-29.6919645],[27.4364392,-29.6919453],[27.4364178,-29.6919926]]]]},"properties":{"building":"commercial","building:colour":"grey","building:levels":"1","building:material":"plaster","name":"Motsekuoa Bakery","roof:colour":"silver","roof:material":"metal","roof:orientation":"along","roof:shape":"flat","shop":"bakery"}},
{"type":"Feature","geometry":{"type":"MultiPolygon","coordinates":[[[[27.8660436,-29.2286216],[27.8661181,-29.228734],[27.8662182,-29.2286835],[27.8661437,-29.2285711],[27.8660436,-29.2286216]]]]},"properties":{"building":"commercial","building:colour":"yellow","building:levels":"1","building:material":"plaster","building:part":"yes","name":"Makara General Dealers","opening_hours":"sunrise-sunset","roof:colour":"silver","roof:levels":"1","roof:material":"metal","roof:orientation":"along","roof:shape":"skillion","shop":"convenience","wheelchair":"limited"}},
{"type":"Feature","geometry":{"type":"MultiPolygon","coordinates":[[[[27.8666116,-29.2286573],[27.8666599,-29.2286971],[27.866683,-29.2286757],[27.8666347,-29.228636],[27.8666116,-29.2286573]]]]},"properties":{"amenity":"marketplace","building":"commercial","building:colour":"silver","building:levels":"2","building:material":"metal","building:part":"yes","height":"2","opening_hours":"sunrise-sunset","organic":"no","roof:colour":"silver","roof:material":"metal","wheelchair":"yes"}},
{"type":"Feature","geometry":{"type":"MultiPolygon","coordinates":[[[[27.5365051,-29.2671727],[27.5366186,-29.2673241],[27.5368264,-29.2679641],[27.5371027,-29.2683185],[27.5372211,-29.2681959],[27.5376236,-29.2685579],[27.5380487,-29.2684093],[27.5388319,-29.2678314],[27.5378819,-29.2668187],[27.5375801,-29.2670118],[27.5372839,-29.2666603],[27.5365051,-29.2671727]]]]},"properties":{"name":"Meraka Abattoir","shop":"butcher"}},
{"type":"Feature","geometry":{"type":"MultiPolygon","coordinates":[[[[27.5186491,-29.3004869],[27.5191319,-29.3010003],[27.5192231,-29.3011248],[27.5190876,-29.3012184],[27.5191212,-29.3012424],[27.519604,-29.3016073],[27.5200412,-29.3019184],[27.5205414,-29.3022224],[27.5207707,-29.3020821],[27.520491,-29.3016206],[27.5194336,-29.2998144],[27.5187524,-29.2999629],[27.5186491,-29.3004869]]]]},"properties":{"name":"Machache","shop":"butcher"}},
{"type":"Feature","geometry":{"type":"MultiPolygon","coordinates":[[[[28.8707201,-29.2073142],[28.8707783,-29.207579],[28.8708026,-29.2076512],[28.8711079,-29.2075527],[28.8710694,-29.2073479],[28.8711221,-29.2073403],[28.8711136,-29.207295],[28.8711236,-29.2072936],[28.871115,-29.2072476],[28.871052,-29.2072566],[28.8710517,-29.2072547],[28.8708825,-29.2072788],[28.8709293,-29.2075292],[28.8708378,-29.2075581],[28.870782,-29.2073039],[28.8707201,-29.2073142]]]]},"properties":{"building":"commercial","shop":"convenience"}},
{"type":"Feature","geometry":{"type":"MultiPolygon","coordinates":[[[[28.8705574,-29.2067525],[28.870578,-29.2068008],[28.8706326,-29.2067831],[28.8707159,-29.2068212],[28.8707968,-29.206795],[28.8707518,-29.2066894],[28.8705574,-29.2067525]]]]},"properties":{"building":"commercial","shop":"convenience"}},
{"type":"Feature","geometry":{"type":"MultiPolygon","coordinates":[[[[28.8707662,-29.2066899],[28.8709025,-29.2070977],[28.8710577,-29.2070582],[28.870946,-29.2067239],[28.8709731,-29.206717],[28.8709485,-29.2066435],[28.8707662,-29.2066899]]]]},"properties":{"building":"commercial","shop":"convenience"}},
{"type":"Feature","geometry":{"type":"MultiPolygon","coordinates":[[[[27.619453,-29.2932354],[27.6194758,-29.2932892],[27.6194826,-29.293287],[27.6194841,-29.2932905],[27.6195233,-29.2932779],[27.6194991,-29.2932206],[27.619453,-29.2932354]]]]},"properties":{"shop":"convenience"}},
{"type":"Feature","geometry":{"type":"MultiPolygon","coordinates":[[[[27.5393437,-29.4065046],[27.5393787,-29.406576],[27.5393592,-29.4065832],[27.5393792,-29.406624],[27.5394762,-29.4065879],[27.5394559,-29.4065464],[27.5394203,-29.4065596],[27.5393856,-29.406489],[27.5393437,-29.4065046]]]]},"properties":{"shop":"convenience"}},
{"type":"Feature","geometry":{"type":"MultiPolygon","coordinates":[[[[27.5450095,-29.4067156],[27.5450287,-29.4067892],[27.5450135,-29.4067922],[27.5450363,-29.4068791],[27.5450882,-29.4068688],[27.545086,-29.4068602],[27.5451211,-29.4068533],[27.545101,-29.4067763],[27.5451148,-29.4067736],[27.5451048,-29.4067351],[27.5451225,-29.4067316],[27.545113,-29.4066951],[27.5450095,-29.4067156]]]]},"properties":{"shop":"convenience"}},
{"type":"Feature","geometry":{"type":"MultiPolygon","coordinates":[[[[27.5201391,-29.3194993],[27.5202121,-29.3195681],[27.520184,-29.3195908],[27.5202175,-29.3196223],[27.5202457,-29.3195996],[27.5202745,-29.3196268],[27.5203669,-29.3195522],[27.5203518,-29.319538],[27.5203125,-29.3195698],[27.5202657,-29.3195257],[27.520305,-29.3194939],[27.5202314,-29.3194247],[27.5201391,-29.3194993]]]]},"properties":{"building":"commercial","name":"Ha Leshalaba","shop":"convenience"}},
{"type":"Feature","geometry":{"type":"MultiPolygon","coordinates":[[[[27.5230952,-29.31865],[27.523143,-29.3188051],[27.5232361,-29.3187833],[27.5232353,-29.3187926],[27.5233358,-29.3187903],[27.5233329,-29.3186931],[27.523222,-29.3186956],[27.5232227,-29.3187176],[27.5231804,-29.3187285],[27.5231616,-29.3186676],[27.52322,-29.3186539],[27.5232104,-29.318623],[27.5230952,-29.31865]]]]},"properties":{"building":"commercial","building:levels":"1","roof:levels":"1","shop":"convenience"}},
{"type":"Feature","geometry":{"type":"MultiPolygon","coordinates":[[[[27.3870821,-29.564707],[27.3871519,-29.5647552],[27.3872243,-29.5646759],[27.3871545,-29.5646277],[27.3870821,-29.564707]]]]},"properties":{"building":"commercial","shop":"convenience"}},
{"type":"Feature","geometry":{"type":"MultiPolygon","coordinates":[[[[27.3912361,-29.5616467],[27.3912475,-29.5617291],[27.3913588,-29.5617174],[27.3913474,-29.561635],[27.3912361,-29.5616467]]]]},"properties":{"building":"construction","shop":"convenience"}},
{"type":"Feature","geometry":{"type":"MultiPolygon","coordinates":[[[[27.5994875,-30.417244],[27.5995439,-30.4172839],[27.599574,-30.4172523],[27.5995177,-30.4172124],[27.5994875,-30.417244]]]]},"properties":{"building":"yes","shop":"convenience"}},
{"type":"Feature","geometry":{"type":"MultiPolygon","coordinates":[[[[28.0418943,-28.8732153],[28.0424709,-28.8734948],[28.0424843,-28.8734713],[28.0427016,-28.8735747],[28.0429028,-28.8732552],[28.0425675,-28.873112],[28.0423851,-28.8730274],[28.0424468,-28.8729546],[28.0423449,-28.8729006],[28.0425514,-28.8726328],[28.0423851,-28.8725318],[28.0420927,-28.8728935],[28.0418943,-28.8732153]]]]},"properties":{"building":"yes","shop":"supermarket"}},
{"type":"Feature","geometry":{"type":"MultiPolygon","coordinates":[[[[27.9296091,-29.4212909],[27.9296929,-29.4213284],[27.9297457,-29.4212388],[27.9297406,-29.4212366],[27.9298025,-29.4211315],[27.9297238,-29.4210963],[27.9296091,-29.4212909]]]]},"properties":{"building":"commercial","name":"Chalalisa Super Market","shop":"convenience"}},
{"type":"Feature","geometry":{"type":"MultiPolygon","coordinates":[[[[28.8717705,-29.2088313],[28.8718757,-29.20889],[28.8719291,-29.2088171],[28.8718239,-29.2087584],[28.8717705,-29.2088313]]]]},"properties":{"building":"yes","shop":"supermarket"}},
{"type":"Feature","geometry":{"type":"MultiPolygon","coordinates":[[[[28.8700075,-29.2064127],[28.8701237,-29.2065633],[28.8702528,-29.2064833],[28.870137,-29.2063301],[28.8700075,-29.2064127]]]]},"properties":{"building":"commercial","shop":"convenience"}},
{"type":"Feature","geometry":{"type":"MultiPolygon","coordinates":[[[[28.8699541,-29.2065091],[28.8701548,-29.2067408],[28.8703571,-29.2066073],[28.8702529,-29.206487],[28.8701118,-29.2065801],[28.8700153,-29.2064687],[28.8699541,-29.2065091]]]]},"properties":{"building":"commercial","shop":"convenience"}},
{"type":"Feature","geometry":{"type":"MultiPolygon","coordinates":[[[[28.8698798,-29.2062352],[28.8700024,-29.2063977],[28.8701344,-29.2063217],[28.8700118,-29.2061593],[28.8699837,-29.2061754],[28.8698798,-29.2062352]]]]},"properties":{"building":"commercial","shop":"convenience"}}
]}
