{"type":"FeatureCollection","features":[
{"type":"Feature","geometry":{"type":"Point","coordinates":[-15.9761145,18.0921207]},"properties":{"addr:city":"نواكشوط","addr:city:ar":"نواكشوط","addr:street":"نهج مامادو كوناتي","addr:street:ar":"نهج مامادو كوناتي","name":"عند جودة","name:ar":"عند جودة","name:en":"Ets Jawda","name:fr":"Ets Jawda","opening_hours":"09:00-22:00","operator":"Centre commercial","phone":"+222 45291068","shop":"supermarket"}},
{"type":"Feature","geometry":{"type":"Point","coordinates":[-15.9548236,18.0400607]},"properties":{"addr:city":"نواكشوط","name":"بقالة الدعاة","name:ar":"بقالة الدعاة","shop":"convenience"}},
{"type":"Feature","geometry":{"type":"Point","coordinates":[-15.9591522,18.0469513]},"properties":{"addr:city":"نواكشوط","name":"مخبزة مكة والمدينة المنورة","name:ar":"مخبزة مكة والمدينة المنورة","shop":"bakery"}},
{"type":"Feature","geometry":{"type":"Point","coordinates":[-17.0345777,20.938132]},"properties":{"addr:city":"نواذيبو","addr:housenumber":"٨٩","addr:street":"شارع الرئيسية دبي","email":"supermarchelebonchoix@yahoo.fr","internet_access":"wlan","name":"الخيار الصحيح","name:ar":"الخيار الصحيح","name:fr":"Le Bon Choix","phone":"+22245746280","shop":"supermarket"}},
{"type":"Feature","geometry":{"type":"Point","coordinates":[-14.3896212,21.237906]},"properties":{"shop":"convenience"}},
{"type":"Feature","geometry":{"type":"Point","coordinates":[-15.9135516,18.1459239]},"properties":{"shop":"bakery"}},
{"type":"Feature","geometry":{"type":"Point","coordinates":[-15.9289001,18.104115]},"properties":{"name:en":"Boulangerie eminou","shop":"bakery"}},
{"type":"Feature","geometry":{"type":"Point","coordinates":[-15.9469871,18.117042]},"properties":{"name":"Complexe de Chinguetti","name:ar":"مجمع شنقيط","name:fr":"Complexe de Chinguetti","shop":"supermarket"}},
{"type":"Feature","geometry":{"type":"Point","coordinates":[-15.9856073,18.1012322]},"properties":{"name:en":"Bon Choix","shop":"supermarket"}},
{"type":"Feature","geometry":{"type":"Point","coordinates":[-17.0487257,20.9211893]},"properties":{"addr:city":"نواذيبو","shop":"bakery"}},
{"type":"Feature","geometry":{"type":"Point","coordinates":[-15.986123,18.102731]},"properties":{"name:en":"Supermarche Bon Prix","name:fr":"Supermarche Bon Prix","name:ko":"봉프리 상점","shop":"supermarket"}},
{"type":"Feature","geometry":{"type":"Point","coordinates":[-11.4034841,16.6212106]},"properties":{"addr:city":"كيفة","name":"متجر بقالة صعدة","name:ar":"متجر بقالة صعدة","shop":"supermarket"}},
{"type":"Feature","geometry":{"type":"Point","coordinates":[-11.4029781,16.6210122]},"properties":{"addr:city":"كيفة","name":"سوبرماركت كيفة","name:ar":"سوبرماركت كيفة","shop":"supermarket"}},
{"type":"Feature","geometry":{"type":"Point","coordinates":[-11.4004441,16.6212577]},"properties":{"addr:city":"كيفة","name":"سوق ولد كبار","name:ar":"سوق ولد كبار","shop":"convenience"}},
{"type":"Feature","geometry":{"type":"Point","coordinates":[-11.3996293,16.6216292]},"properties":{"addr:city":"كيفة","name":"سوق ولد سني","name:ar":"سوق ولد سني","shop":"convenience"}},
{"type":"Feature","geometry":{"type":"Point","coordinates":[-15.2321579,16.9155575]},"properties":{"addr:city":"اركيز","amenity":"marketplace","name":"سوق اركيز","name:ar":"سوق اركيز"}},
{"type":"Feature","geometry":{"type":"Point","coordinates":[-14.5412602,17.431046]},"properties":{"addr:city":"انتيشط","name":"مقربلدية انتيشط","name:ar":"مقربلدية انتيشط","shop":"convenience"}},
{"type":"Feature","geometry":{"type":"Point","coordinates":[-14.541429,17.4314631]},"properties":{"addr:city":"انتيشط","name":"متجرعمومي","name:ar":"متجرعمومي","shop":"convenience"}},
{"type":"Feature","geometry":{"type":"Point","coordinates":[-14.5501715,17.4436313]},"properties":{"addr:city":"انتيشط","name":"الجديدة اولاد منصور بن عبد الله","name:ar":"الجديدة اولاد منصور بن عبد الله","shop":"convenience"}},
{"type":"Feature","geometry":{"type":"Point","coordinates":[-9.6187601,16.6609496]},"properties":{"addr:city":"العيون","amenity":"marketplace","name":"سوق العيون","name:ar":"سوق العيون"}},
{"type":"Feature","geometry":{"type":"Point","coordinates":[-10.1625249,16.3832328]},"properties":{"addr:city":"طينطان","amenity":"marketplace","name":"البتيك في الطينطان","name:ar":"البتيك في الطينطان"}},
{"type":"Feature","geometry":{"type":"Point","coordinates":[-8.0856792,15.5764694]},"properties":{"addr:city":"بوصطيلة","amenity":"marketplace","name":"سوق الحيوان","name:ar":"سوق الحيوان"}},
{"type":"Feature","geometry":{"type":"Point","coordinates":[-11.8249499,16.8276926]},"properties":{"addr:city":"كرو","amenity":"marketplace","name":"سوق محفوظ ولد أخو","name:ar":"سوق محفوظ ولد أخو"}},
{"type":"Feature","geometry":{"type":"Point","coordinates":[-11.8373011,16.8326001]},"properties":{"addr:city":"كرو","amenity":"marketplace","name":"بقالة اولا موساني","name:ar":"بقالة اولا موساني"}},
{"type":"Feature","geometry":{"type":"Point","coordinates":[-11.8371617,16.8328288]},"properties":{"addr:city":"كرو","amenity":"marketplace","name":"سوق كرو المركزي","name:ar":"سوق كرو المركزي"}},
{"type":"Feature","geometry":{"type":"Point","coordinates":[-8.1692461,16.2423363]},"properties":{"addr:city":"تمبدغة","amenity":"marketplace","name":"مركز التسوق","name:ar":"مركز التسوق"}},
{"type":"Feature","geometry":{"type":"Point","coordinates":[-8.1687805,16.236928]},"properties":{"addr:city":"تمبدغة","amenity":"marketplace","name":"سوق المزارع","name:ar":"سوق المزارع"}},
{"type":"Feature","geometry":{"type":"Point","coordinates":[-15.991007,18.1013595]},"properties":{"name:ko":"터티가게","shop":"supermarket"}},
{"type":"Feature","geometry":{"type":"Point","coordinates":[-15.9727486,18.1075453]},"properties":{"name:en":"Mauricenter","name:fr":"Cité Smart","name:ko":"모리센타 1","shop":"supermarket"}},
{"type":"Feature","geometry":{"type":"Point","coordinates":[-15.9645751,18.1392997]},"properties":{"name:en":"المشوي","shop":"butcher"}},
{"type":"Feature","geometry":{"type":"Point","coordinates":[-15.9803124,18.0755471]},"properties":{"name:ko":"모로코시장","shop":"supermarket"}},
{"type":"Feature","geometry":{"type":"Point","coordinates":[-15.9860983,18.1025523]},"properties":{"shop":"supermarket"}},
{"type":"Feature","geometry":{"type":"Point","coordinates":[-15.9404696,18.1248946]},"properties":{"addr:street":"Mohamed Errady","name":"Supermarket Rahma","name:ar":"مجمع الرحمة التجاري","name:en":"Super market rahma","name:fr":"Super market rahma","opening_hours":"Mo-Su 07:00-02:00","operator":"مجمع الرحمة التجاري","shop":"supermarket"}},
{"type":"Feature","geometry":{"type":"Point","coordinates":[-15.9406715,18.1248748]},"properties":{"name":"Boulangerie Amoura2","name:ar":"مخبزة امورة 2","name:fr":"Amoura 2","opening_hours":"Mo-Su 05:30-01:30","shop":"bakery"}},
{"type":"Feature","geometry":{"type":"Point","coordinates":[-15.9357794,18.1308898]},"properties":{"addr:city":"نواكشوط","name":"مخبزة ولد سبرو","name:ar":"مخبزة ولد سبرو","name:en":"Ould seberou","opening_hours":"Mo-Su 05:00-21:00","shop":"bakery"}},
{"type":"Feature","geometry":{"type":"Point","coordinates":[-15.975688,18.1009759]},"properties":{"name":"Tata","name:fr":"Tata","shop":"supermarket"}},
{"type":"Feature","geometry":{"type":"Point","coordinates":[-15.9879255,18.0749863]},"properties":{"name:ko":"씨지엠시장","shop":"supermarket"}},
{"type":"Feature","geometry":{"type":"Point","coordinates":[-15.980237,18.0760806]},"properties":{"name:ko":"과일집","shop":"supermarket"}},
{"type":"Feature","geometry":{"type":"Point","coordinates":[-15.9828951,18.1092693]},"properties":{"addr:city":"نواكشوط","name":"مخبز السلطان","name:ar":"مخبز السلطان","name:ko":"슐탄 빵집","shop":"bakery"}},
{"type":"Feature","geometry":{"type":"Point","coordinates":[-15.8954357,18.0664245]},"properties":{"addr:city":"نواكشوط","name":"سفر سعيد","name:ar":"سفر سعيد","name:en":"Sefar said","name:fr":"Sefar said","shop":"supermarket"}},
{"type":"Feature","geometry":{"type":"Point","coordinates":[-16.5295637,21.2906139]},"properties":{"addr:city":"بو انوار","addr:city:ar":"بو انوار","shop":"convenience"}},
{"type":"Feature","geometry":{"type":"Point","coordinates":[-16.1209479,20.8114575]},"properties":{"addr:city":"شلخت الإيمان","addr:city:ar":"شلخت الإيمان","addr:street":"الطريق الوطني رقم 2","addr:street:ar":"الطريق الوطني رقم 2","shop":"convenience"}},
{"type":"Feature","geometry":{"type":"Point","coordinates":[-16.0157383,20.634338]},"properties":{"shop":"convenience"}},
{"type":"Feature","geometry":{"type":"Point","coordinates":[-15.9159225,20.0337828]},"properties":{"shop":"convenience"}},
{"type":"Feature","geometry":{"type":"Point","coordinates":[-15.9732306,20.1734194]},"properties":{"name":"Al Bedil","shop":"bakery"}},
{"type":"Feature","geometry":{"type":"Point","coordinates":[-15.9733701,20.1701867]},"properties":{"shop":"convenience"}},
{"type":"Feature","geometry":{"type":"Point","coordinates":[-15.9725976,20.1669539]},"properties":{"shop":"convenience"}},
{"type":"Feature","geometry":{"type":"Point","coordinates":[-15.9713584,20.1643304]},"properties":{"shop":"convenience"}},
{"type":"Feature","geometry":{"type":"Point","coordinates":[-16.1822712,19.0301544]},"properties":{"shop":"convenience"}},
{"type":"Feature","geometry":{"type":"Point","coordinates":[-16.1822739,19.0291554]},"properties":{"shop":"convenience"}},
{"type":"Feature","geometry":{"type":"Point","coordinates":[-16.1879843,18.9926509]},"properties":{"shop":"convenience"}},
{"type":"Feature","geometry":{"type":"Point","coordinates":[-16.1637747,18.8843331]},"properties":{"shop":"convenience"}},
{"type":"Feature","geometry":{"type":"Point","coordinates":[-16.0126859,18.3907784]},"properties":{"shop":"convenience"}},
{"type":"Feature","geometry":{"type":"Point","coordinates":[-16.0032284,18.1281723]},"properties":{"shop":"convenience"}},
{"type":"Feature","geometry":{"type":"Point","coordinates":[-15.972438,18.0389321]},"properties":{"name":"Boulangerie","shop":"bakery"}},
{"type":"Feature","geometry":{"type":"Point","coordinates":[-15.861763,18.057488]},"properties":{"amenity":"restaurant","name:ar":"مخبزة وحلويات الفضيلة","name:en":"Boulangerie vadilla","shop":"bakery"}},
{"type":"Feature","geometry":{"type":"Point","coordinates":[-15.9360615,18.0551622]},"properties":{"addr:street":"ملح ٢","name:ar":"بقالة التوفيق","name:en":"EPICERIE TEWVIGH","phone":"26604468","shop":"supermarket"}},
{"type":"Feature","geometry":{"type":"Point","coordinates":[-16.0501279,17.1770739]},"properties":{"shop":"convenience"}},
{"type":"Feature","geometry":{"type":"Point","coordinates":[-15.9537134,18.1195305]},"properties":{"name:ar":"مجمع الأمان","name:en":"Elamane","shop":"supermarket"}},
{"type":"Feature","geometry":{"type":"Point","coordinates":[-13.9155503,17.0529443]},"properties":{"addr:city":"ألاك","amenity":"marketplace","name":"سوق مكة","name:ar":"سوق مكة"}},
{"type":"Feature","geometry":{"type":"Point","coordinates":[-15.9935834,18.0998586]},"properties":{"amenity":"cafe","name:fr":"Café Opéra","shop":"bakery"}},
{"type":"Feature","geometry":{"type":"Point","coordinates":[-15.9742573,18.1025278]},"properties":{"name:en":"As salam","shop":"supermarket"}},
{"type":"Feature","geometry":{"type":"Point","coordinates":[-15.9496421,18.0746526]},"properties":{"addr:housenumber":"136","name:ar":"مجمع عثمان 2","name:fr":"Supermarché Ethmane","opening_hours":"Mo-Su 07:00-00:00","shop":"supermarket"}},
{"type":"Feature","geometry":{"type":"Point","coordinates":[-15.9814077,18.0822181]},"properties":{"name":"سوق اكلينيك","name:ar":"سوق اكلينيك","shop":"supermarket"}},
{"type":"Feature","geometry":{"type":"Point","coordinates":[-15.9439811,18.1296578]},"properties":{"name:fr":"Ba saidou","shop":"supermarket"}},
{"type":"Feature","geometry":{"type":"Point","coordinates":[-15.999308,18.06501]},"properties":{"name:en":"Epicerie 44","shop":"supermarket"}},
{"type":"Feature","geometry":{"type":"Point","coordinates":[-16.0048579,18.0660924]},"properties":{"name:fr":"Epicerie Kawral","shop":"convenience"}},
{"type":"Feature","geometry":{"type":"Point","coordinates":[-15.9853415,18.0765745]},"properties":{"name:ko":"중국가게","shop":"supermarket"}},
{"type":"Feature","geometry":{"type":"Point","coordinates":[-12.3617978,20.4540557]},"properties":{"shop":"supermarket"}},
{"type":"Feature","geometry":{"type":"Point","coordinates":[-12.3631908,20.4599601]},"properties":{"shop":"supermarket"}},
{"type":"Feature","geometry":{"type":"Point","coordinates":[-13.4999471,16.1454816]},"properties":{"addr:city":"كيهيدي","amenity":"marketplace","name":"السوق","name:ar":"السوق"}},
{"type":"Feature","geometry":{"type":"Point","coordinates":[-13.5037706,16.1472005]},"properties":{"addr:city":"كيهيدي","amenity":"marketplace","name":"وكالة كنالبلوس","name:ar":"وكالة كنالبلوس","opening_hours":"Mo-Su 09:00-18:00","phone":"+222 45 33 51 05"}},
{"type":"Feature","geometry":{"type":"Point","coordinates":[-13.5035005,16.150941]},"properties":{"addr:city":"كيهيدي","name":"الفصول","name:ar":"الفصول","opening_hours":"24/7","phone":"+222 46 43 79 65","shop":"convenience"}},
{"type":"Feature","geometry":{"type":"Point","coordinates":[-13.5059769,16.1556471]},"properties":{"addr:city":"كيهيدي","name":"تسوق باوا","name:ar":"تسوق باوا","shop":"convenience"}},
{"type":"Feature","geometry":{"type":"Point","coordinates":[-15.9640633,18.1271219]},"properties":{"addr:street":"طريق صكوك","name:en":"أتاك الخير","name:fi":"Atac Elkhair","opening_hours":"Mo-Su 09:00-00:00","shop":"supermarket"}},
{"type":"Feature","geometry":{"type":"Point","coordinates":[-15.9403716,18.1293623]},"properties":{"name:en":"Famely center","shop":"supermarket"}},
{"type":"Feature","geometry":{"type":"Point","coordinates":[-15.9800444,18.08313]},"properties":{"name:en":"Meel aata","shop":"bakery"}},
{"type":"Feature","geometry":{"type":"Point","coordinates":[-15.9958685,18.0843962]},"properties":{"name:en":"Chinese Garden (tofu)","phone":"46303366","shop":"supermarket"}},
{"type":"Feature","geometry":{"type":"Point","coordinates":[-15.975638,18.107926]},"properties":{"addr:city":"نواكشوط","addr:city:fr":"Nouakchott","name":"سوبرماركت الصيني","name:ar":"سوبرماركت الصيني","name:en":"Chinese supermarket","name:fr":"Supermarché chinois","shop":"supermarket"}},
{"type":"Feature","geometry":{"type":"Point","coordinates":[-15.992551,18.1241548]},"properties":{"name":"Souk Al Baraka","shop":"convenience"}},
{"type":"Feature","geometry":{"type":"Point","coordinates":[-15.9753956,18.1079382]},"properties":{"addr:city":"نواكشوط","addr:city:ar":"نواكشوط","language:ar":"main","shop":"supermarket"}},
{"type":"Feature","geometry":{"type":"Point","coordinates":[-15.9432816,18.0852856]},"properties":{"shop":"supermarket"}},
{"type":"Feature","geometry":{"type":"Point","coordinates":[-15.9783654,18.1083971]},"properties":{"name":"Les Congrès","shop":"bakery"}},
{"type":"Feature","geometry":{"type":"Point","coordinates":[-15.9785048,18.1084217]},"properties":{"name":"Épicerie Erida","shop":"convenience"}},
{"type":"Feature","geometry":{"type":"Point","coordinates":[-15.9614461,18.0386971]},"properties":{"name":"M'sid Nour","shop":"bakery"}},
{"type":"Feature","geometry":{"type":"Point","coordinates":[-15.9626902,18.0384205]},"properties":{"name":"Zahra","shop":"supermarket"}},
{"type":"Feature","geometry":{"type":"Point","coordinates":[-15.9784712,18.1083097]},"properties":{"addr:city":"نواكشوط","shop":"bakery"}},
{"type":"Feature","geometry":{"type":"Point","coordinates":[-15.9823628,18.1039362]},"properties":{"name:en":"Auchan","name:ru":"Ашан","shop":"supermarket"}},
{"type":"Feature","geometry":{"type":"Point","coordinates":[-15.9791914,18.1061458]},"properties":{"shop":"butcher"}},
{"type":"Feature","geometry":{"type":"Point","coordinates":[-15.9726236,18.1073999]},"properties":{"name:en":"Chinguitti market","shop":"supermarket"}},
{"type":"Feature","geometry":{"type":"Point","coordinates":[-16.0030091,18.1271679]},"properties":{"name":"Épicerie Yesteb Chiroun","shop":"convenience"}},
{"type":"Feature","geometry":{"type":"Point","coordinates":[-15.993761,18.1003335]},"properties":{"addr:city":"نواكشوط","addr:city:ar":"نواكشوط","shop":"bakery"}},
{"type":"Feature","geometry":{"type":"Point","coordinates":[-15.9905714,18.1014394]},"properties":{"name:en":"Food market","name:ru":"продукты","shop":"convenience"}},
{"type":"Feature","geometry":{"type":"Point","coordinates":[-15.9793974,18.0932953]},"properties":{"addr:city":"نواكشوط","addr:city:ar":"نواكشوط","language:ar":"main","name":"Boulangerie et patisserie des princes","shop":"bakery"}},
{"type":"Feature","geometry":{"type":"Point","coordinates":[-15.9853926,18.0923094]},"properties":{"addr:city":"نواكشوط","addr:city:ar":"نواكشوط","addr:housenumber":"234","language:ar":"main","name":"بقالة بانا روز","name:ar":"بقالة بانا روز","name:fr":"Epicerie Bana Rose","opening_hours":"24/7","shop":"supermarket","start_date":"2002-03-13"}},
{"type":"Feature","geometry":{"type":"Point","coordinates":[-15.9970795,18.1022871]},"properties":{"addr:city":"نواكشوط","addr:city:ar":"نواكشوط","language:ar":"main","name":"غالري أي إس","name:ar":"غالري أي إس","name:de":"Galerie AS","name:es":"Galería AS","name:fr":"Galerie AS","shop":"supermarket"}},
{"type":"Feature","geometry":{"type":"Point","coordinates":[-15.9823547,18.1036719]},"properties":{"name:en":"ETAK EL VEWZ","shop":"supermarket"}},
{"type":"Feature","geometry":{"type":"Point","coordinates":[-15.964975,18.0483738]},"properties":{"name":"حظ سعيد","name:ar":"حظ سعيد","shop":"supermarket"}},
{"type":"Feature","geometry":{"type":"Point","coordinates":[-15.9640123,18.0441983]},"properties":{"amenity":"marketplace","name":"10 boutugue(اباتيك عشرة)","name:ar":"10 boutugue(اباتيك عشرة)"}},
{"type":"Feature","geometry":{"type":"Point","coordinates":[-15.9488065,18.1273862]},"properties":{"name:en":"TIRIS Supermarket","name:fr":"Épicerie TIRIS","shop":"supermarket"}},
{"type":"Feature","geometry":{"type":"Point","coordinates":[-15.9521329,18.1213242]},"properties":{"name:ar":"بقالة المراد","shop":"convenience"}},
{"type":"Feature","geometry":{"type":"Point","coordinates":[-15.9512656,18.1231172]},"properties":{"name:ar":"بقالة من فضل الله","shop":"convenience"}},
{"type":"Feature","geometry":{"type":"Point","coordinates":[-15.942404,18.0713009]},"properties":{"name":"Complexe hob lewatan","shop":"convenience"}},
{"type":"Feature","geometry":{"type":"Point","coordinates":[-15.9334065,18.0702287]},"properties":{"name":"مخبزة الفضل","name:fr":"Boulangerie El vadel","shop":"bakery"}},
{"type":"Feature","geometry":{"type":"Point","coordinates":[-15.9426078,18.1220837]},"properties":{"name":"1مخبز امورة","name:fr":"Boulangerie Amoura 1","shop":"bakery"}},
{"type":"Feature","geometry":{"type":"Point","coordinates":[-15.9897061,18.0623837]},"properties":{"amenity":"marketplace","name":"Marché Salah al-Din"}},
{"type":"Feature","geometry":{"type":"Point","coordinates":[-15.9755065,18.0877317]},"properties":{"amenity":"marketplace","name":"AFARCO"}},
{"type":"Feature","geometry":{"type":"Point","coordinates":[-15.9039518,18.068111]},"properties":{"amenity":"marketplace","name":"Marché Toujounine"}},
{"type":"Feature","geometry":{"type":"Point","coordinates":[-15.9303957,18.0665275]},"properties":{"amenity":"marketplace","name":"Marche de Noual"}},
{"type":"Feature","geometry":{"type":"Point","coordinates":[-15.9566478,18.0739439]},"properties":{"name":"Pescado","shop":"butcher"}},
{"type":"Feature","geometry":{"type":"Point","coordinates":[-15.8948176,18.0665721]},"properties":{"amenity":"marketplace"}},
{"type":"Feature","geometry":{"type":"Point","coordinates":[-15.9516308,18.0322092]},"properties":{"amenity":"marketplace"}},
{"type":"Feature","geometry":{"type":"Point","coordinates":[-15.9723374,17.9928447]},"properties":{"amenity":"marketplace"}},
{"type":"Feature","geometry":{"type":"Point","coordinates":[-15.9660544,18.0170339]},"properties":{"shop":"convenience"}},
{"type":"Feature","geometry":{"type":"Point","coordinates":[-15.9670521,18.007473]},"properties":{"shop":"convenience"}},
{"type":"Feature","geometry":{"type":"Point","coordinates":[-15.9613752,18.0325407]},"properties":{"shop":"convenience"}},
{"type":"Feature","geometry":{"type":"Point","coordinates":[-15.9619184,18.0359609]},"properties":{"shop":"convenience"}},
{"type":"Feature","geometry":{"type":"Point","coordinates":[-15.9620954,18.0367668]},"properties":{"amenity":"marketplace"}},
{"type":"Feature","geometry":{"type":"Point","coordinates":[-15.9619107,18.0379977]},"properties":{"amenity":"marketplace"}},
{"type":"Feature","geometry":{"type":"Point","coordinates":[-15.9627794,18.0384105]},"properties":{"name":"Complexe commercial El Houda","shop":"convenience"}},
{"type":"Feature","geometry":{"type":"Point","coordinates":[-15.959947,18.0300744]},"properties":{"shop":"convenience"}},
{"type":"Feature","geometry":{"type":"Point","coordinates":[-15.9645791,18.0273938]},"properties":{"name":"King Food","shop":"convenience"}},
{"type":"Feature","geometry":{"type":"Point","coordinates":[-15.9647025,18.0264527]},"properties":{"name":"Épicerie Thierno N'Diaye","shop":"convenience"}},
{"type":"Feature","geometry":{"type":"Point","coordinates":[-15.965196,18.0236445]},"properties":{"name":"Your shop","shop":"convenience"}},
{"type":"Feature","geometry":{"type":"Point","coordinates":[-15.965251,18.0234609]},"properties":{"name":"Épicerie Kosovo","shop":"convenience"}},
{"type":"Feature","geometry":{"type":"Point","coordinates":[-15.9478073,18.0385215]},"properties":{"amenity":"marketplace"}},
{"type":"Feature","geometry":{"type":"Point","coordinates":[-15.9520277,18.0324336]},"properties":{"shop":"convenience"}},
{"type":"Feature","geometry":{"type":"Point","coordinates":[-16.0146318,18.0978064]},"properties":{"name":"Boucherie et Légumes El Maghreb El Arabie","shop":"butcher"}},
{"type":"Feature","geometry":{"type":"Point","coordinates":[-16.0132465,18.1004706]},"properties":{"shop":"convenience"}},
{"type":"Feature","geometry":{"type":"Point","coordinates":[-16.0132049,18.1006223]},"properties":{"name":"Complexe El Veth","shop":"convenience"}},
{"type":"Feature","geometry":{"type":"Point","coordinates":[-16.0128522,18.1006236]},"properties":{"name":"Epicerie","shop":"convenience"}},
{"type":"Feature","geometry":{"type":"Point","coordinates":[-16.0122353,18.1020908]},"properties":{"shop":"convenience"}},
{"type":"Feature","geometry":{"type":"Point","coordinates":[-16.0122608,18.1020424]},"properties":{"shop":"convenience"}},
{"type":"Feature","geometry":{"type":"Point","coordinates":[-16.0008493,18.0818572]},"properties":{"shop":"convenience"}},
{"type":"Feature","geometry":{"type":"Point","coordinates":[-15.9999642,18.0772982]},"properties":{"amenity":"marketplace"}},
{"type":"Feature","geometry":{"type":"Point","coordinates":[-15.9961997,18.0717994]},"properties":{"amenity":"marketplace"}},
{"type":"Feature","geometry":{"type":"Point","coordinates":[-15.9972545,18.0754585]},"properties":{"shop":"convenience"}},
{"type":"Feature","geometry":{"type":"Point","coordinates":[-15.9965008,18.0763366]},"properties":{"shop":"convenience"}},
{"type":"Feature","geometry":{"type":"Point","coordinates":[-16.0010009,18.0643083]},"properties":{"name":"Patisserie Et Boulangerie Armedi","shop":"bakery"}},
{"type":"Feature","geometry":{"type":"Point","coordinates":[-16.0007165,18.064249]},"properties":{"shop":"convenience"}},
{"type":"Feature","geometry":{"type":"Point","coordinates":[-15.997754,18.0662827]},"properties":{"shop":"convenience"}},
{"type":"Feature","geometry":{"type":"Point","coordinates":[-15.9982489,18.1080137]},"properties":{"amenity":"marketplace","name":"Marche Nasr"}},
{"type":"Feature","geometry":{"type":"Point","coordinates":[-15.9985446,18.1080704]},"properties":{"shop":"convenience"}},
{"type":"Feature","geometry":{"type":"Point","coordinates":[-15.9984856,18.1078295]},"properties":{"name":"Boucherie Morjane","shop":"butcher"}},
{"type":"Feature","geometry":{"type":"Point","coordinates":[-16.0035677,18.1070596]},"properties":{"name":"Epicerie Vetah","shop":"convenience"}},
{"type":"Feature","geometry":{"type":"Point","coordinates":[-15.9925613,18.128765]},"properties":{"name":"Boucherie","shop":"butcher"}},
{"type":"Feature","geometry":{"type":"Point","coordinates":[-15.9927812,18.1284196]},"properties":{"amenity":"marketplace","name":"El Ebrare Market"}},
{"type":"Feature","geometry":{"type":"Point","coordinates":[-15.9927197,18.1257252]},"properties":{"shop":"convenience"}},
{"type":"Feature","geometry":{"type":"Point","coordinates":[-15.9927973,18.1253148]},"properties":{"name":"Toute Market","shop":"convenience"}},
{"type":"Feature","geometry":{"type":"Point","coordinates":[-15.9925438,18.1289345]},"properties":{"amenity":"marketplace"}},
{"type":"Feature","geometry":{"type":"Point","coordinates":[-15.9925506,18.129262]},"properties":{"name":"Eta Elkheir","shop":"supermarket"}},
{"type":"Feature","geometry":{"type":"Point","coordinates":[-15.9954849,18.1283507]},"properties":{"name":"Marche el al Quds","shop":"convenience"}},
{"type":"Feature","geometry":{"type":"Point","coordinates":[-15.973653,18.1150396]},"properties":{"shop":"convenience"}},
{"type":"Feature","geometry":{"type":"Point","coordinates":[-15.9726056,18.1127765]},"properties":{"shop":"convenience"}},
{"type":"Feature","geometry":{"type":"Point","coordinates":[-15.9736383,18.105813]},"properties":{"name":"Saada Datter","shop":"farm"}},
{"type":"Feature","geometry":{"type":"Point","coordinates":[-15.9736758,18.1057212]},"properties":{"name":"El walaty Dattes","shop":"convenience"}},
{"type":"Feature","geometry":{"type":"Point","coordinates":[-15.9790912,18.1070647]},"properties":{"name":"Épicerie Erida","name:fr":"Épicerie Erida","shop":"convenience"}},
{"type":"Feature","geometry":{"type":"Point","coordinates":[-15.9927705,18.105451]},"properties":{"name":"Boulangerie et patisserie Taybai","shop":"bakery"}},
{"type":"Feature","geometry":{"type":"Point","coordinates":[-15.9807099,18.1087256]},"properties":{"name":"Sky Rim Market","shop":"convenience"}},
{"type":"Feature","geometry":{"type":"Point","coordinates":[-15.9910968,18.1109652]},"properties":{"name":"Best Price","shop":"convenience"}},
{"type":"Feature","geometry":{"type":"Point","coordinates":[-15.9916922,18.1105089]},"properties":{"shop":"convenience"}},
{"type":"Feature","geometry":{"type":"Point","coordinates":[-15.9925492,18.1243193]},"properties":{"shop":"convenience"}},
{"type":"Feature","geometry":{"type":"Point","coordinates":[-15.992808,18.1224559]},"properties":{"name":"Boucherie de la Famille","shop":"butcher"}},
{"type":"Feature","geometry":{"type":"Point","coordinates":[-15.9928443,18.1200967]},"properties":{"name":"Boucherie Seryf","shop":"butcher"}},
{"type":"Feature","geometry":{"type":"Point","coordinates":[-15.9928349,18.1186232]},"properties":{"name":"Pick n Pay","shop":"convenience"}},
{"type":"Feature","geometry":{"type":"Point","coordinates":[-15.9922394,18.1163595]},"properties":{"name":"Boucherie et Légumes Lemchaache","shop":"butcher"}},
{"type":"Feature","geometry":{"type":"Point","coordinates":[-15.981186,18.1149001]},"properties":{"name":"Epicerie Errida","shop":"convenience"}},
{"type":"Feature","geometry":{"type":"Point","coordinates":[-15.9786768,18.1156317]},"properties":{"name":"Boulangerie et patisserie Marhaba Shemal","shop":"bakery"}},
{"type":"Feature","geometry":{"type":"Point","coordinates":[-15.9786138,18.1159835]},"properties":{"shop":"butcher"}},
{"type":"Feature","geometry":{"type":"Point","coordinates":[-15.9751296,18.1162015]},"properties":{"shop":"convenience"}},
{"type":"Feature","geometry":{"type":"Point","coordinates":[-15.9749928,18.1162881]},"properties":{"name":"Boucherie el Beittari","shop":"butcher"}},
{"type":"Feature","geometry":{"type":"Point","coordinates":[-15.9750599,18.1168082]},"properties":{"shop":"convenience"}},
{"type":"Feature","geometry":{"type":"Point","coordinates":[-15.9529156,18.1081711]},"properties":{"shop":"convenience"}},
{"type":"Feature","geometry":{"type":"Point","coordinates":[-15.9526661,18.108718]},"properties":{"shop":"convenience"}},
{"type":"Feature","geometry":{"type":"Point","coordinates":[-15.9457085,18.1206893]},"properties":{"name":"Boucherie et Légumes","shop":"butcher"}},
{"type":"Feature","geometry":{"type":"Point","coordinates":[-15.9466633,18.1214273]},"properties":{"shop":"convenience"}},
{"type":"Feature","geometry":{"type":"Point","coordinates":[-15.9494904,18.1224049]},"properties":{"name":"Epicerie","shop":"convenience"}},
{"type":"Feature","geometry":{"type":"Point","coordinates":[-15.9498619,18.1225247]},"properties":{"shop":"bakery"}},
{"type":"Feature","geometry":{"type":"Point","coordinates":[-15.9506598,18.1228676]},"properties":{"name":"Boucherie Teyssur","shop":"butcher"}},
{"type":"Feature","geometry":{"type":"Point","coordinates":[-15.9579621,18.1240765]},"properties":{"shop":"convenience"}},
{"type":"Feature","geometry":{"type":"Point","coordinates":[-15.9697343,18.1217409]},"properties":{"name":"Boulangerie et patisserie El Mourabitone","shop":"bakery"}},
{"type":"Feature","geometry":{"type":"Point","coordinates":[-15.9566331,18.1020679]},"properties":{"name":"Boulangerie et patisserie Leksaroi","shop":"butcher"}},
{"type":"Feature","geometry":{"type":"Point","coordinates":[-15.9546831,18.105117]},"properties":{"name":"Boulangerie et patisserie Marhaba","shop":"bakery"}},
{"type":"Feature","geometry":{"type":"Point","coordinates":[-15.9538288,18.1066568]},"properties":{"name":"Boucherie el qouds","shop":"butcher"}},
{"type":"Feature","geometry":{"type":"Point","coordinates":[-15.9635881,18.1276395]},"properties":{"name":"TAM Super Marché","shop":"supermarket"}},
{"type":"Feature","geometry":{"type":"Point","coordinates":[-15.940576,18.1411606]},"properties":{"shop":"convenience"}},
{"type":"Feature","geometry":{"type":"Point","coordinates":[-15.9392819,18.1401997]},"properties":{"shop":"convenience"}},
{"type":"Feature","geometry":{"type":"Point","coordinates":[-15.9352103,18.1371614]},"properties":{"shop":"convenience"}},
{"type":"Feature","geometry":{"type":"Point","coordinates":[-15.9335969,18.1357327]},"properties":{"name":"Boucherie El asma 2","shop":"butcher"}},
{"type":"Feature","geometry":{"type":"Point","coordinates":[-15.9325951,18.1352267]},"properties":{"shop":"bakery"}},
{"type":"Feature","geometry":{"type":"Point","coordinates":[-15.9325106,18.1351579]},"properties":{"name":"Complex Galaxy","shop":"convenience"}},
{"type":"Feature","geometry":{"type":"Point","coordinates":[-15.9315665,18.1344735]},"properties":{"name":"Dattes","shop":"convenience"}},
{"type":"Feature","geometry":{"type":"Point","coordinates":[-15.9310529,18.1340759]},"properties":{"name":"Boucherie Nour","shop":"butcher"}},
{"type":"Feature","geometry":{"type":"Point","coordinates":[-15.9302522,18.1335036]},"properties":{"shop":"convenience"}},
{"type":"Feature","geometry":{"type":"Point","coordinates":[-15.9316336,18.1317078]},"properties":{"shop":"butcher"}},
{"type":"Feature","geometry":{"type":"Point","coordinates":[-15.9317704,18.1314784]},"properties":{"amenity":"marketplace","name":"Marche Mgueysira Central"}},
{"type":"Feature","geometry":{"type":"Point","coordinates":[-15.923764,18.1354574]},"properties":{"shop":"convenience"}},
{"type":"Feature","geometry":{"type":"Point","coordinates":[-15.9469624,18.1334909]},"properties":{"shop":"butcher"}},
{"type":"Feature","geometry":{"type":"Point","coordinates":[-15.9426963,18.1311445]},"properties":{"name":"Boucherie el Nejah","shop":"butcher"}},
{"type":"Feature","geometry":{"type":"Point","coordinates":[-15.9385832,18.12734]},"properties":{"shop":"butcher"}},
{"type":"Feature","geometry":{"type":"Point","coordinates":[-15.9369779,18.1292021]},"properties":{"name":"Boucherie","shop":"butcher"}},
{"type":"Feature","geometry":{"type":"Point","coordinates":[-15.9360002,18.1305748]},"properties":{"shop":"butcher"}},
{"type":"Feature","geometry":{"type":"Point","coordinates":[-15.9357829,18.1306436]},"properties":{"shop":"butcher"}},
{"type":"Feature","geometry":{"type":"Point","coordinates":[-15.9356555,18.1307953]},"properties":{"name":"Complexe Movtah Lkheir","shop":"convenience"}},
{"type":"Feature","geometry":{"type":"Point","coordinates":[-15.9357816,18.1309648]},"properties":{"name":"Epicerie Nijan","shop":"convenience"}},
{"type":"Feature","geometry":{"type":"Point","coordinates":[-15.9353752,18.131342]},"properties":{"name":"Complex Ancelous","shop":"convenience"}},
{"type":"Feature","geometry":{"type":"Point","coordinates":[-15.9348764,18.1318021]},"properties":{"shop":"convenience"}},
{"type":"Feature","geometry":{"type":"Point","coordinates":[-15.9337485,18.1333902]},"properties":{"shop":"butcher"}},
{"type":"Feature","geometry":{"type":"Point","coordinates":[-15.9338584,18.1329005]},"properties":{"shop":"butcher"}},
{"type":"Feature","geometry":{"type":"Point","coordinates":[-15.9328707,18.1345251]},"properties":{"name":"Epicerie Beder 31","shop":"convenience"}},
{"type":"Feature","geometry":{"type":"Point","coordinates":[-15.9884132,18.0602391]},"properties":{"name":"Epicerie Chance","shop":"convenience"}},
{"type":"Feature","geometry":{"type":"Point","coordinates":[-15.9870614,18.0582883]},"properties":{"shop":"convenience"}},
{"type":"Feature","geometry":{"type":"Point","coordinates":[-15.9867905,18.0578816]},"properties":{"shop":"convenience"}},
{"type":"Feature","geometry":{"type":"Point","coordinates":[-15.9617279,18.0561781]},"properties":{"shop":"butcher"}},
{"type":"Feature","geometry":{"type":"Point","coordinates":[-15.9617011,18.0562865]},"properties":{"amenity":"marketplace"}},
{"type":"Feature","geometry":{"type":"Point","coordinates":[-15.9615697,18.0563617]},"properties":{"amenity":"marketplace"}},
{"type":"Feature","geometry":{"type":"Point","coordinates":[-15.9592804,18.0643523]},"properties":{"shop":"convenience"}},
{"type":"Feature","geometry":{"type":"Point","coordinates":[-15.959239,18.065267]},"properties":{"shop":"butcher"}},
{"type":"Feature","geometry":{"type":"Point","coordinates":[-15.9595565,18.0657959]},"properties":{"shop":"bakery"}},
{"type":"Feature","geometry":{"type":"Point","coordinates":[-15.9733687,18.045058]},"properties":{"shop":"convenience"}},
{"type":"Feature","geometry":{"type":"Point","coordinates":[-15.9714402,18.0466583]},"properties":{"amenity":"marketplace","name":"Marché Poto 4"}},
{"type":"Feature","geometry":{"type":"Point","coordinates":[-15.9714939,18.046986]},"properties":{"name":"Boulangerie et patisserie El","shop":"bakery"}},
{"type":"Feature","geometry":{"type":"Point","coordinates":[-15.9714349,18.0470969]},"properties":{"name":"Complexe Aldrahman","shop":"convenience"}},
{"type":"Feature","geometry":{"type":"Point","coordinates":[-15.9678152,18.0500258]},"properties":{"name":"Boulangerie et patisserie En Enejem","shop":"bakery"}},
{"type":"Feature","geometry":{"type":"Point","coordinates":[-15.96093,18.0564293]},"properties":{"amenity":"marketplace","name":"Marché Poto 11"}},
{"type":"Feature","geometry":{"type":"Point","coordinates":[-15.9605035,18.0568029]},"properties":{"name":"Boucherie el Baraka","shop":"butcher"}},
{"type":"Feature","geometry":{"type":"Point","coordinates":[-15.9580708,18.0589513]},"properties":{"shop":"butcher"}},
{"type":"Feature","geometry":{"type":"Point","coordinates":[-15.9560671,18.0605158]},"properties":{"shop":"convenience"}},
{"type":"Feature","geometry":{"type":"Point","coordinates":[-15.9560578,18.0607912]},"properties":{"shop":"convenience"}},
{"type":"Feature","geometry":{"type":"Point","coordinates":[-15.9509642,18.0654297]},"properties":{"shop":"butcher"}},
{"type":"Feature","geometry":{"type":"Point","coordinates":[-15.9489995,18.0580116]},"properties":{"shop":"convenience"}},
{"type":"Feature","geometry":{"type":"Point","coordinates":[-15.9468564,18.0486207]},"properties":{"shop":"convenience"}},
{"type":"Feature","geometry":{"type":"Point","coordinates":[-15.9381755,18.0579224]},"properties":{"name":"Complexe Sevari","shop":"convenience"}},
{"type":"Feature","geometry":{"type":"Point","coordinates":[-15.9404594,18.050722]},"properties":{"amenity":"marketplace"}},
{"type":"Feature","geometry":{"type":"Point","coordinates":[-15.9408295,18.0504058]},"properties":{"shop":"butcher"}},
{"type":"Feature","geometry":{"type":"Point","coordinates":[-15.942066,18.048372]},"properties":{"shop":"bakery"}},
{"type":"Feature","geometry":{"type":"Point","coordinates":[-15.9424362,18.0477421]},"properties":{"shop":"butcher"}},
{"type":"Feature","geometry":{"type":"Point","coordinates":[-15.9430853,18.0463446]},"properties":{"name":"Complexe Koul Chi","shop":"convenience"}},
{"type":"Feature","geometry":{"type":"Point","coordinates":[-15.9458546,18.0421455]},"properties":{"shop":"butcher"}},
{"type":"Feature","geometry":{"type":"Point","coordinates":[-15.9459009,18.0417324]},"properties":{"amenity":"marketplace"}},
{"type":"Feature","geometry":{"type":"Point","coordinates":[-15.946031,18.0417496]},"properties":{"amenity":"marketplace"}},
{"type":"Feature","geometry":{"type":"Point","coordinates":[-15.9302308,18.0449687]},"properties":{"shop":"convenience"}},
{"type":"Feature","geometry":{"type":"Point","coordinates":[-15.930149,18.044919]},"properties":{"shop":"butcher"}},
{"type":"Feature","geometry":{"type":"Point","coordinates":[-15.9305821,18.0450975]},"properties":{"name":"GHalou Restous","shop":"butcher"}},
{"type":"Feature","geometry":{"type":"Point","coordinates":[-15.9394817,18.0501431]},"properties":{"name":"Boucherie","shop":"butcher"}},
{"type":"Feature","geometry":{"type":"Point","coordinates":[-15.930322,18.0456381]},"properties":{"shop":"butcher"}},
{"type":"Feature","geometry":{"type":"Point","coordinates":[-15.9295099,18.0466047]},"properties":{"shop":"convenience"}},
{"type":"Feature","geometry":{"type":"Point","coordinates":[-15.9158126,18.0374656]},"properties":{"shop":"convenience"}},
{"type":"Feature","geometry":{"type":"Point","coordinates":[-15.8915466,18.0696817]},"properties":{"name":"Boulangerie et patisserie 2","shop":"bakery"}},
{"type":"Feature","geometry":{"type":"Point","coordinates":[-15.8921662,18.0660085]},"properties":{"amenity":"marketplace"}},
{"type":"Feature","geometry":{"type":"Point","coordinates":[-15.8930513,18.0664318]},"properties":{"amenity":"marketplace"}},
{"type":"Feature","geometry":{"type":"Point","coordinates":[-15.8928958,18.0661807]},"properties":{"amenity":"marketplace"}},
{"type":"Feature","geometry":{"type":"Point","coordinates":[-15.8934174,18.0663158]},"properties":{"amenity":"marketplace"}},
{"type":"Feature","geometry":{"type":"Point","coordinates":[-15.8942798,18.0666868]},"properties":{"amenity":"marketplace"}},
{"type":"Feature","geometry":{"type":"Point","coordinates":[-15.8940625,18.066428]},"properties":{"amenity":"marketplace"}},
{"type":"Feature","geometry":{"type":"Point","coordinates":[-15.8945185,18.0665338]},"properties":{"amenity":"marketplace"}},
{"type":"Feature","geometry":{"type":"Point","coordinates":[-15.8950898,18.0668538]},"properties":{"amenity":"marketplace"}},
{"type":"Feature","geometry":{"type":"Point","coordinates":[-15.8953795,18.0666664]},"properties":{"amenity":"marketplace"}},
{"type":"Feature","geometry":{"type":"Point","coordinates":[-15.9014051,18.0677859]},"properties":{"amenity":"marketplace"}},
{"type":"Feature","geometry":{"type":"Point","coordinates":[-15.9022017,18.067907]},"properties":{"shop":"butcher"}},
{"type":"Feature","geometry":{"type":"Point","coordinates":[-15.9045312,18.06819]},"properties":{"shop":"butcher"}},
{"type":"Feature","geometry":{"type":"Point","coordinates":[-15.9156932,18.103878]},"properties":{"shop":"convenience"}},
{"type":"Feature","geometry":{"type":"Point","coordinates":[-15.9282741,18.1006975]},"properties":{"shop":"butcher"}},
{"type":"Feature","geometry":{"type":"Point","coordinates":[-15.928309,18.1004031]},"properties":{"shop":"convenience"}},
{"type":"Feature","geometry":{"type":"Point","coordinates":[-15.9293644,18.0993106]},"properties":{"shop":"convenience"}},
{"type":"Feature","geometry":{"type":"Point","coordinates":[-15.9293751,18.0990557]},"properties":{"shop":"butcher"}},
{"type":"Feature","geometry":{"type":"Point","coordinates":[-15.9301972,18.0982513]},"properties":{"shop":"butcher"}},
{"type":"Feature","geometry":{"type":"Point","coordinates":[-15.9223082,18.1084981]},"properties":{"shop":"butcher"}},
{"type":"Feature","geometry":{"type":"Point","coordinates":[-15.923084,18.1090749]},"properties":{"shop":"butcher"}},
{"type":"Feature","geometry":{"type":"Point","coordinates":[-15.9253572,18.1108301]},"properties":{"name":"Boucherie El Magnariba","shop":"butcher"}},
{"type":"Feature","geometry":{"type":"Point","coordinates":[-15.921932,18.1129314]},"properties":{"shop":"butcher"}},
{"type":"Feature","geometry":{"type":"Point","coordinates":[-15.9226844,18.1120748]},"properties":{"name":"Complexe","shop":"convenience"}},
{"type":"Feature","geometry":{"type":"Point","coordinates":[-15.9234361,18.1108008]},"properties":{"addr:city":"Dakar","addr:housenumber":"785a","addr:street":"Rue GD 32","name":"Boucherie Et Dibiterie","shop":"butcher"}},
{"type":"Feature","geometry":{"type":"Point","coordinates":[-15.9240785,18.109948]},"properties":{"shop":"butcher"}},
{"type":"Feature","geometry":{"type":"Point","coordinates":[-15.9245183,18.109609]},"properties":{"name":"Boucherie El Rahma","shop":"butcher"}},
{"type":"Feature","geometry":{"type":"Point","coordinates":[-15.9275539,18.0701012]},"properties":{"name":"Swayla Commerce","shop":"convenience"}},
{"type":"Feature","geometry":{"type":"Point","coordinates":[-15.9293202,18.0655342]},"properties":{"shop":"butcher"}},
{"type":"Feature","geometry":{"type":"Point","coordinates":[-15.9454925,18.074756]},"properties":{"shop":"butcher"}},
{"type":"Feature","geometry":{"type":"Point","coordinates":[-15.9461363,18.0717146]},"properties":{"shop":"butcher"}},
{"type":"Feature","geometry":{"type":"Point","coordinates":[-15.9336975,18.0809163]},"properties":{"name":"Complexe commercial el Baraka","shop":"convenience"}},
{"type":"Feature","geometry":{"type":"Point","coordinates":[-15.9341763,18.0781677]},"properties":{"shop":"butcher"}},
{"type":"Feature","geometry":{"type":"Point","coordinates":[-15.9345894,18.0761418]},"properties":{"shop":"butcher"}},
{"type":"Feature","geometry":{"type":"Point","coordinates":[-15.9354249,18.0723795]},"properties":{"name":"Epicerie","shop":"convenience"}},
{"type":"Feature","geometry":{"type":"Point","coordinates":[-15.9354101,18.0722814]},"properties":{"name":"Boucherie la Vie","shop":"butcher"}},
{"type":"Feature","geometry":{"type":"Point","coordinates":[-15.9382023,18.0635465]},"properties":{"shop":"convenience"}},
{"type":"Feature","geometry":{"type":"Point","coordinates":[-15.9301959,18.0665173]},"properties":{"shop":"butcher"}},
{"type":"Feature","geometry":{"type":"Point","coordinates":[-15.9373145,18.0685011]},"properties":{"name":"Barakatt","shop":"butcher"}},
{"type":"Feature","geometry":{"type":"Point","coordinates":[-15.9407786,18.0696167]},"properties":{"name":"Boucherie el Kheir","shop":"butcher"}},
{"type":"Feature","geometry":{"type":"Point","coordinates":[-15.9464528,18.0711938]},"properties":{"name":"Complexe el vadel","shop":"convenience"}},
{"type":"Feature","geometry":{"type":"Point","coordinates":[-15.9469798,18.0714412]},"properties":{"shop":"convenience"}},
{"type":"Feature","geometry":{"type":"Point","coordinates":[-15.9501636,18.072326]},"properties":{"shop":"convenience"}},
{"type":"Feature","geometry":{"type":"Point","coordinates":[-15.9453826,18.0735053]},"properties":{"name":"Boucherie Aioun","shop":"butcher"}},
{"type":"Feature","geometry":{"type":"Point","coordinates":[-15.9315477,18.0701624]},"properties":{"shop":"butcher"}},
{"type":"Feature","geometry":{"type":"Point","coordinates":[-15.9528793,18.0729354]},"properties":{"shop":"butcher"}},
{"type":"Feature","geometry":{"type":"Point","coordinates":[-15.9528458,18.0730323]},"properties":{"shop":"convenience"}},
{"type":"Feature","geometry":{"type":"Point","coordinates":[-15.9541453,18.0733459]},"properties":{"shop":"convenience"}},
{"type":"Feature","geometry":{"type":"Point","coordinates":[-15.9554422,18.073578]},"properties":{"shop":"convenience"}},
{"type":"Feature","geometry":{"type":"Point","coordinates":[-15.9569442,18.0739477]},"properties":{"shop":"convenience"}},
{"type":"Feature","geometry":{"type":"Point","coordinates":[-15.9588835,18.0745278]},"properties":{"amenity":"marketplace"}},
{"type":"Feature","geometry":{"type":"Point","coordinates":[-15.9618714,18.0753157]},"properties":{"shop":"convenience"}},
{"type":"Feature","geometry":{"type":"Point","coordinates":[-15.9614396,18.0727493]},"properties":{"name":"Boucherie PortD'elexendrie","shop":"butcher"}},
{"type":"Feature","geometry":{"type":"Point","coordinates":[-15.9667383,18.0740191]},"properties":{"name":"Boulangerie et Pâtisserie","name:fr":"Boulangerie et Pâtisserie","shop":"bakery"}},
{"type":"Feature","geometry":{"type":"Point","coordinates":[-15.9668134,18.0740446]},"properties":{"name":"Boucherie de Cairo","name:fr":"Boucherie de Cairo","shop":"butcher"}},
{"type":"Feature","geometry":{"type":"Point","coordinates":[-15.966399,18.0767615]},"properties":{"amenity":"marketplace"}},
{"type":"Feature","geometry":{"type":"Point","coordinates":[-15.9644705,18.0790563]},"properties":{"amenity":"marketplace"}},
{"type":"Feature","geometry":{"type":"Point","coordinates":[-15.9578361,18.0693834]},"properties":{"shop":"butcher"}},
{"type":"Feature","geometry":{"type":"Point","coordinates":[-15.9561355,18.0750021]},"properties":{"shop":"convenience"}},
{"type":"Feature","geometry":{"type":"Point","coordinates":[-15.9581016,18.0990467]},"properties":{"shop":"convenience"}},
{"type":"Feature","geometry":{"type":"Point","coordinates":[-15.9659672,18.1015083]},"properties":{"name":"PatiChet","shop":"bakery"}},
{"type":"Feature","geometry":{"type":"Point","coordinates":[-15.9942511,18.0775838]},"properties":{"shop":"convenience"}},
{"type":"Feature","geometry":{"type":"Point","coordinates":[-15.9930548,18.0783066]},"properties":{"shop":"butcher"}},
{"type":"Feature","geometry":{"type":"Point","coordinates":[-15.9786983,18.0816315]},"properties":{"shop":"convenience"}},
{"type":"Feature","geometry":{"type":"Point","coordinates":[-15.9814194,18.0824647]},"properties":{"amenity":"marketplace"}},
{"type":"Feature","geometry":{"type":"Point","coordinates":[-15.9912363,18.0733281]},"properties":{"amenity":"marketplace"}},
{"type":"Feature","geometry":{"type":"Point","coordinates":[-15.9963593,18.0717178]},"properties":{"shop":"convenience"}},
{"type":"Feature","geometry":{"type":"Point","coordinates":[-15.9938662,18.068482]},"properties":{"amenity":"marketplace"}},
{"type":"Feature","geometry":{"type":"Point","coordinates":[-15.9938863,18.0681939]},"properties":{"amenity":"marketplace"}},
{"type":"Feature","geometry":{"type":"Point","coordinates":[-15.9935926,18.067958]},"properties":{"amenity":"marketplace"}},
{"type":"Feature","geometry":{"type":"Point","coordinates":[-15.9935564,18.0677527]},"properties":{"amenity":"marketplace"}},
{"type":"Feature","geometry":{"type":"Point","coordinates":[-15.9934156,18.0675015]},"properties":{"amenity":"marketplace"}},
{"type":"Feature","geometry":{"type":"Point","coordinates":[-15.9918746,18.0652104]},"properties":{"name":"Complex el Wilayatte","shop":"convenience"}},
{"type":"Feature","geometry":{"type":"Point","coordinates":[-15.9895907,18.0622613]},"properties":{"shop":"convenience"}},
{"type":"Feature","geometry":{"type":"Point","coordinates":[-15.9858209,18.0647935]},"properties":{"name":"Epicerie","shop":"convenience"}},
{"type":"Feature","geometry":{"type":"Point","coordinates":[-15.9848566,18.0651938]},"properties":{"shop":"butcher"}},
{"type":"Feature","geometry":{"type":"Point","coordinates":[-15.9842961,18.065547]},"properties":{"shop":"convenience"}},
{"type":"Feature","geometry":{"type":"Point","coordinates":[-15.9830193,18.0663031]},"properties":{"shop":"convenience"}},
{"type":"Feature","geometry":{"type":"Point","coordinates":[-15.9837194,18.075099]},"properties":{"amenity":"marketplace"}},
{"type":"Feature","geometry":{"type":"Point","coordinates":[-15.9824212,18.0773071]},"properties":{"amenity":"marketplace"}},
{"type":"Feature","geometry":{"type":"Point","coordinates":[-15.9822106,18.0782913]},"properties":{"amenity":"marketplace"}},
{"type":"Feature","geometry":{"type":"Point","coordinates":[-15.9822093,18.0785667]},"properties":{"amenity":"marketplace"}},
{"type":"Feature","geometry":{"type":"Point","coordinates":[-15.9828088,18.0761992]},"properties":{"amenity":"marketplace"}},
{"type":"Feature","geometry":{"type":"Point","coordinates":[-15.9824212,18.0763152]},"properties":{"amenity":"marketplace"}},
{"type":"Feature","geometry":{"type":"Point","coordinates":[-15.981119,18.0746693]},"properties":{"amenity":"marketplace"}},
{"type":"Feature","geometry":{"type":"Point","coordinates":[-15.9805825,18.0742703]},"properties":{"amenity":"marketplace"}},
{"type":"Feature","geometry":{"type":"Point","coordinates":[-15.9804297,18.0739707]},"properties":{"amenity":"marketplace"}},
{"type":"Feature","geometry":{"type":"Point","coordinates":[-15.9808534,18.0840474]},"properties":{"shop":"butcher"}},
{"type":"Feature","geometry":{"type":"Point","coordinates":[-15.9799722,18.0845013]},"properties":{"amenity":"marketplace","name":"Maché Letihad"}},
{"type":"Feature","geometry":{"type":"Point","coordinates":[-15.9805879,18.0855976]},"properties":{"amenity":"marketplace"}},
{"type":"Feature","geometry":{"type":"Point","coordinates":[-15.9804028,18.0865665]},"properties":{"amenity":"marketplace"}},
{"type":"Feature","geometry":{"type":"Point","coordinates":[-15.9802821,18.0872243]},"properties":{"amenity":"marketplace"}},
{"type":"Feature","geometry":{"type":"Point","coordinates":[-15.9850913,18.1001583]},"properties":{"shop":"convenience"}},
{"type":"Feature","geometry":{"type":"Point","coordinates":[-15.9946749,18.0899652]},"properties":{"shop":"convenience"}},
{"type":"Feature","geometry":{"type":"Point","coordinates":[-15.9914616,18.0857379]},"properties":{"shop":"convenience"}},
{"type":"Feature","geometry":{"type":"Point","coordinates":[-15.9927021,18.1006963]},"properties":{"shop":"butcher"}},
{"type":"Feature","geometry":{"type":"Point","coordinates":[-15.9926391,18.1004732]},"properties":{"shop":"convenience"}},
{"type":"Feature","geometry":{"type":"Point","coordinates":[-15.9881531,18.1023101]},"properties":{"name":"Epicerie Chebab","shop":"convenience"}},
{"type":"Feature","geometry":{"type":"Point","coordinates":[-15.979811400000001,18.1014458]},"properties":{"name":"Boulangerie et patisserie Letoil","shop":"bakery"}},
{"type":"Feature","geometry":{"type":"Point","coordinates":[-15.974852,18.1037671]},"properties":{"name":"Épicerie 24","name:fr":"Épicerie 24","shop":"convenience"}},
{"type":"Feature","geometry":{"type":"Point","coordinates":[-15.9394495,18.0856754]},"properties":{"shop":"convenience"}},
{"type":"Feature","geometry":{"type":"Point","coordinates":[-15.9415899,18.0859253]},"properties":{"name":"Epicerie Eselam","shop":"convenience"}},
{"type":"Feature","geometry":{"type":"Point","coordinates":[-15.9303622,18.0980448]},"properties":{"shop":"butcher"}},
{"type":"Feature","geometry":{"type":"Point","coordinates":[-15.9304655,18.097916]},"properties":{"amenity":"marketplace","name":"Marché es Sava"}},
{"type":"Feature","geometry":{"type":"Point","coordinates":[-15.9306049,18.0975438]},"properties":{"shop":"butcher"}},
{"type":"Feature","geometry":{"type":"Point","coordinates":[-15.9312969,18.0968516]},"properties":{"name":"Boucherie el Khaire","shop":"butcher"}},
{"type":"Feature","geometry":{"type":"Point","coordinates":[-15.9316443,18.0964654]},"properties":{"shop":"butcher"}},
{"type":"Feature","geometry":{"type":"Point","coordinates":[-15.9353571,18.092297]},"properties":{"shop":"butcher"}},
{"type":"Feature","geometry":{"type":"Point","coordinates":[-15.9356837,18.0914962]},"properties":{"amenity":"marketplace","name":"Marché Rahma"}},
{"type":"Feature","geometry":{"type":"Point","coordinates":[-15.9357615,18.0897204]},"properties":{"shop":"butcher"}},
{"type":"Feature","geometry":{"type":"Point","coordinates":[-15.9385201,18.089853]},"properties":{"shop":"convenience"}},
{"type":"Feature","geometry":{"type":"Point","coordinates":[-15.9384397,18.089542]},"properties":{"shop":"butcher"}},
{"type":"Feature","geometry":{"type":"Point","coordinates":[-15.93861,18.089171]},"properties":{"shop":"butcher"}},
{"type":"Feature","geometry":{"type":"Point","coordinates":[-15.9387535,18.088378]},"properties":{"name":"Boucherie Towba","shop":"butcher"}},
{"type":"Feature","geometry":{"type":"Point","coordinates":[-15.9389278,18.0852751]},"properties":{"amenity":"marketplace"}},
{"type":"Feature","geometry":{"type":"Point","coordinates":[-15.9518226,18.11063]},"properties":{"name":"Boucherie et Taisiel","shop":"butcher"}},
{"type":"Feature","geometry":{"type":"Point","coordinates":[-15.9511949,18.1113132]},"properties":{"shop":"convenience"}},
{"type":"Feature","geometry":{"type":"Point","coordinates":[-15.9493361,18.1137299]},"properties":{"shop":"convenience"}},
{"type":"Feature","geometry":{"type":"Point","coordinates":[-15.9486012,18.115025]},"properties":{"shop":"convenience"}},
{"type":"Feature","geometry":{"type":"Point","coordinates":[-15.9471314,18.1168324]},"properties":{"shop":"convenience"}},
{"type":"Feature","geometry":{"type":"Point","coordinates":[-15.9465319,18.1175245]},"properties":{"shop":"butcher"}},
{"type":"Feature","geometry":{"type":"Point","coordinates":[-15.9452076,18.1191662]},"properties":{"name":"Boucherie el Vowz","shop":"butcher"}},
{"type":"Feature","geometry":{"type":"Point","coordinates":[-15.9449507,18.1195346]},"properties":{"name":"Epicerie Nasre","shop":"convenience"}},
{"type":"Feature","geometry":{"type":"Point","coordinates":[-15.943839,18.1206269]},"properties":{"name":"Épicerie El Vadele","name:fr":"Épicerie El Vadele","shop":"convenience"}},
{"type":"Feature","geometry":{"type":"Point","coordinates":[-15.943336,18.1215382]},"properties":{"shop":"convenience"}},
{"type":"Feature","geometry":{"type":"Point","coordinates":[-15.9372917,18.1247132]},"properties":{"amenity":"marketplace"}},
{"type":"Feature","geometry":{"type":"Point","coordinates":[-15.9376967,18.1241919]},"properties":{"amenity":"marketplace"}},
{"type":"Feature","geometry":{"type":"Point","coordinates":[-15.9375747,18.1243334]},"properties":{"amenity":"marketplace"}},
{"type":"Feature","geometry":{"type":"Point","coordinates":[-15.9486133,18.1108582]},"properties":{"shop":"convenience"}},
{"type":"Feature","geometry":{"type":"Point","coordinates":[-15.9501918,18.1088901]},"properties":{"name":"Epicerie","shop":"convenience"}},
{"type":"Feature","geometry":{"type":"Point","coordinates":[-15.9302656,18.1143265]},"properties":{"shop":"convenience"}},
{"type":"Feature","geometry":{"type":"Point","coordinates":[-15.9313895,18.1151677]},"properties":{"shop":"butcher"}},
{"type":"Feature","geometry":{"type":"Point","coordinates":[-15.9329827,18.1162626]},"properties":{"shop":"butcher"}},
{"type":"Feature","geometry":{"type":"Point","coordinates":[-15.9252217,18.1334807]},"properties":{"shop":"convenience"}},
{"type":"Feature","geometry":{"type":"Point","coordinates":[-15.9210509,18.1381109]},"properties":{"name":"Epicerie Savar Said","shop":"convenience"}},
{"type":"Feature","geometry":{"type":"Point","coordinates":[-15.9213111,18.1378916]},"properties":{"shop":"convenience"}},
{"type":"Feature","geometry":{"type":"Point","coordinates":[-15.9216866,18.1374685]},"properties":{"amenity":"marketplace"}},
{"type":"Feature","geometry":{"type":"Point","coordinates":[-15.9297319,18.1331009]},"properties":{"shop":"butcher"}},
{"type":"Feature","geometry":{"type":"Point","coordinates":[-15.9294985,18.1326217]},"properties":{"shop":"convenience"}},
{"type":"Feature","geometry":{"type":"Point","coordinates":[-15.8949021,18.0574315]},"properties":{"shop":"butcher"}},
{"type":"Feature","geometry":{"type":"Point","coordinates":[-15.8947398,18.0573601]},"properties":{"shop":"convenience"}},
{"type":"Feature","geometry":{"type":"Point","coordinates":[-15.896447,18.0512283]},"properties":{"name":"Boulangerie et patisseri","shop":"bakery"}},
{"type":"Feature","geometry":{"type":"Point","coordinates":[-15.8964644,18.0511505]},"properties":{"shop":"convenience"}},
{"type":"Feature","geometry":{"type":"Point","coordinates":[-15.8965409,18.0508393]},"properties":{"shop":"convenience"}},
{"type":"Feature","geometry":{"type":"Point","coordinates":[-15.8969231,18.0493143]},"properties":{"name":"Epicerie","shop":"convenience"}},
{"type":"Feature","geometry":{"type":"Point","coordinates":[-15.8974528,18.0473953]},"properties":{"shop":"convenience"}},
{"type":"Feature","geometry":{"type":"Point","coordinates":[-15.8974569,18.0473596]},"properties":{"shop":"butcher"}},
{"type":"Feature","geometry":{"type":"Point","coordinates":[-15.8977586,18.0467705]},"properties":{"shop":"butcher"}},
{"type":"Feature","geometry":{"type":"Point","coordinates":[-15.9445846,18.1158356]},"properties":{"amenity":"marketplace"}},
{"type":"Feature","geometry":{"type":"Point","coordinates":[-15.8925833,18.0659129]},"properties":{"shop":"convenience"}},
{"type":"Feature","geometry":{"type":"Point","coordinates":[-15.892366,18.0658377]},"properties":{"shop":"convenience"}},
{"type":"Feature","geometry":{"type":"Point","coordinates":[-15.8927724,18.0644186]},"properties":{"name":"Boucherie Hamid","shop":"butcher"}},
{"type":"Feature","geometry":{"type":"Point","coordinates":[-15.8930044,18.0635503]},"properties":{"amenity":"marketplace","name":"Marché el Bechair"}},
{"type":"Feature","geometry":{"type":"Point","coordinates":[-15.8932203,18.063405]},"properties":{"name":"Boulangerie et patisserie el Emel","shop":"bakery"}},
{"type":"Feature","geometry":{"type":"Point","coordinates":[-15.9676937,18.0579357]},"properties":{"amenity":"marketplace","name":"Épicerie El-QOUDS  بقالة القدس"}},
{"type":"Feature","geometry":{"type":"Point","coordinates":[-15.9192139,18.1245601]},"properties":{"addr:street":"بنشاب","name:ar":"متجر صغير  متنوع","name:en":"متجر صغير متنوع","opening_hours":"Mo-Su 07:00-10:00","shop":"convenience"}},
{"type":"Feature","geometry":{"type":"Point","coordinates":[-15.9410748,18.0866368]},"properties":{"shop":"supermarket"}},
{"type":"Feature","geometry":{"type":"Point","coordinates":[-15.9564085,18.0738101]},"properties":{"name":"مجمع 25 نوفمبر","shop":"supermarket"}},
{"type":"Feature","geometry":{"type":"Point","coordinates":[-15.9573527,18.0714795]},"properties":{"name":"Galloula Grocery","shop":"supermarket"}},
{"type":"Feature","geometry":{"type":"Point","coordinates":[-17.0391471,20.9529818]},"properties":{"shop":"supermarket"}},
{"type":"Feature","geometry":{"type":"Point","coordinates":[-16.3849783,16.4005194]},"properties":{"shop":"convenience"}},
{"type":"Feature","geometry":{"type":"Point","coordinates":[-16.4212721,16.4000567]},"properties":{"shop":"convenience"}},
{"type":"Feature","geometry":{"type":"Point","coordinates":[-15.9870278,18.0698327]},"properties":{"shop":"supermarket"}},
{"type":"Feature","geometry":{"type":"Point","coordinates":[-15.9873257,18.0676085]},"properties":{"shop":"supermarket"}},
{"type":"Feature","geometry":{"type":"Point","coordinates":[-15.9867266,18.0681687]},"properties":{"shop":"supermarket"}},
{"type":"Feature","geometry":{"type":"Point","coordinates":[-15.986781,18.0690534]},"properties":{"shop":"supermarket"}},
{"type":"Feature","geometry":{"type":"Point","coordinates":[-16.056602,19.3993475]},"properties":{"shop":"convenience"}},
{"type":"Feature","geometry":{"type":"Point","coordinates":[-13.7865051,16.1455691]},"properties":{"amenity":"marketplace","name":"Marché Centrale (Djiéré M'bagne)","opening_hours":"24/7","organic":"yes","wheelchair":"yes"}},
{"type":"Feature","geometry":{"type":"Point","coordinates":[-15.9755107,18.1183506]},"properties":{"name":"Sino Afrique Supermarché","shop":"supermarket"}},
{"type":"Feature","geometry":{"type":"Point","coordinates":[-15.9524793,18.1317754]},"properties":{"name":"Le bon pain","shop":"bakery"}},
{"type":"Feature","geometry":{"type":"Point","coordinates":[-15.9969481,18.1003876]},"properties":{"description":"Good bread and pastries (croissants, pain au chocolat...)","name":"Mega Pain","payment:cash":"yes","shop":"bakery"}},
{"type":"Feature","geometry":{"type":"Point","coordinates":[-13.0893109,20.2533803]},"properties":{"shop":"convenience"}},
{"type":"Feature","geometry":{"type":"Point","coordinates":[-13.0961972,20.2586838]},"properties":{"shop":"convenience"}},
{"type":"Feature","geometry":{"type":"Point","coordinates":[-15.9727726,20.167679]},"properties":{"shop":"convenience"}},
{"type":"Feature","geometry":{"type":"LineString","coordinates":[[-15.9801357,18.075988],[-15.9786787,18.0757142],[-15.9783788,18.0777974],[-15.979736,18.0779682],[-15.9801357,18.075988]]},"properties":{"addr:city":"نواكشوط","amenity":"marketplace","landuse":"retail","name":"سوق المغربية","name:ar":"سوق المغربية","name:fr":"Marché Marocain"}},
{"type":"Feature","geometry":{"type":"LineString","coordinates":[[-13.0537937,20.5199181],[-13.0541718,20.5193831],[-13.0534905,20.5189676],[-13.0534262,20.5189284],[-13.053048,20.5195438],[-13.0537937,20.5199181]]},"properties":{"addr:city":"أطار","amenity":"marketplace","name":"السوق أطار","name:ar":"السوق أطار","name:fr":"Marché d'Atar","shop":"greengrocer"}},
{"type":"Feature","geometry":{"type":"LineString","coordinates":[[-13.0506139,20.5196256],[-13.0503041,20.5203728],[-13.050465,20.5202974],[-13.0506474,20.5203728],[-13.0508221,20.5205347],[-13.0512014,20.5199565],[-13.0506139,20.5196256]]},"properties":{"addr:city":"أطار","amenity":"marketplace","landuse":"commercial","name":"سوق","name:ar":"سوق","name:fr":"Marché"}},
{"type":"Feature","geometry":{"type":"LineString","coordinates":[[-13.0541718,20.5193831],[-13.0534905,20.5189676],[-13.0535991,20.5188071],[-13.0542534,20.5188911],[-13.0542645,20.5190725],[-13.0542461,20.5192062],[-13.0541718,20.5193831]]},"properties":{"addr:city":"أطار","amenity":"marketplace","name":"مكان السوق","name:ar":"مكان السوق","name:fr":"place du marché"}},
{"type":"Feature","geometry":{"type":"LineString","coordinates":[[-13.0537862,20.5182054],[-13.0537117,20.51812],[-13.0538369,20.5180024],[-13.0539251,20.5181144],[-13.0537862,20.5182054]]},"properties":{"building":"yes","shop":"supermarket"}},
{"type":"Feature","geometry":{"type":"LineString","coordinates":[[-13.0534852,20.518441],[-13.0534345,20.5183788],[-13.0533411,20.5184269],[-13.0533956,20.5184992],[-13.0534852,20.518441]]},"properties":{"building":"yes","shop":"supermarket"}},
{"type":"Feature","geometry":{"type":"LineString","coordinates":[[-15.9801734,18.0758894],[-15.9793055,18.0757462],[-15.9794709,18.0747503],[-15.9799371,18.0744679],[-15.9804115,18.0745451],[-15.9801734,18.0758894]]},"properties":{"addr:city":"نواكشوط","amenity":"marketplace","landuse":"retail","name":"سوق الخضار","name:ar":"سوق الخضار","name:fr":"Marché aux Légumes"}},
{"type":"Feature","geometry":{"type":"LineString","coordinates":[[-15.9895864,18.0712813],[-15.9894549,18.0713582],[-15.9892161,18.071506],[-15.9889519,18.07167],[-15.9889308,18.0716878],[-15.9886666,18.0718357],[-15.9884078,18.0719913],[-15.9879021,18.0722901],[-15.9877951,18.0723616],[-15.9875105,18.0725509],[-15.9874716,18.0725721],[-15.9868031,18.0715822],[-15.9889178,18.0702914],[-15.9895864,18.0712813]]},"properties":{"addr:city":"نواكشوط","alt_name":"Marché 6 ème","amenity":"marketplace","landuse":"retail","name":"سوق المينا","name:ar":"سوق المينا","name:fr":"Marché Al Mina"}},
{"type":"Feature","geometry":{"type":"LineString","coordinates":[[-15.9910073,18.073303],[-15.9899983,18.0739456],[-15.9891463,18.0727367],[-15.9901553,18.0720941],[-15.9910073,18.073303]]},"properties":{"addr:city":"نواكشوط","amenity":"marketplace","landuse":"retail","name":"سوق سبخة","name:ar":"سوق سبخة","name:fr":"Marché Sebkha"}},
{"type":"Feature","geometry":{"type":"LineString","coordinates":[[-15.9801087,18.0876071],[-15.9798137,18.0875892],[-15.9798778,18.087267],[-15.980174,18.0873157],[-15.9801087,18.0876071]]},"properties":{"amenity":"marketplace","building":"yes","name:ko":"케피탈시장"}},
{"type":"Feature","geometry":{"type":"LineString","coordinates":[[-15.9750374,18.1026151],[-15.9748593,18.1025842],[-15.974916,18.1022219],[-15.9751176,18.1022446],[-15.9750374,18.1026151]]},"properties":{"building":"house","name":"BANA BLANC","shop":"supermarket"}},
{"type":"Feature","geometry":{"type":"LineString","coordinates":[[-15.9706807,18.0488737],[-15.9704192,18.0489359],[-15.9702,18.0480838],[-15.9702923,18.0480143],[-15.97055,18.0482886],[-15.9706807,18.0488737]]},"properties":{"amenity":"marketplace","name":"سوق عرفات","name:ar":"سوق عرفات","name:de":"Arafat-Markt","name:en":"Arafat Market","name:fr":"Marché Arafat"}},
{"type":"Feature","geometry":{"type":"LineString","coordinates":[[-15.963159,18.0732674],[-15.9630769,18.0735253],[-15.9628403,18.0734948],[-15.9628682,18.0733432],[-15.9628666,18.0731723],[-15.963159,18.0732674]]},"properties":{"alt_name":"Marché Btissam","amenity":"marketplace","building":"yes","name":"Mecca Market"}},
{"type":"Feature","geometry":{"type":"LineString","coordinates":[[-15.9818685,18.0645873],[-15.98012,18.0664563],[-15.9799878,18.0662753],[-15.9817151,18.0643577],[-15.9818685,18.0645873]]},"properties":{"addr:city":"نواكشوط","amenity":"marketplace","landuse":"retail","name":"سوق الخشب","name:ar":"سوق الخشب","name:fr":"Marché de Bois"}},
{"type":"Feature","geometry":{"type":"LineString","coordinates":[[-15.9830354,18.0645057],[-15.9822553,18.065011],[-15.9818209,18.0643785],[-15.9825231,18.063787],[-15.9830354,18.0645057]]},"properties":{"addr:city":"نواكشوط","amenity":"marketplace","landuse":"retail","name":"Marché d'Ejev"}},
{"type":"Feature","geometry":{"type":"LineString","coordinates":[[-15.9185138,18.0697049],[-15.9182853,18.0707389],[-15.9176798,18.0706325],[-15.9178403,18.0696256],[-15.9185138,18.0697049]]},"properties":{"addr:city":"نواكشوط","alt_name":"Grand marché","amenity":"marketplace","barrier":"wall","landuse":"retail","name":"سوق ولد الحسن","name:ar":"سوق ولد الحسن","name:fr":"Marché Ould Hacen"}},
{"type":"Feature","geometry":{"type":"LineString","coordinates":[[-15.9892638,18.01921],[-15.989012,18.0191705],[-15.988981,18.0193492],[-15.988847,18.0193282],[-15.9889278,18.0188619],[-15.9890442,18.0188802],[-15.9890236,18.0189986],[-15.9892931,18.0190409],[-15.9892638,18.01921]]},"properties":{"amenity":"marketplace","building":"yes","name":"Marche Dar Beyda"}},
{"type":"Feature","geometry":{"type":"LineString","coordinates":[[-15.9856754,18.0570108],[-15.985591,18.0570384],[-15.9854754,18.0569455],[-15.9851187,18.0565169],[-15.9848853,18.0562181],[-15.9845986,18.05578],[-15.9831136,18.0535304],[-15.9843787,18.0528874],[-15.9854613,18.0536629],[-15.9856853,18.0536671],[-15.9857751,18.053767],[-15.9854604,18.0539779],[-15.9852667,18.0550684],[-15.9852447,18.0560158],[-15.9856754,18.0570108]]},"properties":{"addr:city":"نواكشوط","addr:city:ar":"نواكشوط","amenity":"marketplace","landuse":"retail","name":"سوق للماشية","name:ar":"سوق للماشية","name:fr":"Marché du bétail"}},
{"type":"Feature","geometry":{"type":"LineString","coordinates":[[-17.037476,20.9492915],[-17.0374482,20.9486812],[-17.0374336,20.9481818],[-17.0374231,20.9481043],[-17.0391185,20.9480385],[-17.0391713,20.9492256],[-17.037476,20.9492915]]},"properties":{"addr:city":"نواذيبو","amenity":"marketplace","name":"سوق","name:ar":"سوق"}},
{"type":"Feature","geometry":{"type":"LineString","coordinates":[[-17.0347131,20.8510748],[-17.0347131,20.8515172],[-17.034583,20.8515172],[-17.034583,20.8510748],[-17.0347131,20.8510748]]},"properties":{"addr:city":"كانصادو","addr:city:fr":"Cansado","building":"yes","shop":"supermarket"}},
{"type":"Feature","geometry":{"type":"LineString","coordinates":[[-15.8006146,16.510573],[-15.7997725,16.5104797],[-15.7998914,16.5095347],[-15.8007008,16.5095933],[-15.8006146,16.510573]]},"properties":{"addr:city":"روصو","amenity":"marketplace","name":"السوق روصو المركزي","name:ar":"السوق روصو المركزي"}},
{"type":"Feature","geometry":{"type":"LineString","coordinates":[[-8.1698802,16.2316209],[-8.1698963,16.2319402],[-8.1695774,16.2327764],[-8.1684189,16.2329304],[-8.1683223,16.232567],[-8.1685122,16.2321308],[-8.1685122,16.2319557],[-8.1684908,16.2318475],[-8.1684425,16.2316981],[-8.168405,16.2315488],[-8.1683835,16.2313273],[-8.1683728,16.2311831],[-8.1683889,16.231111],[-8.1684586,16.2310543],[-8.1685874,16.2309976],[-8.1687161,16.230977],[-8.1690219,16.2309564],[-8.1693491,16.2309667],[-8.1694457,16.2310079],[-8.1695529,16.2311007],[-8.1698051,16.2314354],[-8.1698598,16.2315238],[-8.1698802,16.2316209]]},"properties":{"addr:city":"تمبدغة","amenity":"marketplace","landuse":"retail","name":"السوق تمبدغة","name:ar":"السوق تمبدغة","name:en":"Timbedra market","name:fr":"Marché de Timbedra"}},
{"type":"Feature","geometry":{"type":"LineString","coordinates":[[-5.7969751,15.8365022],[-5.796106,15.8366467],[-5.7959188,15.8360728],[-5.7967176,15.835821],[-5.7969751,15.8365022]]},"properties":{"amenity":"marketplace","landuse":"retail"}},
{"type":"Feature","geometry":{"type":"LineString","coordinates":[[-5.6944904,16.0364304],[-5.693181,16.0367299],[-5.6928591,16.0361834],[-5.6927791,16.0360993],[-5.6926982,16.0360184],[-5.6929133,16.0358735],[-5.6928597,16.0356261],[-5.6932673,16.0354198],[-5.6935141,16.0353992],[-5.6941793,16.0353683],[-5.6944041,16.036039],[-5.6944904,16.0364304]]},"properties":{"amenity":"marketplace","landuse":"retail"}},
{"type":"Feature","geometry":{"type":"LineString","coordinates":[[-14.3865386,19.7480395],[-14.3851125,19.7476964],[-14.3853255,19.746701],[-14.3867685,19.7469837],[-14.386654,19.7474386],[-14.3865386,19.7480395]]},"properties":{"addr:city":"أكجوجت","amenity":"marketplace","landuse":"retail","name":"السوق","name:ar":"السوق","name:en":"Souk","name:fr":"Souk"}},
{"type":"Feature","geometry":{"type":"LineString","coordinates":[[-16.026292,18.1036066],[-16.0257745,18.1035943],[-16.0257772,18.1034899],[-16.0258566,18.1034918],[-16.0258644,18.1031947],[-16.0257834,18.1031928],[-16.0257864,18.1030799],[-16.0261834,18.1030892],[-16.0263185,18.1030925],[-16.0263159,18.1031892],[-16.0261593,18.1031855],[-16.0261499,18.1035421],[-16.0262936,18.1035455],[-16.026292,18.1036066]]},"properties":{"amenity":"marketplace","building":"yes","name":"Fish Market"}},
{"type":"Feature","geometry":{"type":"LineString","coordinates":[[-11.4003016,16.6214813],[-11.4001118,16.6215754],[-11.3998257,16.6210462],[-11.4000156,16.620952],[-11.4003016,16.6214813]]},"properties":{"addr:city":"كيفة","building":"yes","name":"سوق ولد سني","name:ar":"سوق ولد سني","shop":"convenience"}},
{"type":"Feature","geometry":{"type":"LineString","coordinates":[[-9.4128988,15.8177288],[-9.4129846,15.8182449],[-9.4122322,15.8184238],[-9.4115925,15.818663],[-9.4114692,15.817703],[-9.4124267,15.8176411],[-9.4124482,15.8174501],[-9.4129176,15.8174759],[-9.4128988,15.8177288]]},"properties":{"addr:city":"كوباني","amenity":"marketplace","landuse":"retail","name":"السوق كوباني","name:ar":"السوق كوباني","name:en":"Kobenni market","name:fr":"Marché de Kobenni"}},
{"type":"Feature","geometry":{"type":"LineString","coordinates":[[-9.4848757,15.6938485],[-9.4844787,15.6939363],[-9.4844197,15.6932907],[-9.4847469,15.6933165],[-9.4847512,15.6935469],[-9.4848757,15.6938485]]},"properties":{"addr:city":"كرفي","amenity":"marketplace","landuse":"retail","name":"سوق كرفي","name:ar":"سوق كرفي","name:en":"Kerfi market","name:fr":"Marché de Kerfi"}},
{"type":"Feature","geometry":{"type":"LineString","coordinates":[[-9.5110272,16.0704471],[-9.5109402,16.0704736],[-9.5108448,16.0704857],[-9.510193,16.0704626],[-9.510177,16.0697306],[-9.5114122,16.0696411],[-9.5114456,16.0697692],[-9.5115464,16.0697674],[-9.5115797,16.0699084],[-9.5114873,16.0699478],[-9.5114149,16.0701025],[-9.5112606,16.0700966],[-9.5112203,16.0702332],[-9.5110272,16.0704471]]},"properties":{"amenity":"marketplace","landuse":"retail"}},
{"type":"Feature","geometry":{"type":"LineString","coordinates":[[-6.995196,16.2781148],[-6.9949009,16.2781508],[-6.9931873,16.2787059],[-6.9927528,16.2775498],[-6.9923969,16.2777814],[-6.9920353,16.2778434],[-6.991792,16.2777685],[-6.9917344,16.2776256],[-6.9916405,16.2775934],[-6.9916718,16.2772268],[-6.9942679,16.2763743],[-6.9943269,16.2765854],[-6.994402,16.2766935],[-6.9946112,16.2769098],[-6.9948205,16.2775174],[-6.995207,16.2775962],[-6.995196,16.2781148]]},"properties":{"addr:city":"آمرج","amenity":"marketplace","landuse":"retail","name":"السوق آمرج","name:ar":"السوق آمرج","name:fr":"Marché d'Amourj"}},
{"type":"Feature","geometry":{"type":"LineString","coordinates":[[-8.6699948,15.7295508],[-8.6692572,15.7297134],[-8.6692437,15.7301782],[-8.6690506,15.7302014],[-8.6690721,15.7303331],[-8.6686483,15.7303485],[-8.6685947,15.7308313],[-8.6682572,15.7307934],[-8.6675459,15.7307332],[-8.6674708,15.73071],[-8.6674976,15.7305706],[-8.6669961,15.7303924],[-8.666921,15.7303718],[-8.6669236,15.7301343],[-8.6657837,15.730062],[-8.6657917,15.7297547],[-8.6659339,15.7297031],[-8.6658964,15.729352],[-8.6653653,15.7293804],[-8.6653545,15.7290912],[-8.6658454,15.7289544],[-8.665891,15.7291093],[-8.6661029,15.7290912],[-8.6661297,15.7291687],[-8.6667681,15.7291119],[-8.6668324,15.7288098],[-8.6676156,15.7289905],[-8.6676425,15.7291351],[-8.6683398,15.7292487],[-8.6685088,15.7288873],[-8.6689058,15.7290318],[-8.669453,15.7290138],[-8.6698875,15.7290861],[-8.6699948,15.7295508]]},"properties":{"amenity":"marketplace"}},
{"type":"Feature","geometry":{"type":"LineString","coordinates":[[-14.8270475,16.75503],[-14.8248306,16.7546081],[-14.8248427,16.7545575],[-14.8246871,16.754542],[-14.8246442,16.7543263],[-14.8249392,16.7542955],[-14.8249594,16.7541663],[-14.8264614,16.7544385],[-14.8264346,16.7546029],[-14.8273412,16.7547827],[-14.827321,16.7549376],[-14.827144,16.754917],[-14.8270475,16.75503]]},"properties":{"amenity":"marketplace","landuse":"retail"}},
{"type":"Feature","geometry":{"type":"LineString","coordinates":[[-12.5835816,16.0193702],[-12.5836084,16.0194656],[-12.5837774,16.0194399],[-12.5838686,16.0199194],[-12.5834904,16.020084399999999],[-12.583713,16.0206258],[-12.5831497,16.020832],[-12.5831927,16.0209454],[-12.5824148,16.0212161],[-12.5821332,16.0203628],[-12.5819937,16.0199787],[-12.5825194,16.0197234],[-12.5831632,16.0194605],[-12.5835494,16.0193316],[-12.5835816,16.0193702]]},"properties":{"addr:city":"امبوت","amenity":"marketplace","landuse":"retail","name":"السوق امبوت","name:ar":"السوق امبوت","name:fr":"Marché de Mbout"}},
{"type":"Feature","geometry":{"type":"LineString","coordinates":[[-11.7106585,15.545105],[-11.7092812,15.5448593],[-11.7096125,15.5432807],[-11.7112982,15.5436241],[-11.7112218,15.5439525],[-11.7112647,15.5444745],[-11.7109911,15.5444487],[-11.7109053,15.5447019],[-11.7107296,15.5446732],[-11.7106585,15.545105]]},"properties":{"addr:city":"ولد يينكي","amenity":"marketplace","landuse":"retail"}},
{"type":"Feature","geometry":{"type":"LineString","coordinates":[[-11.5183231,15.9357508],[-11.5184196,15.9359314],[-11.5195086,15.9355187],[-11.5198895,15.9365297],[-11.5205815,15.9362821],[-11.5206083,15.9364781],[-11.5209302,15.9372828],[-11.5193316,15.9378657],[-11.5190588,15.9380124],[-11.5188764,15.9375688],[-11.5183338,15.9377109],[-11.5177821,15.9363154],[-11.5183231,15.9357508]]},"properties":{"addr:city":"كنكوصه","amenity":"marketplace","landuse":"retail","name":"السوق كنكوصه","name:ar":"السوق كنكوصه","name:fr":"Marché de Kankossa"}},
{"type":"Feature","geometry":{"type":"LineString","coordinates":[[-11.3980389,16.6233486],[-11.3978131,16.62293],[-11.3978039,16.6229092],[-11.3977567,16.6228318],[-11.3974958,16.6223488],[-11.3980329,16.6220919],[-11.3981617,16.6220311],[-11.3985869,16.6218144],[-11.3990812,16.6228572],[-11.3980389,16.6233486]]},"properties":{"addr:city":"كيفة","amenity":"marketplace","name":"السوق الجديدة","name:ar":"السوق الجديدة","name:fr":"Marché de Djadida"}},
{"type":"Feature","geometry":{"type":"LineString","coordinates":[[-13.1429771,16.21613],[-13.1429307,16.2159719],[-13.1428024,16.2159986],[-13.142848,16.2161584],[-13.1429771,16.21613]]},"properties":{"addr:city":"القصيبة","building":"yes","name":"سوق القصيبة كوركول","name:ar":"سوق القصيبة كوركول","shop":"convenience"}},
{"type":"Feature","geometry":{"type":"LineString","coordinates":[[-13.1579206,16.2203964],[-13.1579666,16.2201248],[-13.1574087,16.2200486],[-13.1573626,16.2203239],[-13.1579206,16.2203964]]},"properties":{"addr:city":"القصيبة","amenity":"marketplace","building":"yes","name":"السوق المركزي القصيبة","name:ar":"السوق المركزي القصيبة","name:en":"El Kseïba central market","name:fr":"Marché central El Kseïba"}},
{"type":"Feature","geometry":{"type":"LineString","coordinates":[[-14.3873349,19.7444861],[-14.3874731,19.744159],[-14.3873105,19.744093],[-14.387175299999999,19.744424],[-14.3873349,19.7444861]]},"properties":{"addr:city":"أكجوجت","building":"yes","name":"سوبرماركت مجمع الفاضل أكجوجت","name:ar":"سوبرماركت مجمع الفاضل أكجوجت","shop":"supermarket"}},
{"type":"Feature","geometry":{"type":"LineString","coordinates":[[-15.8066111,16.5107199],[-15.8066514,16.5103437],[-15.8062633,16.5103051],[-15.8062288,16.5106882],[-15.8066111,16.5107199]]},"properties":{"addr:city":"روصو","alt_name:ar":"مجمع النصر التجاري - روصو","amenity":"marketplace","name":"مجمع النصر التجاري روصو","name:ar":"مجمع النصر التجاري روصو"}},
{"type":"Feature","geometry":{"type":"LineString","coordinates":[[-12.901074,15.338119],[-12.9010847,15.338013],[-12.9009774,15.3380052],[-12.9009587,15.3380337],[-12.9009587,15.3381113],[-12.901074,15.338119]]},"properties":{"amenity":"marketplace","name":"marché Bédinki"}},
{"type":"Feature","geometry":{"type":"LineString","coordinates":[[-12.9027129,15.3407781],[-12.9027665,15.3406048],[-12.9025171,15.3405117],[-12.9024688,15.340641],[-12.9024554,15.3406979],[-12.9027129,15.3407781]]},"properties":{"amenity":"marketplace","name":"marché Sithiane"}},
{"type":"Feature","geometry":{"type":"LineString","coordinates":[[-5.7968311,15.8361868],[-5.7968013,15.8361094],[-5.7966943,15.8361451],[-5.796608,15.8359131],[-5.796721,15.8358923],[-5.7966853,15.8357971],[-5.7969173,15.8357228],[-5.7969501,15.835812],[-5.7970542,15.8357674],[-5.7971374,15.8359934],[-5.7970244,15.8360202],[-5.7970542,15.8361184],[-5.7968311,15.8361868]]},"properties":{"amenity":"marketplace","name":"Projet Marcol","operational_status":"operational","operator":"LWF","social_facility:for":"refugee","wall":"no"}},
{"type":"Feature","geometry":{"type":"LineString","coordinates":[[-14.2741638,16.5848788],[-14.2731339,16.5845086],[-14.2736757,16.58274],[-14.2742175,16.5828326],[-14.2745662,16.5829663],[-14.2742765,16.583357],[-14.2748183,16.5837632],[-14.2745018,16.5842978],[-14.2745984,16.5848634],[-14.2746306,16.5850485],[-14.2741638,16.5848788]]},"properties":{"addr:city":"بوغي","addr:city:ar":"بوغي","amenity":"marketplace","name":"سوق بوغي","name:ar":"سوق بوغي","name:en":"Bogué Market","name:fr":"Marché de Boghé"}},
{"type":"Feature","geometry":{"type":"LineString","coordinates":[[-15.9271771,18.0696486],[-15.9271301,18.0696486],[-15.9271301,18.0694484],[-15.9271771,18.0694484],[-15.9271771,18.0696486]]},"properties":{"amenity":"marketplace"}},
{"type":"Feature","geometry":{"type":"LineString","coordinates":[[-15.9269679,18.069646],[-15.926882,18.069646],[-15.926882,18.0694522],[-15.9269115,18.0694522],[-15.9269115,18.069435],[-15.9269538,18.069435],[-15.9269538,18.0694358],[-15.9269679,18.0694358],[-15.9269679,18.069646]]},"properties":{"amenity":"marketplace"}},
{"type":"Feature","geometry":{"type":"LineString","coordinates":[[-15.92722,18.0697531],[-15.9270316,18.0697531],[-15.9270316,18.0696537],[-15.9269927,18.0696537],[-15.9269927,18.0697531],[-15.9267962,18.0697531],[-15.9267962,18.0693299],[-15.92722,18.0693299],[-15.92722,18.0697531]]},"properties":{"amenity":"marketplace"}},
{"type":"Feature","geometry":{"type":"LineString","coordinates":[[-15.9993685,18.1075161],[-15.9994104,18.1077142],[-15.9991252,18.1077686],[-15.9990833,18.1075705],[-15.9993685,18.1075161]]},"properties":{"building":"yes","name":"Big Market","shop":"supermarket"}},
{"type":"Feature","geometry":{"type":"LineString","coordinates":[[-15.9765324,18.0693783],[-15.976342,18.0695644],[-15.9758002,18.0691718],[-15.9760281,18.068978],[-15.9765324,18.0693783]]},"properties":{"amenity":"marketplace","name":"سوق الفحم","name:fr":"Marché du Charbon"}},
{"type":"Feature","geometry":{"type":"LineString","coordinates":[[-15.96737,18.1014636],[-15.9670629,18.1014229],[-15.967091,18.1012406],[-15.9673928,18.1012877],[-15.96737,18.1014636]]},"properties":{"name":"Windy","name:fr":"Windy","shop":"supermarket"}},
{"type":"Feature","geometry":{"type":"LineString","coordinates":[[-12.8746033,15.3353952],[-12.8745174,15.335403],[-12.8742304,15.3348805],[-12.8745228,15.3349064],[-12.8746033,15.3353952]]},"properties":{"amenity":"marketplace","name":"marché de wali"}},
{"type":"Feature","geometry":{"type":"LineString","coordinates":[[-12.87393,15.3346839],[-12.8738818,15.3346141],[-12.8739468,15.3345758],[-12.8739913,15.3346587],[-12.87393,15.3346839]]},"properties":{"name":"epicerie Ba et frére","shop":"convenience"}},
{"type":"Feature","geometry":{"type":"LineString","coordinates":[[-15.9681446,18.05807],[-15.9680904,18.0582404],[-15.9676005,18.0580803],[-15.9676528,18.0578492],[-15.9679405,18.057956],[-15.9681446,18.05807]]},"properties":{"amenity":"marketplace"}},
{"type":"Feature","geometry":{"type":"LineString","coordinates":[[-15.9700341,18.0591552],[-15.9700781,18.0590651],[-15.9699948,18.0590321],[-15.9700145,18.0589518],[-15.9701081,18.058987],[-15.9701301,18.0589353],[-15.9696027,18.0587791],[-15.9695171,18.0590057],[-15.9696258,18.0590508],[-15.969642,18.0589914],[-15.9697091,18.0590057],[-15.9696917,18.0590618],[-15.9700341,18.0591552]]},"properties":{"amenity":"marketplace"}},
{"type":"Feature","geometry":{"type":"LineString","coordinates":[[-15.9603463,18.0629894],[-15.9604874,18.0625105],[-15.9599989,18.0623618],[-15.9598491,18.0628552],[-15.9603463,18.0629894]]},"properties":{"amenity":"marketplace"}},
{"type":"Feature","geometry":{"type":"LineString","coordinates":[[-15.9511492,18.1114025],[-15.9512029,18.1113184],[-15.9510273,18.1112218],[-15.9508199,18.1111253],[-15.9507575,18.1113239],[-15.9509098,18.1114328],[-15.9509852,18.1113197],[-15.9511492,18.1114025]]},"properties":{"building":"yes","shop":"supermarket"}},
{"type":"Feature","geometry":{"type":"LineString","coordinates":[[-15.9493678,18.1137373],[-15.9491453,18.1135653],[-15.9490914,18.1136282],[-15.949314,18.1138002],[-15.9493678,18.1137373]]},"properties":{"building":"yes","shop":"supermarket"}},
{"type":"Feature","geometry":{"type":"LineString","coordinates":[[-15.9386736,18.0892734],[-15.9386844,18.0891643],[-15.9386295,18.0891594],[-15.9386187,18.0892685],[-15.9386736,18.0892734]]},"properties":{"building":"yes","shop":"butcher"}},
{"type":"Feature","geometry":{"type":"LineString","coordinates":[[-15.9386245,18.0899155],[-15.9386431,18.0897991],[-15.9385505,18.0897857],[-15.9385319,18.0899021],[-15.9386245,18.0899155]]},"properties":{"building":"yes","shop":"convenience"}},
{"type":"Feature","geometry":{"type":"LineString","coordinates":[[-15.9878277,18.0682938],[-15.9877921,18.0682128],[-15.9876964,18.0682572],[-15.9877408,18.0683215],[-15.9878277,18.0682938]]},"properties":{"building":"yes","shop":"supermarket"}},
{"type":"Feature","geometry":{"type":"LineString","coordinates":[[-15.9384309,18.0895992],[-15.9383471,18.0895836],[-15.9383861,18.0893948],[-15.9384549,18.0894076],[-15.9384663,18.0894279],[-15.9384309,18.0895992]]},"properties":{"building":"yes","shop":"butcher"}},
{"type":"Feature","geometry":{"type":"LineString","coordinates":[[-11.4328871,18.5533396],[-11.4328013,18.5534489],[-11.4327332,18.5534008],[-11.432819,18.5532916],[-11.4328871,18.5533396]]},"properties":{"shop":"supermarket"}},
{"type":"Feature","geometry":{"type":"LineString","coordinates":[[-15.9636145,20.1476932],[-15.9627296,20.1480381],[-15.9618293,20.1459444],[-15.9626934,20.1455218],[-15.9636145,20.1476932]]},"properties":{"amenity":"marketplace"}},
{"type":"Feature","geometry":{"type":"MultiPolygon","coordinates":[[[[-15.9801357,18.075988],[-15.9786787,18.0757142],[-15.9783788,18.0777974],[-15.979736,18.0779682],[-15.9801357,18.075988]]]]},"properties":{"addr:city":"نواكشوط","amenity":"marketplace","landuse":"retail","name":"سوق المغربية","name:ar":"سوق المغربية","name:fr":"Marché Marocain"}},
{"type":"Feature","geometry":{"type":"MultiPolygon","coordinates":[[[[-13.0541718,20.5193831],[-13.0534905,20.5189676],[-13.0534262,20.5189284],[-13.053048,20.5195438],[-13.0537937,20.5199181],[-13.0541718,20.5193831]]]]},"properties":{"addr:city":"أطار","amenity":"marketplace","name":"السوق أطار","name:ar":"السوق أطار","name:fr":"Marché d'Atar","shop":"greengrocer"}},
{"type":"Feature","geometry":{"type":"MultiPolygon","coordinates":[[[[-13.0512014,20.5199565],[-13.0506139,20.5196256],[-13.0503041,20.5203728],[-13.050465,20.5202974],[-13.0506474,20.5203728],[-13.0508221,20.5205347],[-13.0512014,20.5199565]]]]},"properties":{"addr:city":"أطار","amenity":"marketplace","landuse":"commercial","name":"سوق","name:ar":"سوق","name:fr":"Marché"}},
{"type":"Feature","geometry":{"type":"MultiPolygon","coordinates":[[[[-13.0542645,20.5190725],[-13.0542534,20.5188911],[-13.0535991,20.5188071],[-13.0534905,20.5189676],[-13.0541718,20.5193831],[-13.0542461,20.5192062],[-13.0542645,20.5190725]]]]},"properties":{"addr:city":"أطار","amenity":"marketplace","name":"مكان السوق","name:ar":"مكان السوق","name:fr":"place du marché"}},
{"type":"Feature","geometry":{"type":"MultiPolygon","coordinates":[[[[-13.0539251,20.5181144],[-13.0538369,20.5180024],[-13.0537117,20.51812],[-13.0537862,20.5182054],[-13.0539251,20.5181144]]]]},"properties":{"building":"yes","shop":"supermarket"}},
{"type":"Feature","geometry":{"type":"MultiPolygon","coordinates":[[[[-13.0534852,20.518441],[-13.0534345,20.5183788],[-13.0533411,20.5184269],[-13.0533956,20.5184992],[-13.0534852,20.518441]]]]},"properties":{"building":"yes","shop":"supermarket"}},
{"type":"Feature","geometry":{"type":"MultiPolygon","coordinates":[[[[-15.9804115,18.0745451],[-15.9799371,18.0744679],[-15.9794709,18.0747503],[-15.9793055,18.0757462],[-15.9801734,18.0758894],[-15.9804115,18.0745451]]]]},"properties":{"addr:city":"نواكشوط","amenity":"marketplace","landuse":"retail","name":"سوق الخضار","name:ar":"سوق الخضار","name:fr":"Marché aux Légumes"}},
{"type":"Feature","geometry":{"type":"MultiPolygon","coordinates":[[[[-15.9895864,18.0712813],[-15.9889178,18.0702914],[-15.9868031,18.0715822],[-15.9874716,18.0725721],[-15.9875105,18.0725509],[-15.9877951,18.0723616],[-15.9879021,18.0722901],[-15.9884078,18.0719913],[-15.9886666,18.0718357],[-15.9889308,18.0716878],[-15.9889519,18.07167],[-15.9892161,18.071506],[-15.9894549,18.0713582],[-15.9895864,18.0712813]]]]},"properties":{"addr:city":"نواكشوط","alt_name":"Marché 6 ème","amenity":"marketplace","landuse":"retail","name":"سوق المينا","name:ar":"سوق المينا","name:fr":"Marché Al Mina"}},
{"type":"Feature","geometry":{"type":"MultiPolygon","coordinates":[[[[-15.9910073,18.073303],[-15.9901553,18.0720941],[-15.9891463,18.0727367],[-15.9899983,18.0739456],[-15.9910073,18.073303]]]]},"properties":{"addr:city":"نواكشوط","amenity":"marketplace","landuse":"retail","name":"سوق سبخة","name:ar":"سوق سبخة","name:fr":"Marché Sebkha"}},
{"type":"Feature","geometry":{"type":"MultiPolygon","coordinates":[[[[-15.980174,18.0873157],[-15.9798778,18.087267],[-15.9798137,18.0875892],[-15.9801087,18.0876071],[-15.980174,18.0873157]]]]},"properties":{"amenity":"marketplace","building":"yes","name:ko":"케피탈시장"}},
{"type":"Feature","geometry":{"type":"MultiPolygon","coordinates":[[[[-15.9751176,18.1022446],[-15.974916,18.1022219],[-15.9748593,18.1025842],[-15.9750374,18.1026151],[-15.9751176,18.1022446]]]]},"properties":{"building":"house","name":"BANA BLANC","shop":"supermarket"}},
{"type":"Feature","geometry":{"type":"MultiPolygon","coordinates":[[[[-15.9706807,18.0488737],[-15.97055,18.0482886],[-15.9702923,18.0480143],[-15.9702,18.0480838],[-15.9704192,18.0489359],[-15.9706807,18.0488737]]]]},"properties":{"amenity":"marketplace","name":"سوق عرفات","name:ar":"سوق عرفات","name:de":"Arafat-Markt","name:en":"Arafat Market","name:fr":"Marché Arafat"}},
{"type":"Feature","geometry":{"type":"MultiPolygon","coordinates":[[[[-15.963159,18.0732674],[-15.9628666,18.0731723],[-15.9628682,18.0733432],[-15.9628403,18.0734948],[-15.9630769,18.0735253],[-15.963159,18.0732674]]]]},"properties":{"alt_name":"Marché Btissam","amenity":"marketplace","building":"yes","name":"Mecca Market"}},
{"type":"Feature","geometry":{"type":"MultiPolygon","coordinates":[[[[-15.9818685,18.0645873],[-15.9817151,18.0643577],[-15.9799878,18.0662753],[-15.98012,18.0664563],[-15.9818685,18.0645873]]]]},"properties":{"addr:city":"نواكشوط","amenity":"marketplace","landuse":"retail","name":"سوق الخشب","name:ar":"سوق الخشب","name:fr":"Marché de Bois"}},
{"type":"Feature","geometry":{"type":"MultiPolygon","coordinates":[[[[-15.9830354,18.0645057],[-15.9825231,18.063787],[-15.9818209,18.0643785],[-15.9822553,18.065011],[-15.9830354,18.0645057]]]]},"properties":{"addr:city":"نواكشوط","amenity":"marketplace","landuse":"retail","name":"Marché d'Ejev"}},
{"type":"Feature","geometry":{"type":"MultiPolygon","coordinates":[[[[-15.9185138,18.0697049],[-15.9178403,18.0696256],[-15.9176798,18.0706325],[-15.9182853,18.0707389],[-15.9185138,18.0697049]]]]},"properties":{"addr:city":"نواكشوط","alt_name":"Grand marché","amenity":"marketplace","barrier":"wall","landuse":"retail","name":"سوق ولد الحسن","name:ar":"سوق ولد الحسن","name:fr":"Marché Ould Hacen"}},
{"type":"Feature","geometry":{"type":"MultiPolygon","coordinates":[[[[-15.9892931,18.0190409],[-15.9890236,18.0189986],[-15.9890442,18.0188802],[-15.9889278,18.0188619],[-15.988847,18.0193282],[-15.988981,18.0193492],[-15.989012,18.0191705],[-15.9892638,18.01921],[-15.9892931,18.0190409]]]]},"properties":{"amenity":"marketplace","building":"yes","name":"Marche Dar Beyda"}},
{"type":"Feature","geometry":{"type":"MultiPolygon","coordinates":[[[[-15.9857751,18.053767],[-15.9856853,18.0536671],[-15.9854613,18.0536629],[-15.9843787,18.0528874],[-15.9831136,18.0535304],[-15.9845986,18.05578],[-15.9848853,18.0562181],[-15.9851187,18.0565169],[-15.9854754,18.0569455],[-15.985591,18.0570384],[-15.9856754,18.0570108],[-15.9852447,18.0560158],[-15.9852667,18.0550684],[-15.9854604,18.0539779],[-15.9857751,18.053767]]]]},"properties":{"addr:city":"نواكشوط","addr:city:ar":"نواكشوط","amenity":"marketplace","landuse":"retail","name":"سوق للماشية","name:ar":"سوق للماشية","name:fr":"Marché du bétail"}},
{"type":"Feature","geometry":{"type":"MultiPolygon","coordinates":[[[[-17.0391713,20.9492256],[-17.0391185,20.9480385],[-17.0374231,20.9481043],[-17.0374336,20.9481818],[-17.0374482,20.9486812],[-17.037476,20.9492915],[-17.0391713,20.9492256]]]]},"properties":{"addr:city":"نواذيبو","amenity":"marketplace","name":"سوق","name:ar":"سوق"}},
{"type":"Feature","geometry":{"type":"MultiPolygon","coordinates":[[[[-17.0347131,20.8510748],[-17.034583,20.8510748],[-17.034583,20.8515172],[-17.0347131,20.8515172],[-17.0347131,20.8510748]]]]},"properties":{"addr:city":"كانصادو","addr:city:fr":"Cansado","building":"yes","shop":"supermarket"}},
{"type":"Feature","geometry":{"type":"MultiPolygon","coordinates":[[[[-15.8007008,16.5095933],[-15.7998914,16.5095347],[-15.7997725,16.5104797],[-15.8006146,16.510573],[-15.8007008,16.5095933]]]]},"properties":{"addr:city":"روصو","amenity":"marketplace","name":"السوق روصو المركزي","name:ar":"السوق روصو المركزي"}},
{"type":"Feature","geometry":{"type":"MultiPolygon","coordinates":[[[[-8.1698963,16.2319402],[-8.1698802,16.2316209],[-8.1698598,16.2315238],[-8.1698051,16.2314354],[-8.1695529,16.2311007],[-8.1694457,16.2310079],[-8.1693491,16.2309667],[-8.1690219,16.2309564],[-8.1687161,16.230977],[-8.1685874,16.2309976],[-8.1684586,16.2310543],[-8.1683889,16.231111],[-8.1683728,16.2311831],[-8.1683835,16.2313273],[-8.168405,16.2315488],[-8.1684425,16.2316981],[-8.1684908,16.2318475],[-8.1685122,16.2319557],[-8.1685122,16.2321308],[-8.1683223,16.232567],[-8.1684189,16.2329304],[-8.1695774,16.2327764],[-8.1698963,16.2319402]]]]},"properties":{"addr:city":"تمبدغة","amenity":"marketplace","landuse":"retail","name":"السوق تمبدغة","name:ar":"السوق تمبدغة","name:en":"Timbedra market","name:fr":"Marché de Timbedra"}},
{"type":"Feature","geometry":{"type":"MultiPolygon","coordinates":[[[[-5.7969751,15.8365022],[-5.7967176,15.835821],[-5.7959188,15.8360728],[-5.796106,15.8366467],[-5.7969751,15.8365022]]]]},"properties":{"amenity":"marketplace","landuse":"retail"}},
{"type":"Feature","geometry":{"type":"MultiPolygon","coordinates":[[[[-5.6944904,16.0364304],[-5.6944041,16.036039],[-5.6941793,16.0353683],[-5.6935141,16.0353992],[-5.6932673,16.0354198],[-5.6928597,16.0356261],[-5.6929133,16.0358735],[-5.6926982,16.0360184],[-5.6927791,16.0360993],[-5.6928591,16.0361834],[-5.693181,16.0367299],[-5.6944904,16.0364304]]]]},"properties":{"amenity":"marketplace","landuse":"retail"}},
{"type":"Feature","geometry":{"type":"MultiPolygon","coordinates":[[[[-14.3867685,19.7469837],[-14.3853255,19.746701],[-14.3851125,19.7476964],[-14.3865386,19.7480395],[-14.386654,19.7474386],[-14.3867685,19.7469837]]]]},"properties":{"addr:city":"أكجوجت","amenity":"marketplace","landuse":"retail","name":"السوق","name:ar":"السوق","name:en":"Souk","name:fr":"Souk"}},
{"type":"Feature","geometry":{"type":"MultiPolygon","coordinates":[[[[-16.0263185,18.1030925],[-16.0261834,18.1030892],[-16.0257864,18.1030799],[-16.0257834,18.1031928],[-16.0258644,18.1031947],[-16.0258566,18.1034918],[-16.0257772,18.1034899],[-16.0257745,18.1035943],[-16.026292,18.1036066],[-16.0262936,18.1035455],[-16.0261499,18.1035421],[-16.0261593,18.1031855],[-16.0263159,18.1031892],[-16.0263185,18.1030925]]]]},"properties":{"amenity":"marketplace","building":"yes","name":"Fish Market"}},
{"type":"Feature","geometry":{"type":"MultiPolygon","coordinates":[[[[-11.4003016,16.6214813],[-11.4000156,16.620952],[-11.3998257,16.6210462],[-11.4001118,16.6215754],[-11.4003016,16.6214813]]]]},"properties":{"addr:city":"كيفة","building":"yes","name":"سوق ولد سني","name:ar":"سوق ولد سني","shop":"convenience"}},
{"type":"Feature","geometry":{"type":"MultiPolygon","coordinates":[[[[-9.4129846,15.8182449],[-9.4128988,15.8177288],[-9.4129176,15.8174759],[-9.4124482,15.8174501],[-9.4124267,15.8176411],[-9.4114692,15.817703],[-9.4115925,15.818663],[-9.4122322,15.8184238],[-9.4129846,15.8182449]]]]},"properties":{"addr:city":"كوباني","amenity":"marketplace","landuse":"retail","name":"السوق كوباني","name:ar":"السوق كوباني","name:en":"Kobenni market","name:fr":"Marché de Kobenni"}},
{"type":"Feature","geometry":{"type":"MultiPolygon","coordinates":[[[[-9.4848757,15.6938485],[-9.4847512,15.6935469],[-9.4847469,15.6933165],[-9.4844197,15.6932907],[-9.4844787,15.6939363],[-9.4848757,15.6938485]]]]},"properties":{"addr:city":"كرفي","amenity":"marketplace","landuse":"retail","name":"سوق كرفي","name:ar":"سوق كرفي","name:en":"Kerfi market","name:fr":"Marché de Kerfi"}},
{"type":"Feature","geometry":{"type":"MultiPolygon","coordinates":[[[[-9.5115797,16.0699084],[-9.5115464,16.0697674],[-9.5114456,16.0697692],[-9.5114122,16.0696411],[-9.510177,16.0697306],[-9.510193,16.0704626],[-9.5108448,16.0704857],[-9.5109402,16.0704736],[-9.5110272,16.0704471],[-9.5112203,16.0702332],[-9.5112606,16.0700966],[-9.5114149,16.0701025],[-9.5114873,16.0699478],[-9.5115797,16.0699084]]]]},"properties":{"amenity":"marketplace","landuse":"retail"}},
{"type":"Feature","geometry":{"type":"MultiPolygon","coordinates":[[[[-6.995207,16.2775962],[-6.9948205,16.2775174],[-6.9946112,16.2769098],[-6.994402,16.2766935],[-6.9943269,16.2765854],[-6.9942679,16.2763743],[-6.9916718,16.2772268],[-6.9916405,16.2775934],[-6.9917344,16.2776256],[-6.991792,16.2777685],[-6.9920353,16.2778434],[-6.9923969,16.2777814],[-6.9927528,16.2775498],[-6.9931873,16.2787059],[-6.9949009,16.2781508],[-6.995196,16.2781148],[-6.995207,16.2775962]]]]},"properties":{"addr:city":"آمرج","amenity":"marketplace","landuse":"retail","name":"السوق آمرج","name:ar":"السوق آمرج","name:fr":"Marché d'Amourj"}},
{"type":"Feature","geometry":{"type":"MultiPolygon","coordinates":[[[[-8.6699948,15.7295508],[-8.6698875,15.7290861],[-8.669453,15.7290138],[-8.6689058,15.7290318],[-8.6685088,15.7288873],[-8.6683398,15.7292487],[-8.6676425,15.7291351],[-8.6676156,15.7289905],[-8.6668324,15.7288098],[-8.6667681,15.7291119],[-8.6661297,15.7291687],[-8.6661029,15.7290912],[-8.665891,15.7291093],[-8.6658454,15.7289544],[-8.6653545,15.7290912],[-8.6653653,15.7293804],[-8.6658964,15.729352],[-8.6659339,15.7297031],[-8.6657917,15.7297547],[-8.6657837,15.730062],[-8.6669236,15.7301343],[-8.666921,15.7303718],[-8.6669961,15.7303924],[-8.6674976,15.7305706],[-8.6674708,15.73071],[-8.6675459,15.7307332],[-8.6682572,15.7307934],[-8.6685947,15.7308313],[-8.6686483,15.7303485],[-8.6690721,15.7303331],[-8.6690506,15.7302014],[-8.6692437,15.7301782],[-8.6692572,15.7297134],[-8.6699948,15.7295508]]]]},"properties":{"amenity":"marketplace"}},
{"type":"Feature","geometry":{"type":"MultiPolygon","coordinates":[[[[-14.8273412,16.7547827],[-14.8264346,16.7546029],[-14.8264614,16.7544385],[-14.8249594,16.7541663],[-14.8249392,16.7542955],[-14.8246442,16.7543263],[-14.8246871,16.754542],[-14.8248427,16.7545575],[-14.8248306,16.7546081],[-14.8270475,16.75503],[-14.827144,16.754917],[-14.827321,16.7549376],[-14.8273412,16.7547827]]]]},"properties":{"amenity":"marketplace","landuse":"retail"}},
{"type":"Feature","geometry":{"type":"MultiPolygon","coordinates":[[[[-12.5838686,16.0199194],[-12.5837774,16.0194399],[-12.5836084,16.0194656],[-12.5835816,16.0193702],[-12.5835494,16.0193316],[-12.5831632,16.0194605],[-12.5825194,16.0197234],[-12.5819937,16.0199787],[-12.5821332,16.0203628],[-12.5824148,16.0212161],[-12.5831927,16.0209454],[-12.5831497,16.020832],[-12.583713,16.0206258],[-12.5834904,16.020084399999999],[-12.5838686,16.0199194]]]]},"properties":{"addr:city":"امبوت","amenity":"marketplace","landuse":"retail","name":"السوق امبوت","name:ar":"السوق امبوت","name:fr":"Marché de Mbout"}},
{"type":"Feature","geometry":{"type":"MultiPolygon","coordinates":[[[[-11.7112982,15.5436241],[-11.7096125,15.5432807],[-11.7092812,15.5448593],[-11.7106585,15.545105],[-11.7107296,15.5446732],[-11.7109053,15.5447019],[-11.7109911,15.5444487],[-11.7112647,15.5444745],[-11.7112218,15.5439525],[-11.7112982,15.5436241]]]]},"properties":{"addr:city":"ولد يينكي","amenity":"marketplace","landuse":"retail"}},
{"type":"Feature","geometry":{"type":"MultiPolygon","coordinates":[[[[-11.5209302,15.9372828],[-11.5206083,15.9364781],[-11.5205815,15.9362821],[-11.5198895,15.9365297],[-11.5195086,15.9355187],[-11.5184196,15.9359314],[-11.5183231,15.9357508],[-11.5177821,15.9363154],[-11.5183338,15.9377109],[-11.5188764,15.9375688],[-11.5190588,15.9380124],[-11.5193316,15.9378657],[-11.5209302,15.9372828]]]]},"properties":{"addr:city":"كنكوصه","amenity":"marketplace","landuse":"retail","name":"السوق كنكوصه","name:ar":"السوق كنكوصه","name:fr":"Marché de Kankossa"}},
{"type":"Feature","geometry":{"type":"MultiPolygon","coordinates":[[[[-11.3990812,16.6228572],[-11.3985869,16.6218144],[-11.3981617,16.6220311],[-11.3980329,16.6220919],[-11.3974958,16.6223488],[-11.3977567,16.6228318],[-11.3978039,16.6229092],[-11.3978131,16.62293],[-11.3980389,16.6233486],[-11.3990812,16.6228572]]]]},"properties":{"addr:city":"كيفة","amenity":"marketplace","name":"السوق الجديدة","name:ar":"السوق الجديدة","name:fr":"Marché de Djadida"}},
{"type":"Feature","geometry":{"type":"MultiPolygon","coordinates":[[[[-13.1429771,16.21613],[-13.1429307,16.2159719],[-13.1428024,16.2159986],[-13.142848,16.2161584],[-13.1429771,16.21613]]]]},"properties":{"addr:city":"القصيبة","building":"yes","name":"سوق القصيبة كوركول","name:ar":"سوق القصيبة كوركول","shop":"convenience"}},
{"type":"Feature","geometry":{"type":"MultiPolygon","coordinates":[[[[-13.1579666,16.2201248],[-13.1574087,16.2200486],[-13.1573626,16.2203239],[-13.1579206,16.2203964],[-13.1579666,16.2201248]]]]},"properties":{"addr:city":"القصيبة","amenity":"marketplace","building":"yes","name":"السوق المركزي القصيبة","name:ar":"السوق المركزي القصيبة","name:en":"El Kseïba central market","name:fr":"Marché central El Kseïba"}},
{"type":"Feature","geometry":{"type":"MultiPolygon","coordinates":[[[[-14.3874731,19.744159],[-14.3873105,19.744093],[-14.387175299999999,19.744424],[-14.3873349,19.7444861],[-14.3874731,19.744159]]]]},"properties":{"addr:city":"أكجوجت","building":"yes","name":"سوبرماركت مجمع الفاضل أكجوجت","name:ar":"سوبرماركت مجمع الفاضل أكجوجت","shop":"supermarket"}},
{"type":"Feature","geometry":{"type":"MultiPolygon","coordinates":[[[[-15.8066514,16.5103437],[-15.8062633,16.5103051],[-15.8062288,16.5106882],[-15.8066111,16.5107199],[-15.8066514,16.5103437]]]]},"properties":{"addr:city":"روصو","alt_name:ar":"مجمع النصر التجاري - روصو","amenity":"marketplace","name":"مجمع النصر التجاري روصو","name:ar":"مجمع النصر التجاري روصو"}},
{"type":"Feature","geometry":{"type":"MultiPolygon","coordinates":[[[[-12.9010847,15.338013],[-12.9009774,15.3380052],[-12.9009587,15.3380337],[-12.9009587,15.3381113],[-12.901074,15.338119],[-12.9010847,15.338013]]]]},"properties":{"amenity":"marketplace","name":"marché Bédinki"}},
{"type":"Feature","geometry":{"type":"MultiPolygon","coordinates":[[[[-12.9027665,15.3406048],[-12.9025171,15.3405117],[-12.9024688,15.340641],[-12.9024554,15.3406979],[-12.9027129,15.3407781],[-12.9027665,15.3406048]]]]},"properties":{"amenity":"marketplace","name":"marché Sithiane"}},
{"type":"Feature","geometry":{"type":"MultiPolygon","coordinates":[[[[-5.7971374,15.8359934],[-5.7970542,15.8357674],[-5.7969501,15.835812],[-5.7969173,15.8357228],[-5.7966853,15.8357971],[-5.796721,15.8358923],[-5.796608,15.8359131],[-5.7966943,15.8361451],[-5.7968013,15.8361094],[-5.7968311,15.8361868],[-5.7970542,15.8361184],[-5.7970244,15.8360202],[-5.7971374,15.8359934]]]]},"properties":{"amenity":"marketplace","name":"Projet Marcol","operational_status":"operational","operator":"LWF","social_facility:for":"refugee","wall":"no"}},
{"type":"Feature","geometry":{"type":"MultiPolygon","coordinates":[[[[-14.2748183,16.5837632],[-14.2742765,16.583357],[-14.2745662,16.5829663],[-14.2742175,16.5828326],[-14.2736757,16.58274],[-14.2731339,16.5845086],[-14.2741638,16.5848788],[-14.2746306,16.5850485],[-14.2745984,16.5848634],[-14.2745018,16.5842978],[-14.2748183,16.5837632]]]]},"properties":{"addr:city":"بوغي","addr:city:ar":"بوغي","amenity":"marketplace","name":"سوق بوغي","name:ar":"سوق بوغي","name:en":"Bogué Market","name:fr":"Marché de Boghé"}},
{"type":"Feature","geometry":{"type":"MultiPolygon","coordinates":[[[[-15.9271771,18.0694484],[-15.9271301,18.0694484],[-15.9271301,18.0696486],[-15.9271771,18.0696486],[-15.9271771,18.0694484]]]]},"properties":{"amenity":"marketplace"}},
{"type":"Feature","geometry":{"type":"MultiPolygon","coordinates":[[[[-15.9269679,18.0694358],[-15.9269538,18.0694358],[-15.9269538,18.069435],[-15.9269115,18.069435],[-15.9269115,18.0694522],[-15.926882,18.0694522],[-15.926882,18.069646],[-15.9269679,18.069646],[-15.9269679,18.0694358]]]]},"properties":{"amenity":"marketplace"}},
{"type":"Feature","geometry":{"type":"MultiPolygon","coordinates":[[[[-15.92722,18.0693299],[-15.9267962,18.0693299],[-15.9267962,18.0697531],[-15.9269927,18.0697531],[-15.9269927,18.0696537],[-15.9270316,18.0696537],[-15.9270316,18.0697531],[-15.92722,18.0697531],[-15.92722,18.0693299]]]]},"properties":{"amenity":"marketplace"}},
{"type":"Feature","geometry":{"type":"MultiPolygon","coordinates":[[[[-15.9994104,18.1077142],[-15.9993685,18.1075161],[-15.9990833,18.1075705],[-15.9991252,18.1077686],[-15.9994104,18.1077142]]]]},"properties":{"building":"yes","name":"Big Market","shop":"supermarket"}},
{"type":"Feature","geometry":{"type":"MultiPolygon","coordinates":[[[[-15.9765324,18.0693783],[-15.9760281,18.068978],[-15.9758002,18.0691718],[-15.976342,18.0695644],[-15.9765324,18.0693783]]]]},"properties":{"amenity":"marketplace","name":"سوق الفحم","name:fr":"Marché du Charbon"}},
{"type":"Feature","geometry":{"type":"MultiPolygon","coordinates":[[[[-15.9673928,18.1012877],[-15.967091,18.1012406],[-15.9670629,18.1014229],[-15.96737,18.1014636],[-15.9673928,18.1012877]]]]},"properties":{"name":"Windy","name:fr":"Windy","shop":"supermarket"}},
{"type":"Feature","geometry":{"type":"MultiPolygon","coordinates":[[[[-12.8746033,15.3353952],[-12.8745228,15.3349064],[-12.8742304,15.3348805],[-12.8745174,15.335403],[-12.8746033,15.3353952]]]]},"properties":{"amenity":"marketplace","name":"marché de wali"}},
{"type":"Feature","geometry":{"type":"MultiPolygon","coordinates":[[[[-12.8739913,15.3346587],[-12.8739468,15.3345758],[-12.8738818,15.3346141],[-12.87393,15.3346839],[-12.8739913,15.3346587]]]]},"properties":{"name":"epicerie Ba et frére","shop":"convenience"}},
{"type":"Feature","geometry":{"type":"MultiPolygon","coordinates":[[[[-15.9681446,18.05807],[-15.9679405,18.057956],[-15.9676528,18.0578492],[-15.9676005,18.0580803],[-15.9680904,18.0582404],[-15.9681446,18.05807]]]]},"properties":{"amenity":"marketplace"}},
{"type":"Feature","geometry":{"type":"MultiPolygon","coordinates":[[[[-15.9701301,18.0589353],[-15.9696027,18.0587791],[-15.9695171,18.0590057],[-15.9696258,18.0590508],[-15.969642,18.0589914],[-15.9697091,18.0590057],[-15.9696917,18.0590618],[-15.9700341,18.0591552],[-15.9700781,18.0590651],[-15.9699948,18.0590321],[-15.9700145,18.0589518],[-15.9701081,18.058987],[-15.9701301,18.0589353]]]]},"properties":{"amenity":"marketplace"}},
{"type":"Feature","geometry":{"type":"MultiPolygon","coordinates":[[[[-15.9604874,18.0625105],[-15.9599989,18.0623618],[-15.9598491,18.0628552],[-15.9603463,18.0629894],[-15.9604874,18.0625105]]]]},"properties":{"amenity":"marketplace"}},
{"type":"Feature","geometry":{"type":"MultiPolygon","coordinates":[[[[-15.9512029,18.1113184],[-15.9510273,18.1112218],[-15.9508199,18.1111253],[-15.9507575,18.1113239],[-15.9509098,18.1114328],[-15.9509852,18.1113197],[-15.9511492,18.1114025],[-15.9512029,18.1113184]]]]},"properties":{"building":"yes","shop":"supermarket"}},
{"type":"Feature","geometry":{"type":"MultiPolygon","coordinates":[[[[-15.9493678,18.1137373],[-15.9491453,18.1135653],[-15.9490914,18.1136282],[-15.949314,18.1138002],[-15.9493678,18.1137373]]]]},"properties":{"building":"yes","shop":"supermarket"}},
{"type":"Feature","geometry":{"type":"MultiPolygon","coordinates":[[[[-15.9386844,18.0891643],[-15.9386295,18.0891594],[-15.9386187,18.0892685],[-15.9386736,18.0892734],[-15.9386844,18.0891643]]]]},"properties":{"building":"yes","shop":"butcher"}},
{"type":"Feature","geometry":{"type":"MultiPolygon","coordinates":[[[[-15.9386431,18.0897991],[-15.9385505,18.0897857],[-15.9385319,18.0899021],[-15.9386245,18.0899155],[-15.9386431,18.0897991]]]]},"properties":{"building":"yes","shop":"convenience"}},
{"type":"Feature","geometry":{"type":"MultiPolygon","coordinates":[[[[-15.9878277,18.0682938],[-15.9877921,18.0682128],[-15.9876964,18.0682572],[-15.9877408,18.0683215],[-15.9878277,18.0682938]]]]},"properties":{"building":"yes","shop":"supermarket"}},
{"type":"Feature","geometry":{"type":"MultiPolygon","coordinates":[[[[-15.9384663,18.0894279],[-15.9384549,18.0894076],[-15.9383861,18.0893948],[-15.9383471,18.0895836],[-15.9384309,18.0895992],[-15.9384663,18.0894279]]]]},"properties":{"building":"yes","shop":"butcher"}},
{"type":"Feature","geometry":{"type":"MultiPolygon","coordinates":[[[[-11.4328871,18.5533396],[-11.432819,18.5532916],[-11.4327332,18.5534008],[-11.4328013,18.5534489],[-11.4328871,18.5533396]]]]},"properties":{"shop":"supermarket"}},
{"type":"Feature","geometry":{"type":"MultiPolygon","coordinates":[[[[-15.9636145,20.1476932],[-15.9626934,20.1455218],[-15.9618293,20.1459444],[-15.9627296,20.1480381],[-15.9636145,20.1476932]]]]},"properties":{"amenity":"marketplace"}}
]}
