{"type":"FeatureCollection","features":[
{"type":"Feature","geometry":{"type":"Point","coordinates":[33.6623748,-12.7436069]},"properties":{"amenity":"marketplace","name":"Ngwata ADMARC","operator":"Govt"}},
{"type":"Feature","geometry":{"type":"Point","coordinates":[33.7654171,-13.9825799]},"properties":{"amenity":"marketplace","name":"Auction Holdings Commodity Exchange (AHCX)"}},
{"type":"Feature","geometry":{"type":"Point","coordinates":[33.7688615,-13.9855649]},"properties":{"addr:city":"Lilongwe","addr:postcode":"P.Bag 730","brand":"Shoprite","brand:wikidata":"Q1857639","name":"Shoprite","shop":"supermarket"}},
{"type":"Feature","geometry":{"type":"Point","coordinates":[33.786006,-13.9650727]},"properties":{"name":"Foodworths","shop":"supermarket"}},
{"type":"Feature","geometry":{"type":"Point","coordinates":[35.034291,-15.80269]},"properties":{"addr:city":"Blantyre","addr:street":"Masauko Chipembere Highway","name":"Shoprite","operator":"Shoprite","shop":"supermarket"}},
{"type":"Feature","geometry":{"type":"Point","coordinates":[35.0115364,-15.7865789]},"properties":{"addr:city":"Blantyre","name":"Metro Peoples","operator":"Metro","shop":"supermarket"}},
{"type":"Feature","geometry":{"type":"Point","coordinates":[33.7684773,-13.9869057]},"properties":{"addr:city":"Lilongwe","addr:country":"MW","addr:housename":"NICO CENTRE","addr:postcode":"P.O Box 30421, Capital City, Lilongwe3","addr:street":"Kamuzu Procession Road","name":"Nico Centre","shop":"supermarket","source":"Malawi Telecommunications Limited Telephone Directory","website":"https://www.nicomw.com/"}},
{"type":"Feature","geometry":{"type":"Point","coordinates":[34.2828837,-12.9270159]},"properties":{"name":"People's","operator":"PTC","shop":"supermarket"}},
{"type":"Feature","geometry":{"type":"Point","coordinates":[34.2833128,-12.923703100000001]},"properties":{"shop":"bakery"}},
{"type":"Feature","geometry":{"type":"Point","coordinates":[34.2985339,-11.6082248]},"properties":{"operator":"PTC","shop":"supermarket"}},
{"type":"Feature","geometry":{"type":"Point","coordinates":[35.3210394,-15.3871089]},"properties":{"name":"Shoprite Usave","shop":"supermarket"}},
{"type":"Feature","geometry":{"type":"Point","coordinates":[35.1677731,-16.4126521]},"properties":{"name":"Nafafa trading Centre","shop":"convenience"}},
{"type":"Feature","geometry":{"type":"Point","coordinates":[35.1785395,-16.4303133]},"properties":{"name":"Mlambula Trading Centre","shop":"convenience"}},
{"type":"Feature","geometry":{"type":"Point","coordinates":[35.1439049,-16.3892292]},"properties":{"name":"Chinyanje Trading Centre","shop":"convenience"}},
{"type":"Feature","geometry":{"type":"Point","coordinates":[34.3028273,-14.3708646]},"properties":{"operator":"Dedza Pottery","shop":"convenience"}},
{"type":"Feature","geometry":{"type":"Point","coordinates":[34.394245,-14.3957388]},"properties":{"name":"Local Market","shop":"convenience"}},
{"type":"Feature","geometry":{"type":"Point","coordinates":[35.2276499,-15.0673997]},"properties":{"name":"Mini Market","shop":"supermarket"}},
{"type":"Feature","geometry":{"type":"Point","coordinates":[35.2287872,-15.0663015]},"properties":{"name":"Local Market","shop":"convenience"}},
{"type":"Feature","geometry":{"type":"Point","coordinates":[35.2400409,-15.4805791]},"properties":{"name":"PA Bakery","shop":"convenience"}},
{"type":"Feature","geometry":{"type":"Point","coordinates":[34.1107492,-12.5088059]},"properties":{"name":"Metro","shop":"supermarket"}},
{"type":"Feature","geometry":{"type":"Point","coordinates":[34.6568087,-15.3976787]},"properties":{"name":"Super Saver","shop":"convenience"}},
{"type":"Feature","geometry":{"type":"Point","coordinates":[35.061288,-15.8151988]},"properties":{"addr:city":"Limbe","addr:street":"Churchill Road","name":"Peoples","shop":"supermarket"}},
{"type":"Feature","geometry":{"type":"Point","coordinates":[35.0612936,-15.81493]},"properties":{"addr:city":"Limbe","addr:street":"Churchill Road","name":"Shoprite U-Save","shop":"supermarket"}},
{"type":"Feature","geometry":{"type":"Point","coordinates":[35.3189218,-15.3847904]},"properties":{"name":"Metro","shop":"supermarket"}},
{"type":"Feature","geometry":{"type":"Point","coordinates":[35.3208677,-15.3869434]},"properties":{"name":"People","shop":"supermarket"}},
{"type":"Feature","geometry":{"type":"Point","coordinates":[35.1379632,-16.0646948]},"properties":{"name":"Blue Ribbon Bakery","shop":"bakery"}},
{"type":"Feature","geometry":{"type":"Point","coordinates":[35.1456021,-16.0664681]},"properties":{"name":"People's Market","shop":"supermarket"}},
{"type":"Feature","geometry":{"type":"Point","coordinates":[33.7702444,-13.9864221]},"properties":{"addr:city":"Lilongwe","addr:postcode":"P.O Box 296","name":"Chipiku Plus","opening_hours":"Mo-Fr 8:00-19:00, Sa 8:00-17:00, Su 9:00-13:00","shop":"supermarket","wheelchair":"yes"}},
{"type":"Feature","geometry":{"type":"Point","coordinates":[33.7661567,-13.9817581]},"properties":{"name":"Bowers Supermarket","opening_hours":"Mo-Fr 08:30-17:00; Sa 08:30-13:00","shop":"convenience"}},
{"type":"Feature","geometry":{"type":"Point","coordinates":[33.773739,-13.9744331]},"properties":{"name":"Chipiku Superstore","name:ja":"チピク","opening_hours":"Mo-Fr 08:00-19:00; Sa 08:00-17:00; Su 09:00-13:00","shop":"supermarket"}},
{"type":"Feature","geometry":{"type":"Point","coordinates":[33.8765615,-13.8511265]},"properties":{"amenity":"marketplace","name":"Local Market"}},
{"type":"Feature","geometry":{"type":"Point","coordinates":[33.8927864,-13.8786393]},"properties":{"amenity":"marketplace","name":"Local Market"}},
{"type":"Feature","geometry":{"type":"Point","coordinates":[34.0236605,-9.4954209]},"properties":{"amenity":"marketplace"}},
{"type":"Feature","geometry":{"type":"Point","coordinates":[33.7557298,-13.9727745]},"properties":{"name":"City Supermarket","shop":"supermarket"}},
{"type":"Feature","geometry":{"type":"Point","coordinates":[33.7570616,-13.975835]},"properties":{"name":"Food Zone","shop":"supermarket"}},
{"type":"Feature","geometry":{"type":"Point","coordinates":[33.7572878,-13.9761945]},"properties":{"name":"Nyama World","shop":"butcher"}},
{"type":"Feature","geometry":{"type":"Point","coordinates":[33.7588377,-13.975632]},"properties":{"brand":"7-Eleven","brand:wikidata":"Q259340","brand:wikipedia":"en:7-Eleven","name":"7-Eleven","shop":"convenience"}},
{"type":"Feature","geometry":{"type":"Point","coordinates":[33.7722085,-13.9857029]},"properties":{"amenity":"marketplace","name":"Vegetable Market","name:ja":"リズルマーケット"}},
{"type":"Feature","geometry":{"type":"Point","coordinates":[35.0555806,-15.8176311]},"properties":{"amenity":"marketplace","name":"Limbe Market"}},
{"type":"Feature","geometry":{"type":"Point","coordinates":[35.492125,-16.0136257]},"properties":{"name":"Peoples","shop":"supermarket"}},
{"type":"Feature","geometry":{"type":"Point","coordinates":[33.797633,-13.9724187]},"properties":{"shop":"convenience"}},
{"type":"Feature","geometry":{"type":"Point","coordinates":[35.0208469,-15.6539225]},"properties":{"name":"Metro","shop":"supermarket"}},
{"type":"Feature","geometry":{"type":"Point","coordinates":[35.0264459,-15.8188116]},"properties":{"shop":"supermarket"}},
{"type":"Feature","geometry":{"type":"Point","coordinates":[35.0101861,-15.7876823]},"properties":{"name":"SANA","shop":"supermarket"}},
{"type":"Feature","geometry":{"type":"Point","coordinates":[35.0070253,-15.787931]},"properties":{"name":"Peoples","shop":"supermarket"}},
{"type":"Feature","geometry":{"type":"Point","coordinates":[33.594195,-11.8982522]},"properties":{"name":"Peoples","shop":"supermarket"}},
{"type":"Feature","geometry":{"type":"Point","coordinates":[35.3203463,-15.3871494]},"properties":{"name":"Super Halaal Butchery","shop":"butcher"}},
{"type":"Feature","geometry":{"type":"Point","coordinates":[34.8627299,-15.4431313]},"properties":{"name":"Clean Foods","shop":"convenience"}},
{"type":"Feature","geometry":{"type":"Point","coordinates":[34.8716054,-16.266517]},"properties":{"amenity":"restaurant","name":"Arrows restaurant","shop":"convenience"}},
{"type":"Feature","geometry":{"type":"Point","coordinates":[34.8160998,-16.02201]},"properties":{"name":"God Is Good Shop","shop":"convenience"}},
{"type":"Feature","geometry":{"type":"Point","coordinates":[35.0113552,-16.5438799]},"properties":{"amenity":"marketplace"}},
{"type":"Feature","geometry":{"type":"Point","coordinates":[34.8680688,-16.2599774]},"properties":{"name":"Chipiku Store","shop":"supermarket"}},
{"type":"Feature","geometry":{"type":"Point","coordinates":[35.0246117,-15.8004127]},"properties":{"addr:city":"Blantyre","addr:street":"Masauko Chipembere Highway","name":"Chipiku Plus","payment:cash":"yes","payment:credit_cards":"yes","shop":"supermarket"}},
{"type":"Feature","geometry":{"type":"Point","coordinates":[35.0264584,-15.6945719]},"properties":{"shop":"supermarket"}},
{"type":"Feature","geometry":{"type":"Point","coordinates":[34.8708705,-16.2651829]},"properties":{"name":"Office Kwanjo Wholesalers","shop":"convenience"}},
{"type":"Feature","geometry":{"type":"Point","coordinates":[34.870631,-16.264629]},"properties":{"name":"Donna's Eggs","shop":"convenience"}},
{"type":"Feature","geometry":{"type":"Point","coordinates":[34.8705055,-16.2643943]},"properties":{"name":"Ngamwani Shopping Centre","shop":"convenience"}},
{"type":"Feature","geometry":{"type":"Point","coordinates":[34.8712627,-16.2660009]},"properties":{"name":"James Medi","shop":"convenience"}},
{"type":"Feature","geometry":{"type":"Point","coordinates":[34.5720071,-16.0798501]},"properties":{"name":"private","shop":"convenience","source":"survey","source:date":"2014"}},
{"type":"Feature","geometry":{"type":"Point","coordinates":[33.7684302,-13.9544308]},"properties":{"name":"Miracle Superrete","operator":"John Busco","shop":"supermarket"}},
{"type":"Feature","geometry":{"type":"Point","coordinates":[35.1310952,-16.5967725]},"properties":{"name":"Kadamera","opening_hours":"sunrise-sunset","shop":"convenience","source":"survey","source:date":"2014"}},
{"type":"Feature","geometry":{"type":"Point","coordinates":[35.1079841,-16.5754469]},"properties":{"amenity":"marketplace","marketplace:type":"retail","name":"Mozaland Market","operator:type":"community","source":"survey"}},
{"type":"Feature","geometry":{"type":"Point","coordinates":[35.1180186,-16.5704076]},"properties":{"shop":"convenience","source":"Survey; Dickson & Triphonia","source:date":"2014"}},
{"type":"Feature","geometry":{"type":"Point","coordinates":[35.11809,-16.5707355]},"properties":{"shop":"convenience","source":"Survey; Dickson & Triphonia","source:date":"2014"}},
{"type":"Feature","geometry":{"type":"Point","coordinates":[35.1131966,-16.5710931]},"properties":{"note":"glocery","shop":"convenience","source":"Survey; Dickson & Triphonia","source:date":"2014"}},
{"type":"Feature","geometry":{"type":"Point","coordinates":[35.1165178,-16.5714312]},"properties":{"shop":"convenience","source":"Survey; Dickson & Triphonia","source:date":"2014"}},
{"type":"Feature","geometry":{"type":"Point","coordinates":[35.130192,-16.5953555]},"properties":{"opening_hours":"06:00-07:00","shop":"convenience","source":"survey","source:date":"2014"}},
{"type":"Feature","geometry":{"type":"Point","coordinates":[35.1135922,-16.5713935]},"properties":{"shop":"convenience","source":"Survey; Dickson & Triphonia","source:date":"2014"}},
{"type":"Feature","geometry":{"type":"Point","coordinates":[35.094301,-16.5350732]},"properties":{"note":"Mini shop","shop":"convenience","source":"survey","source:date":"2014"}},
{"type":"Feature","geometry":{"type":"Point","coordinates":[35.1031362,-16.547726]},"properties":{"shop":"convenience"}},
{"type":"Feature","geometry":{"type":"Point","coordinates":[35.0950807,-16.5402929]},"properties":{"note":"Mini shop","shop":"convenience","source":"survey","source:date":"2014"}},
{"type":"Feature","geometry":{"type":"Point","coordinates":[35.0935763,-16.540589]},"properties":{"shop":"convenience","source":"survey","source:date":"2014"}},
{"type":"Feature","geometry":{"type":"Point","coordinates":[35.1765426,-16.5247553]},"properties":{"amenity":"marketplace","name":"Makhanga Market","source":"survey"}},
{"type":"Feature","geometry":{"type":"Point","coordinates":[35.1765112,-16.5243974]},"properties":{"name":"Shop","opening_hours":"06:00-07:00","shop":"convenience","source":"survey"}},
{"type":"Feature","geometry":{"type":"Point","coordinates":[33.7763961,-13.9797274]},"properties":{"name":"Sana Supermarket","name:ja":"メガサナ","shop":"supermarket"}},
{"type":"Feature","geometry":{"type":"Point","coordinates":[35.1450536,-16.4819344]},"properties":{"shop":"convenience"}},
{"type":"Feature","geometry":{"type":"Point","coordinates":[34.7999982,-16.0396129]},"properties":{"name":"Aunt Beat Mini Shop","shop":"convenience"}},
{"type":"Feature","geometry":{"type":"Point","coordinates":[34.7998509,-16.0398669]},"properties":{"name":"Edelpha Boutique","shop":"convenience"}},
{"type":"Feature","geometry":{"type":"Point","coordinates":[34.8718067,-16.2667929]},"properties":{"name":"A&A Food Products","shop":"butcher"}},
{"type":"Feature","geometry":{"type":"Point","coordinates":[34.8713784,-16.2660877]},"properties":{"name":"Chisangalaro Butchery","shop":"butcher"}},
{"type":"Feature","geometry":{"type":"Point","coordinates":[34.7998114,-16.0397593]},"properties":{"name":"Pamthuzi Mini Shop","shop":"convenience"}},
{"type":"Feature","geometry":{"type":"Point","coordinates":[34.799884,-16.0396961]},"properties":{"name":"Exodus Variety Shop","shop":"convenience"}},
{"type":"Feature","geometry":{"type":"Point","coordinates":[34.8714254,-16.2661621]},"properties":{"name":"Ngamwani Shopping Centre","shop":"convenience"}},
{"type":"Feature","geometry":{"type":"Point","coordinates":[33.809632,-13.9546946]},"properties":{"name":"PTC","operator":"People's","shop":"supermarket"}},
{"type":"Feature","geometry":{"type":"Point","coordinates":[33.8001058,-13.9592825]},"properties":{"ele":"1","name":"Golden Peacock","operator":"Golden Peacock","shop":"supermarket","wheelchair":"yes"}},
{"type":"Feature","geometry":{"type":"Point","coordinates":[35.1499536,-16.4191516]},"properties":{"opening_hours":"sunrise-sunset","shop":"convenience"}},
{"type":"Feature","geometry":{"type":"Point","coordinates":[34.8785113,-16.2763257]},"properties":{"shop":"convenience","source":"survey"}},
{"type":"Feature","geometry":{"type":"Point","coordinates":[34.8785435,-16.276403]},"properties":{"shop":"convenience","source":"survey"}},
{"type":"Feature","geometry":{"type":"Point","coordinates":[34.8841766,-14.9414185]},"properties":{"name":"Chikondi Stopover","shop":"supermarket"}},
{"type":"Feature","geometry":{"type":"Point","coordinates":[34.6275615,-14.8079287]},"properties":{"name":"Chipiku","shop":"supermarket"}},
{"type":"Feature","geometry":{"type":"Point","coordinates":[33.7775823,-13.9903777]},"properties":{"name":"Peoples","shop":"supermarket"}},
{"type":"Feature","geometry":{"type":"Point","coordinates":[35.3162701,-15.3863795]},"properties":{"name":"Wonder Bakery","shop":"bakery"}},
{"type":"Feature","geometry":{"type":"Point","coordinates":[33.4808024,-13.0431677]},"properties":{"name":"Peoples","shop":"supermarket"}},
{"type":"Feature","geometry":{"type":"Point","coordinates":[34.0154577,-11.4575965]},"properties":{"name":"Kukoma","shop":"convenience"}},
{"type":"Feature","geometry":{"type":"Point","coordinates":[34.0162063,-11.4584318]},"properties":{"name":"Jian Fen Supermarket","shop":"supermarket"}},
{"type":"Feature","geometry":{"type":"Point","coordinates":[33.7676773,-13.9849164]},"properties":{"name":"Peoples","shop":"supermarket"}},
{"type":"Feature","geometry":{"type":"Point","coordinates":[33.7384263,-13.5329082]},"properties":{"name":"Chipiku","shop":"supermarket"}},
{"type":"Feature","geometry":{"type":"Point","coordinates":[34.4563403,-13.7853885]},"properties":{"shop":"bakery"}},
{"type":"Feature","geometry":{"type":"Point","coordinates":[33.7684257,-13.9866708]},"properties":{"brand":"Spar","brand:wikidata":"Q610492","brand:wikipedia":"en:Spar (retailer)","name":"Spar","shop":"supermarket","wheelchair":"yes"}},
{"type":"Feature","geometry":{"type":"Point","coordinates":[35.0332851,-15.8020758]},"properties":{"addr:city":"Blantyre","addr:street":"Masauko Chipembere Highway","name":"Game Store","shop":"supermarket"}},
{"type":"Feature","geometry":{"type":"Point","coordinates":[34.0459136,-11.4472451]},"properties":{"shop":"supermarket"}},
{"type":"Feature","geometry":{"type":"Point","coordinates":[35.4978223,-15.9394943]},"properties":{"amenity":"marketplace","name":"Souvenir's market"}},
{"type":"Feature","geometry":{"type":"Point","coordinates":[33.8552958,-11.0226679]},"properties":{"addr:city":"Rumphi","name":"Chipiku Supermarket","operator":"Chipiku","shop":"supermarket"}},
{"type":"Feature","geometry":{"type":"Point","coordinates":[33.784397,-14.2941387]},"properties":{"amenity":"marketplace","name":"Mlomba Market"}},
{"type":"Feature","geometry":{"type":"Point","coordinates":[34.4265915,-14.3576755]},"properties":{"addr:city":"Bembeke","name":"BEM-BAKERY","operator":"Cordaid","shop":"bakery"}},
{"type":"Feature","geometry":{"type":"Point","coordinates":[34.0143435,-11.4619641]},"properties":{"addr:city":"Mzuzu","branch":"shoping mall","brand":"Shoprite","brand:wikidata":"Q1857639","name":"Shoprite","shop":"supermarket","source":"used","website":"http://web.shoprite.co.za/Shoprite-Africa/malawi.html#"}},
{"type":"Feature","geometry":{"type":"Point","coordinates":[35.1671654,-14.3648373]},"properties":{"amenity":"marketplace"}},
{"type":"Feature","geometry":{"type":"Point","coordinates":[35.1675764,-14.365306]},"properties":{"amenity":"marketplace"}},
{"type":"Feature","geometry":{"type":"Point","coordinates":[33.9257182,-9.9388463]},"properties":{"name":"Cash n Carry","shop":"supermarket"}},
{"type":"Feature","geometry":{"type":"Point","coordinates":[33.479655,-13.0436004]},"properties":{"name":"Kasungu DAPP Shop","shop":"supermarket"}},
{"type":"Feature","geometry":{"type":"Point","coordinates":[33.4800788,-13.0433627]},"properties":{"name":"PEP Store","shop":"supermarket"}},
{"type":"Feature","geometry":{"type":"Point","coordinates":[33.583248,-11.0021913]},"properties":{"name":"Grocery","shop":"convenience"}},
{"type":"Feature","geometry":{"type":"Point","coordinates":[33.5837137,-11.004932]},"properties":{"shop":"convenience"}},
{"type":"Feature","geometry":{"type":"Point","coordinates":[34.9170064,-14.0785548]},"properties":{"addr:city":"Monkey Bay","shop":"butcher"}},
{"type":"Feature","geometry":{"type":"Point","coordinates":[34.5970232,-14.4286249]},"properties":{"name":"Chipiku Store","name:en":"Chipiku Store","shop":"convenience"}},
{"type":"Feature","geometry":{"type":"Point","coordinates":[34.8394799,-14.0256952]},"properties":{"shop":"convenience"}},
{"type":"Feature","geometry":{"type":"Point","coordinates":[34.8388066,-14.0261581]},"properties":{"shop":"convenience"}},
{"type":"Feature","geometry":{"type":"Point","coordinates":[34.8367932,-14.0276953]},"properties":{"name":"Kadzuwa Shop","name:en":"Kadzuwa Shop","shop":"convenience"}},
{"type":"Feature","geometry":{"type":"Point","coordinates":[34.8367514,-14.0277482]},"properties":{"name":"Wateris Life Sketar Shop","name:en":"Wateris Life Sketar Shop","shop":"convenience"}},
{"type":"Feature","geometry":{"type":"Point","coordinates":[33.8372193,-14.0714068]},"properties":{"name":"Janet Store","name:en":"Janet Store","shop":"convenience"}},
{"type":"Feature","geometry":{"type":"Point","coordinates":[34.5958448,-14.4273964]},"properties":{"name":"Monkeda Shop","name:en":"Monkeda Shop","shop":"convenience"}},
{"type":"Feature","geometry":{"type":"Point","coordinates":[34.421378,-14.4345209]},"properties":{"shop":"convenience"}},
{"type":"Feature","geometry":{"type":"Point","coordinates":[34.1560464,-14.282044]},"properties":{"name":"Grocery Wholesales","name:en":"Grocery Wholesales","shop":"convenience"}},
{"type":"Feature","geometry":{"type":"Point","coordinates":[33.8368876,-14.0714595]},"properties":{"name":"Mango Grocery","name:en":"Mango Grocery","shop":"convenience"}},
{"type":"Feature","geometry":{"type":"Point","coordinates":[35.0048821,-15.7879921]},"properties":{"addr:city":"Blantyre","addr:housenumber":"20","addr:street":"Victoria Avenue","name":"Spar","name:en":"Spar","operator":"Spar","payment:cash":"yes","payment:credit_cards":"yes","phone":"+265 1 871 799","shop":"supermarket"}},
{"type":"Feature","geometry":{"type":"Point","coordinates":[33.742467,-13.9704754]},"properties":{"addr:city":"Lilongwe","name":"Shoprite","name:en":"Shoprite","opening_hours":"Mo, We-Fr 08:00-20:00; Tu 09:00-20:00; Sa 08:00-19:00; Su 09:00-17:00","shop":"supermarket"}},
{"type":"Feature","geometry":{"type":"Point","coordinates":[35.0094187,-15.7859445]},"properties":{"addr:city":"Blantyre","name":"Peoples Express","name:en":"Peoples Express","shop":"convenience"}},
{"type":"Feature","geometry":{"type":"Point","coordinates":[33.7762625,-13.9905343]},"properties":{"brand":"Shoprite","brand:wikidata":"Q1857639","name":"Shoprite","name:en":"Shoprite","shop":"supermarket"}},
{"type":"Feature","geometry":{"type":"Point","coordinates":[33.9257256,-9.9387748]},"properties":{"name":"Metro Cash and Carry","shop":"supermarket"}},
{"type":"Feature","geometry":{"type":"Point","coordinates":[34.5170004,-13.9103119]},"properties":{"shop":"convenience"}},
{"type":"Feature","geometry":{"type":"Point","coordinates":[33.9253473,-9.94015]},"properties":{"name":"Bajwa Superette","shop":"supermarket"}},
{"type":"Feature","geometry":{"type":"Point","coordinates":[35.0608335,-15.8112948]},"properties":{"name":"Speedy's Meat Mart","name:en":"Speedy's Meat Mart","shop":"butcher"}},
{"type":"Feature","geometry":{"type":"Point","coordinates":[35.0608411,-15.8111186]},"properties":{"name":"BreadTalk","name:en":"BreadTalk","shop":"bakery"}},
{"type":"Feature","geometry":{"type":"Point","coordinates":[34.5198159,-15.605656]},"properties":{"name":"People's","payment:cash":"yes","shop":"supermarket"}},
{"type":"Feature","geometry":{"type":"Point","coordinates":[35.282468,-15.451976]},"properties":{"name":"Six Miles Trading Center","shop":"convenience"}},
{"type":"Feature","geometry":{"type":"Point","coordinates":[35.2507097,-15.4041422]},"properties":{"name":"Namadidi Trading Center","shop":"convenience"}},
{"type":"Feature","geometry":{"type":"Point","coordinates":[35.468634,-15.493369]},"properties":{"name":"Jali Trading Center","shop":"convenience"}},
{"type":"Feature","geometry":{"type":"Point","coordinates":[35.306314,-15.49475]},"properties":{"name":"Trading Center","shop":"convenience"}},
{"type":"Feature","geometry":{"type":"Point","coordinates":[35.0060892,-15.7764252]},"properties":{"amenity":"marketplace","name":"Mbayani Market"}},
{"type":"Feature","geometry":{"type":"Point","coordinates":[34.981817,-15.7817886]},"properties":{"name":"Cost Cutter","name:en":"Cost Cutter","shop":"convenience"}},
{"type":"Feature","geometry":{"type":"Point","coordinates":[35.1479328,-16.0657875]},"properties":{"name":"Peoples","shop":"supermarket"}},
{"type":"Feature","geometry":{"type":"Point","coordinates":[35.0621956,-15.8276522]},"properties":{"addr:city":"Limbe","addr:street":"Thyolo Road","name":"sana cash and carry","shop":"supermarket"}},
{"type":"Feature","geometry":{"type":"Point","coordinates":[35.1447638,-14.3359646]},"properties":{"name":"Peoples","shop":"supermarket"}},
{"type":"Feature","geometry":{"type":"Point","coordinates":[34.4612708,-13.7888222]},"properties":{"name":"Tulias super save","shop":"supermarket"}},
{"type":"Feature","geometry":{"type":"Point","coordinates":[34.4613133,-13.7887755]},"properties":{"name":"Tutlas Super Save","shop":"supermarket"}},
{"type":"Feature","geometry":{"type":"Point","coordinates":[33.7028457,-14.0330841]},"properties":{"shop":"convenience"}},
{"type":"Feature","geometry":{"type":"Point","coordinates":[33.0421838,-13.8316745]},"properties":{"name":"Peoples","shop":"supermarket"}},
{"type":"Feature","geometry":{"type":"Point","coordinates":[32.8891445,-13.7947601]},"properties":{"name":"Peoples","shop":"supermarket"}},
{"type":"Feature","geometry":{"type":"Point","coordinates":[33.7421984,-13.9697336]},"properties":{"addr:city":"Lilongwe","name":"Foodlovers Market","name:en":"Foodlovers Market","shop":"supermarket"}},
{"type":"Feature","geometry":{"type":"Point","coordinates":[33.7698228,-13.9860346]},"properties":{"name":"Superior Supermarket","name:en":"Superior Supermarket","shop":"supermarket"}},
{"type":"Feature","geometry":{"type":"Point","coordinates":[34.9825129,-15.806875]},"properties":{"name":"Manyowe","name:en":"Manyowe","shop":"supermarket"}},
{"type":"Feature","geometry":{"type":"Point","coordinates":[35.1689628,-16.2893459]},"properties":{"shop":"supermarket"}},
{"type":"Feature","geometry":{"type":"Point","coordinates":[35.0066468,-15.8320867]},"properties":{"name":"Mtonga B shopping center","shop":"convenience"}},
{"type":"Feature","geometry":{"type":"Point","coordinates":[33.7554901,-13.8693696]},"properties":{"name":"JAYJAY","shop":"supermarket"}},
{"type":"Feature","geometry":{"type":"Point","coordinates":[34.458654,-13.7827145]},"properties":{"name":"Metro","shop":"supermarket"}},
{"type":"Feature","geometry":{"type":"Point","coordinates":[33.7923934,-13.960227]},"properties":{"addr:street":"Robert Mugabe Crescent","name":"SPAR Supermarket","name:de":"SPAR Supermarkt","shop":"supermarket"}},
{"type":"Feature","geometry":{"type":"Point","coordinates":[33.9258178,-9.9387192]},"properties":{"name":"Peoples","shop":"supermarket"}},
{"type":"Feature","geometry":{"type":"Point","coordinates":[34.2971037,-11.6108944]},"properties":{"name":"Tailershop","opening_hours":"Mo-Su 09:00-18:00","shop":"convenience"}},
{"type":"Feature","geometry":{"type":"Point","coordinates":[34.2993661,-11.6083175]},"properties":{"name":"Textilshop","shop":"supermarket"}},
{"type":"Feature","geometry":{"type":"Point","coordinates":[34.2998314,-11.6128079]},"properties":{"name":"Souvenirshop","opening_hours":"Mo-Su 09:00-18:00","shop":"convenience"}},
{"type":"Feature","geometry":{"type":"Point","coordinates":[34.112279,-10.6089877]},"properties":{"addr:city":"Livingstonia","name":"Craft Coffe Shop","shop":"convenience"}},
{"type":"Feature","geometry":{"type":"Point","coordinates":[33.7892615,-13.9072645]},"properties":{"name":"Kapani","shop":"butcher"}},
{"type":"Feature","geometry":{"type":"Point","coordinates":[33.7971055,-13.9913255]},"properties":{"addr:street":"Kawale Road","name":"Peoples","shop":"supermarket"}},
{"type":"Feature","geometry":{"type":"Point","coordinates":[33.2718531,-9.7021278]},"properties":{"name":"Mafuta Achi Malawi Shop","shop":"convenience"}},
{"type":"Feature","geometry":{"type":"Point","coordinates":[35.2579587,-14.480601]},"properties":{"name":"Ahad","shop":"supermarket"}},
{"type":"Feature","geometry":{"type":"Point","coordinates":[33.9262659,-9.9403368]},"properties":{"name":"TESCO","shop":"supermarket"}},
{"type":"Feature","geometry":{"type":"Point","coordinates":[34.8515157,-15.4504505]},"properties":{"name":"Malunga Shop","shop":"convenience"}},
{"type":"Feature","geometry":{"type":"Point","coordinates":[33.8033264,-13.8540008]},"properties":{"addr:street":"M1","name":"Open air Goat meat butcher","shop":"butcher"}},
{"type":"Feature","geometry":{"type":"Point","coordinates":[34.9802444,-15.7739177]},"properties":{"name":"SHOPPERS","shop":"supermarket"}},
{"type":"Feature","geometry":{"type":"Point","coordinates":[33.7995578,-14.0621955]},"properties":{"name":"Bonjour","shop":"convenience"}},
{"type":"Feature","geometry":{"type":"Point","coordinates":[33.7994685,-14.0623413]},"properties":{"name":"Nyama world","shop":"butcher"}},
{"type":"Feature","geometry":{"type":"Point","coordinates":[33.27175,-9.7020816]},"properties":{"name":"Pachanya Grocery","shop":"convenience"}},
{"type":"Feature","geometry":{"type":"Point","coordinates":[33.2733865,-9.7028703]},"properties":{"name":"Peoples","shop":"supermarket"}},
{"type":"Feature","geometry":{"type":"Point","coordinates":[34.1060523,-14.0464691]},"properties":{"name":"Chipiku Store","shop":"supermarket"}},
{"type":"Feature","geometry":{"type":"Point","coordinates":[33.7859295,-13.9646601]},"properties":{"addr:street":"Kenyatta Road","name":"Bread talk","shop":"bakery"}},
{"type":"Feature","geometry":{"type":"Point","coordinates":[33.2720122,-9.7021616]},"properties":{"name":"Donna's Eggs","shop":"convenience"}},
{"type":"Feature","geometry":{"type":"Point","coordinates":[33.2718061,-9.7020715]},"properties":{"name":"Amosi Grocery","shop":"convenience"}},
{"type":"Feature","geometry":{"type":"Point","coordinates":[34.3344772,-14.3819222]},"properties":{"name":"CHiPiKU Plus store","shop":"supermarket"}},
{"type":"Feature","geometry":{"type":"Point","coordinates":[34.331152,-14.3765896]},"properties":{"name":"Sopping mall","shop":"supermarket"}},
{"type":"Feature","geometry":{"type":"Point","coordinates":[33.7570538,-13.9757969]},"properties":{"name":"Bread talk","shop":"bakery"}},
{"type":"Feature","geometry":{"type":"Point","coordinates":[34.2980638,-11.6080045]},"properties":{"name":"right choice","shop":"supermarket"}},
{"type":"Feature","geometry":{"type":"Point","coordinates":[34.022758,-11.4607422]},"properties":{"name":"chipiku plus mzuzu","shop":"supermarket"}},
{"type":"Feature","geometry":{"type":"Point","coordinates":[34.0225088,-11.4610172]},"properties":{"name":"Chipiku Plus","shop":"supermarket"}},
{"type":"Feature","geometry":{"type":"Point","coordinates":[35.0256246,-15.8003575]},"properties":{"addr:city":"Blantyre","addr:street":"Masauko Chipembere Highway","name":"Sana Food Market","shop":"supermarket"}},
{"type":"Feature","geometry":{"type":"Point","coordinates":[35.4807019,-15.9313576]},"properties":{"name":"Grocery and Bottle Store","shop":"convenience"}},
{"type":"Feature","geometry":{"type":"Point","coordinates":[34.8874124,-14.2123137]},"properties":{"name":"Sanatu's Grocery","shop":"convenience"}},
{"type":"Feature","geometry":{"type":"Point","coordinates":[33.7568147,-13.9748565]},"properties":{"name":"peoples express","shop":"supermarket"}},
{"type":"Feature","geometry":{"type":"Point","coordinates":[35.0157864,-15.7903909]},"properties":{"name":"Ori Meat Shop","shop":"butcher"}},
{"type":"Feature","geometry":{"type":"Point","coordinates":[34.4565964,-13.7829463]},"properties":{"name":"Peoples","shop":"supermarket"}},
{"type":"Feature","geometry":{"type":"Point","coordinates":[34.4389041,-13.7695244]},"properties":{"name":"Kamuzu Road","shop":"convenience"}},
{"type":"Feature","geometry":{"type":"Point","coordinates":[33.4817408,-14.0244956]},"properties":{"amenity":"marketplace","name":"Msundwe Market"}},
{"type":"Feature","geometry":{"type":"Point","coordinates":[33.7208771,-13.9753284]},"properties":{"brand":"Farmfoods","brand:wikidata":"Q5435841","brand:wikipedia":"en:Farmfoods","name":"Farmfoods","opening_hours":"Mo-Su 06:00-21:00","operator":"Mango Farm Foods","shop":"supermarket"}},
{"type":"Feature","geometry":{"type":"Point","coordinates":[33.7950229,-13.9582341]},"properties":{"name":"Bonjour","shop":"convenience"}},
{"type":"Feature","geometry":{"type":"Point","coordinates":[34.0191175,-11.4616197]},"properties":{"name":"SANA Cash n Carry","shop":"supermarket"}},
{"type":"Feature","geometry":{"type":"Point","coordinates":[33.8149031,-13.9478006]},"properties":{"amenity":"marketplace","name":"Makatani"}},
{"type":"Feature","geometry":{"type":"Point","coordinates":[35.0026979,-15.7847416]},"properties":{"addr:city":"Blantyre","addr:street":"Laws Road","name":"Foodlovers Market","opening_hours":"Mo-Fr 09:00-20:00, Sa 09:00-19:00, Su 09:00-18:00","payment:cash":"yes","payment:credit_cards":"yes","shop":"supermarket"}},
{"type":"Feature","geometry":{"type":"Point","coordinates":[35.0118416,-15.8187249]},"properties":{"name":"Zingwangwa Market","shop":"supermarket"}},
{"type":"Feature","geometry":{"type":"Point","coordinates":[35.3400854,-15.373653]},"properties":{"name":"Convenience Store","shop":"convenience"}},
{"type":"Feature","geometry":{"type":"Point","coordinates":[35.3468461,-15.367662]},"properties":{"name":"Small shopping centre","shop":"supermarket"}},
{"type":"Feature","geometry":{"type":"Point","coordinates":[34.8468351,-14.0218541]},"properties":{"name":"Town Market","shop":"convenience"}},
{"type":"Feature","geometry":{"type":"Point","coordinates":[34.9174143,-14.124861]},"properties":{"name":"Agora agricultural supplies","shop":"convenience"}},
{"type":"Feature","geometry":{"type":"Point","coordinates":[34.9174568,-14.1258201]},"properties":{"name":"Local Market area","shop":"supermarket"}},
{"type":"Feature","geometry":{"type":"Point","coordinates":[34.9184359,-14.0771885]},"properties":{"name":"Chipiku","shop":"supermarket"}},
{"type":"Feature","geometry":{"type":"Point","coordinates":[34.2686056,-11.6130536]},"properties":{"name":"Imperial Food Court","shop":"bakery"}},
{"type":"Feature","geometry":{"type":"Point","coordinates":[33.7997431,-13.9596474]},"properties":{"name":"Halaal excellent meat","shop":"butcher"}},
{"type":"Feature","geometry":{"type":"Point","coordinates":[35.0069358,-15.78915]},"properties":{"name":"Vegetable market","shop":"supermarket"}},
{"type":"Feature","geometry":{"type":"Point","coordinates":[35.2269357,-15.066261]},"properties":{"name":"Local Market","shop":"supermarket"}},
{"type":"Feature","geometry":{"type":"Point","coordinates":[35.0595063,-15.8150518]},"properties":{"name":"Nu-Line blankets","shop":"convenience"}},
{"type":"Feature","geometry":{"type":"Point","coordinates":[35.0259012,-15.8003003]},"properties":{"name":"Chipiku","shop":"supermarket"}},
{"type":"Feature","geometry":{"type":"Point","coordinates":[35.0633807,-15.8118062]},"properties":{"name":"Impex kitchenware","shop":"convenience"}},
{"type":"Feature","geometry":{"type":"Point","coordinates":[35.063495,-15.8116064]},"properties":{"name":"Fabric upholstery","shop":"convenience"}},
{"type":"Feature","geometry":{"type":"Point","coordinates":[35.0074359,-15.790542]},"properties":{"name":"Vegetable market","shop":"supermarket"}},
{"type":"Feature","geometry":{"type":"Point","coordinates":[35.0610231,-15.8127133]},"properties":{"name":"Woolshop","shop":"convenience"}},
{"type":"Feature","geometry":{"type":"Point","coordinates":[35.0601924,-15.8151974]},"properties":{"name":"Nu-Line blankets","shop":"convenience"}},
{"type":"Feature","geometry":{"type":"Point","coordinates":[35.0012657,-15.7831518]},"properties":{"name":"Foodmall and Shopping center","shop":"supermarket"}},
{"type":"Feature","geometry":{"type":"Point","coordinates":[33.786073,-13.9688486]},"properties":{"amenity":"marketplace","name":"Craft market monthly","tourism":"attraction"}},
{"type":"Feature","geometry":{"type":"Point","coordinates":[33.7759694,-13.9896415]},"properties":{"name":"Lakhani Nu-Line blankets","shop":"convenience"}},
{"type":"Feature","geometry":{"type":"Point","coordinates":[33.7764586,-13.9887781]},"properties":{"name":"Haberdashery","shop":"convenience"}},
{"type":"Feature","geometry":{"type":"Point","coordinates":[34.247878300000007,-10.436212]},"properties":{"name":"Ntchito Unandi Grocery","shop":"convenience"}},
{"type":"Feature","geometry":{"type":"Point","coordinates":[35.0080604,-15.7869229]},"properties":{"name":"BMK Spice Shop","shop":"supermarket"}},
{"type":"Feature","geometry":{"type":"Point","coordinates":[34.2110955,-10.4528474]},"properties":{"name":"Khumbo Superette","shop":"convenience"}},
{"type":"Feature","geometry":{"type":"Point","coordinates":[34.0233857,-11.463234]},"properties":{"name":"Bonjour","shop":"convenience"}},
{"type":"Feature","geometry":{"type":"Point","coordinates":[35.0061223,-15.7876831]},"properties":{"name":"Spar","shop":"supermarket"}},
{"type":"Feature","geometry":{"type":"Point","coordinates":[34.2100915,-10.4535179]},"properties":{"name":"Let God be God - Anderson Enterprises","shop":"convenience"}},
{"type":"Feature","geometry":{"type":"Point","coordinates":[34.2104483,-10.4533482]},"properties":{"name":"Soyola Cooking Oil - Mt. Meru Millers","shop":"convenience"}},
{"type":"Feature","geometry":{"type":"Point","coordinates":[34.2478662,-10.4367607]},"properties":{"name":"Eaglets Investments","shop":"convenience"}},
{"type":"Feature","geometry":{"type":"Point","coordinates":[33.7695162,-13.9871012]},"properties":{"name":"City Mall","shop":"supermarket"}},
{"type":"Feature","geometry":{"type":"Point","coordinates":[34.943838,-15.4628293]},"properties":{"amenity":"marketplace","name":"Mdeka"}},
{"type":"Feature","geometry":{"type":"Point","coordinates":[34.0182296,-11.4587929]},"properties":{"name":"Suhana Continental Bakery","shop":"bakery"}},
{"type":"Feature","geometry":{"type":"Point","coordinates":[34.0187052,-11.459353]},"properties":{"name":"Chipiku","shop":"supermarket"}},
{"type":"Feature","geometry":{"type":"Point","coordinates":[34.2979431,-11.6098751]},"properties":{"amenity":"marketplace","name":"New Nkhata bay market place"}},
{"type":"Feature","geometry":{"type":"Point","coordinates":[33.5360136,-12.0956181]},"properties":{"amenity":"marketplace","name":"Thoza TC"}},
{"type":"Feature","geometry":{"type":"Point","coordinates":[34.0654358,-11.9694016]},"properties":{"name":"Shop","shop":"convenience"}},
{"type":"Feature","geometry":{"type":"Point","coordinates":[35.3239161,-15.398942]},"properties":{"addr:street":"Mpondabwino","name":"Mpondabwino Market","shop":"supermarket"}},
{"type":"Feature","geometry":{"type":"Point","coordinates":[33.7543314,-13.8875671]},"properties":{"addr:city":"Lilongwe","addr:postcode":"265","amenity":"marketplace","name":"Nsungwi Market"}},
{"type":"Feature","geometry":{"type":"Point","coordinates":[35.0383778,-15.7714961]},"properties":{"name":"Msika wanjala Marketplace","shop":"supermarket"}},
{"type":"Feature","geometry":{"type":"Point","coordinates":[35.037926,-15.7763647]},"properties":{"name":"New Ndirande Main Market","shop":"supermarket"}},
{"type":"Feature","geometry":{"type":"Point","coordinates":[33.7718485,-13.9778338]},"properties":{"name":"Maravi bakery","shop":"bakery"}},
{"type":"Feature","geometry":{"type":"Point","coordinates":[34.7923929,-16.0180179]},"properties":{"name":"Chikwawa chipiku stores","shop":"supermarket"}},
{"type":"Feature","geometry":{"type":"Point","coordinates":[35.0083361,-15.8105422]},"properties":{"name":"Spendrite","shop":"supermarket"}},
{"type":"Feature","geometry":{"type":"Point","coordinates":[33.7440699,-14.0092668]},"properties":{"name":"Cold Storage","shop":"butcher"}},
{"type":"Feature","geometry":{"type":"Point","coordinates":[33.7893574,-13.9075508]},"properties":{"name":"CarniWors","opening_hours":"Mo-Sa 07:30-17:30","shop":"supermarket"}},
{"type":"Feature","geometry":{"type":"Point","coordinates":[35.0454535,-15.7739377]},"properties":{"amenity":"marketplace","name":"Safalao Market","opening_hours":"Mo-Su 06:00-21:00"}},
{"type":"Feature","geometry":{"type":"Point","coordinates":[33.6065477,-12.6971082]},"properties":{"amenity":"marketplace","name":"Chimwa Trading Center"}},
{"type":"Feature","geometry":{"type":"Point","coordinates":[35.2824499,-15.4533815]},"properties":{"addr:city":"Mbawana","addr:state":"Zomba","amenity":"marketplace","name":"6 Mile Market"}},
{"type":"Feature","geometry":{"type":"Point","coordinates":[34.1065189,-14.0477707]},"properties":{"name":"K ZONE","shop":"supermarket"}},
{"type":"Feature","geometry":{"type":"Point","coordinates":[35.190503,-15.7561607]},"properties":{"amenity":"marketplace","name":"PIM TRADING CENTRE","operator":"Chiradzulu District council"}},
{"type":"Feature","geometry":{"type":"Point","coordinates":[34.5674016,-14.7726952]},"properties":{"name":"irish market","shop":"supermarket"}},
{"type":"Feature","geometry":{"type":"Point","coordinates":[35.3205261,-16.0003558]},"properties":{"amenity":"marketplace","name":"chonde market"}},
{"type":"Feature","geometry":{"type":"Point","coordinates":[35.0521843,-15.8539138]},"properties":{"amenity":"marketplace","name":"Manje"}},
{"type":"Feature","geometry":{"type":"Point","coordinates":[34.9992871,-15.7664113]},"properties":{"amenity":"marketplace","name":"Chemusa"}},
{"type":"Feature","geometry":{"type":"Point","coordinates":[35.03297,-14.3531172]},"properties":{"addr:city":"Mangochi","addr:housenumber":"121","addr:postcode":"121","addr:street":"Njereza","email":"sankhawekhafurnishers@gmail.com","name":"TWAHA'S GROUP OF COMPANIES","opening_hours":"24/7","operator":"Sankhawekha Furnishers","payment:cash":"yes","payment:mastercard":"yes","payment:telephone_cards":"yes","payment:visa":"yes","phone":"+265984242730","shop":"supermarket"}},
{"type":"Feature","geometry":{"type":"Point","coordinates":[33.8689278,-11.3491794]},"properties":{"craft":"bakery","name":"Thokoland Bakeries","shop":"bakery"}},
{"type":"Feature","geometry":{"type":"Point","coordinates":[33.7730073,-13.6551429]},"properties":{"amenity":"marketplace","name":"Market"}},
{"type":"Feature","geometry":{"type":"Point","coordinates":[33.8704547,-13.6592075]},"properties":{"amenity":"marketplace","name":"Dzaleka Market","opening_hours":"Friday"}},
{"type":"Feature","geometry":{"type":"Point","coordinates":[34.0669603,-13.723302]},"properties":{"amenity":"marketplace","opening_hours":"Closed on Friday"}},
{"type":"Feature","geometry":{"type":"Point","coordinates":[34.243109,-13.7520144]},"properties":{"amenity":"marketplace","opening_hours":"Closed on Friday"}},
{"type":"Feature","geometry":{"type":"Point","coordinates":[34.2360424,-13.7266711]},"properties":{"amenity":"marketplace","name":"Thonje Trading Center"}},
{"type":"Feature","geometry":{"type":"Point","coordinates":[34.4656509,-13.7905478]},"properties":{"amenity":"marketplace","name":"Salima","opening_hours":"Friday"}},
{"type":"Feature","geometry":{"type":"Point","coordinates":[34.4373897,-13.8381319]},"properties":{"amenity":"marketplace","name":"Katelera Market","opening_hours":"Sunday"}},
{"type":"Feature","geometry":{"type":"Point","coordinates":[33.5344035,-14.0106576]},"properties":{"amenity":"marketplace","opening_hours":"Saturday"}},
{"type":"Feature","geometry":{"type":"Point","coordinates":[33.5904699,-13.9901401]},"properties":{"amenity":"marketplace","name":"Mpingu Market","opening_hours":"Saturday"}},
{"type":"Feature","geometry":{"type":"Point","coordinates":[33.6988513,-13.9807465]},"properties":{"amenity":"marketplace","name":"Njewa Market","opening_hours":"Saturday"}},
{"type":"Feature","geometry":{"type":"Point","coordinates":[33.7090511,-13.9756821]},"properties":{"amenity":"marketplace","opening_hours":"Saturday"}},
{"type":"Feature","geometry":{"type":"Point","coordinates":[33.7686592,-14.0446044]},"properties":{"amenity":"marketplace","name":"Kachala Market","opening_hours":"Saturday"}},
{"type":"Feature","geometry":{"type":"Point","coordinates":[33.8358947,-14.0717511]},"properties":{"amenity":"marketplace","name":"Nanjiri Market","opening_hours":"Saturday"}},
{"type":"Feature","geometry":{"type":"Point","coordinates":[33.8779664,-14.0903089]},"properties":{"amenity":"marketplace","name":"Nathenje Market","opening_hours":"Not Saturday"}},
{"type":"Feature","geometry":{"type":"Point","coordinates":[33.9675342,-14.0926932]},"properties":{"amenity":"marketplace","name":"Matindi Market","opening_hours":"Sunday"}},
{"type":"Feature","geometry":{"type":"Point","coordinates":[34.0073025,-14.109502]},"properties":{"amenity":"marketplace","name":"Kamphata Trading Centre","opening_hours":"Saturday"}},
{"type":"Feature","geometry":{"type":"Point","coordinates":[34.0726476,-14.123861]},"properties":{"amenity":"marketplace"}},
{"type":"Feature","geometry":{"type":"Point","coordinates":[34.083472,-14.1343505]},"properties":{"amenity":"marketplace","opening_hours":"Tuesday"}},
{"type":"Feature","geometry":{"type":"Point","coordinates":[34.1236377,-14.1774461]},"properties":{"amenity":"marketplace","name":"Linthipe Market","opening_hours":"Tuesday, closed on Saturday"}},
{"type":"Feature","geometry":{"type":"Point","coordinates":[33.5067344,-14.1349113]},"properties":{"amenity":"marketplace","name":"Ndaula Trading Centre"}},
{"type":"Feature","geometry":{"type":"Point","coordinates":[33.8049865,-13.723548]},"properties":{"amenity":"marketplace","name":"Dowa Turnoff Market","opening_hours":"Friday"}},
{"type":"Feature","geometry":{"type":"Point","coordinates":[34.3879988,-13.7591272]},"properties":{"amenity":"marketplace","name":"Chimubve Market","opening_hours":"Friday, Sunday"}},
{"type":"Feature","geometry":{"type":"Point","coordinates":[34.5806177,-13.7546646]},"properties":{"amenity":"marketplace","name":"Senga Bay Sunset Souvenir Market"}},
{"type":"Feature","geometry":{"type":"Point","coordinates":[34.5064896,-14.0369072]},"properties":{"amenity":"marketplace","name":"Chipoka Market","opening_hours":"Sunday"}},
{"type":"Feature","geometry":{"type":"Point","coordinates":[34.1602493,-14.2878953]},"properties":{"amenity":"marketplace","name":"Chimbiya","opening_hours":"Wednesday, Sunday, closed Monday"}},
{"type":"Feature","geometry":{"type":"Point","coordinates":[34.4625169,-14.5138182]},"properties":{"amenity":"marketplace","name":"Lizulu Trading Centre","opening_hours":"Tuesday, Wednesday, Thursday, Friday, Saturday"}},
{"type":"Feature","geometry":{"type":"Point","coordinates":[34.7309061,-14.8688445]},"properties":{"amenity":"marketplace","name":"Kampepuza","opening_hours":"Friday"}},
{"type":"Feature","geometry":{"type":"Point","coordinates":[34.749882,-14.8722415]},"properties":{"amenity":"marketplace","name":"Nsipe"}},
{"type":"Feature","geometry":{"type":"Point","coordinates":[34.8940477,-14.9581112]},"properties":{"amenity":"marketplace","name":"Chingeni","opening_hours":"Friday"}},
{"type":"Feature","geometry":{"type":"Point","coordinates":[34.8522806,-15.001083]},"properties":{"amenity":"marketplace","name":"Manjawira","opening_hours":"Sunday"}},
{"type":"Feature","geometry":{"type":"Point","coordinates":[35.0206393,-15.6519638]},"properties":{"amenity":"marketplace","name":"Market","opening_hours":"Tuesday"}},
{"type":"Feature","geometry":{"type":"Point","coordinates":[33.9856272,-11.4749439]},"properties":{"amenity":"marketplace","name":"Mzuzu Market","opening_hours":"Friday"}},
{"type":"Feature","geometry":{"type":"Point","coordinates":[34.2985919,-11.6085725]},"properties":{"amenity":"marketplace","name":"Nkhata Bay Market","opening_hours":"Monday"}},
{"type":"Feature","geometry":{"type":"Point","coordinates":[33.5041911,-13.2258586]},"properties":{"amenity":"marketplace","name":"Chinkhoma","opening_hours":"Friday"}},
{"type":"Feature","geometry":{"type":"Point","coordinates":[33.3925397,-13.463693]},"properties":{"amenity":"marketplace","name":"Santhe Market","opening_hours":"Monday"}},
{"type":"Feature","geometry":{"type":"Point","coordinates":[33.4282774,-13.7659263]},"properties":{"amenity":"marketplace","opening_hours":"Closed Tuesday"}},
{"type":"Feature","geometry":{"type":"Point","coordinates":[33.4476852,-13.8190715]},"properties":{"amenity":"marketplace","name":"Kabudula Market","opening_hours":"Closed Tuesday"}},
{"type":"Feature","geometry":{"type":"Point","coordinates":[33.5056836,-14.1361663]},"properties":{"amenity":"marketplace","name":"Ndaula","opening_hours":"Closed Saturday"}},
{"type":"Feature","geometry":{"type":"Point","coordinates":[33.7427426,-13.9747487]},"properties":{"amenity":"marketplace","opening_hours":"Saturday"}},
{"type":"Feature","geometry":{"type":"Point","coordinates":[34.5931814,-14.424103]},"properties":{"amenity":"marketplace","name":"Golomoti Market","opening_hours":"Tuesday"}},
{"type":"Feature","geometry":{"type":"Point","coordinates":[35.0505403,-14.2296062]},"properties":{"amenity":"marketplace","name":"Nkope","opening_hours":"Wednesday, closed Thursday"}},
{"type":"Feature","geometry":{"type":"Point","coordinates":[35.1149397,-14.3068269]},"properties":{"amenity":"marketplace","opening_hours":"Thursday"}},
{"type":"Feature","geometry":{"type":"Point","coordinates":[35.1185191,-14.30924]},"properties":{"amenity":"marketplace","opening_hours":"Wednesday"}},
{"type":"Feature","geometry":{"type":"Point","coordinates":[35.1469242,-14.3380044]},"properties":{"amenity":"marketplace","name":"Wednesday"}},
{"type":"Feature","geometry":{"type":"Point","coordinates":[35.1813264,-14.6263615]},"properties":{"amenity":"marketplace","opening_hours":"Wednesday"}},
{"type":"Feature","geometry":{"type":"Point","coordinates":[35.1726036,-14.8473004]},"properties":{"amenity":"marketplace","name":"Ulongwe","opening_hours":"Wednesday"}},
{"type":"Feature","geometry":{"type":"Point","coordinates":[34.9592944,-14.9930285]},"properties":{"amenity":"marketplace","name":"Balaka","opening_hours":"Wednesday"}},
{"type":"Feature","geometry":{"type":"Point","coordinates":[35.1888995,-15.045235]},"properties":{"amenity":"marketplace","name":"Liwonde","opening_hours":"Wednesday"}},
{"type":"Feature","geometry":{"type":"Point","coordinates":[35.043017,-15.8381338]},"properties":{"amenity":"marketplace","name":"Manje","opening_hours":"Daily"}},
{"type":"Feature","geometry":{"type":"Point","coordinates":[35.0801304,-15.9300978]},"properties":{"amenity":"marketplace","name":"Bvumbwe","opening_hours":"Saturday"}},
{"type":"Feature","geometry":{"type":"Point","coordinates":[35.0876594,-15.8362672]},"properties":{"amenity":"marketplace","name":"Bangwe","opening_hours":"Sunday"}},
{"type":"Feature","geometry":{"type":"Point","coordinates":[35.088236,-15.8395069]},"properties":{"amenity":"marketplace","name":"Tondole Market"}},
{"type":"Feature","geometry":{"type":"Point","coordinates":[35.1014738,-15.8350642]},"properties":{"amenity":"marketplace","name":"Chikunda","opening_hours":"Sunday"}},
{"type":"Feature","geometry":{"type":"Point","coordinates":[35.1102532,-15.8354376]},"properties":{"amenity":"marketplace","opening_hours":"Sunday"}},
{"type":"Feature","geometry":{"type":"Point","coordinates":[35.2343981,-16.0432559]},"properties":{"amenity":"marketplace","opening_hours":"Saturday"}},
{"type":"Feature","geometry":{"type":"Point","coordinates":[35.3604996,-15.9198772]},"properties":{"amenity":"marketplace","name":"Nkando Market","opening_hours":"Sunday"}},
{"type":"Feature","geometry":{"type":"Point","coordinates":[35.4002795,-15.9848974]},"properties":{"amenity":"marketplace","name":"Chinakanaka","opening_hours":"Saturday?"}},
{"type":"Feature","geometry":{"type":"Point","coordinates":[35.4834381,-15.9902173]},"properties":{"amenity":"marketplace","opening_hours":"Saturday"}},
{"type":"Feature","geometry":{"type":"Point","coordinates":[35.4912124,-16.0115423]},"properties":{"amenity":"marketplace","opening_hours":"Saturday"}},
{"type":"Feature","geometry":{"type":"Point","coordinates":[35.5321473,-16.0417161]},"properties":{"amenity":"marketplace","name":"Lauderdale Market"}},
{"type":"Feature","geometry":{"type":"Point","coordinates":[33.8820519,-11.1823732]},"properties":{"amenity":"marketplace","opening_hours":"Tuesday"}},
{"type":"Feature","geometry":{"type":"Point","coordinates":[34.1100858,-11.9365729]},"properties":{"amenity":"marketplace","name":"Kande Market","opening_hours":"Thursday"}},
{"type":"Feature","geometry":{"type":"Point","coordinates":[34.2685692,-11.6104879]},"properties":{"amenity":"marketplace","name":"Nkhata Bay Market","opening_hours":"Tuesday"}},
{"type":"Feature","geometry":{"type":"Point","coordinates":[34.188968,-11.5450241]},"properties":{"amenity":"marketplace","name":"Timbiri Market","opening_hours":"Wednesday"}},
{"type":"Feature","geometry":{"type":"Point","coordinates":[33.5500872,-12.3572889]},"properties":{"amenity":"marketplace","name":"Jenda Market"}},
{"type":"Feature","geometry":{"type":"Point","coordinates":[34.5409231,-15.5034743]},"properties":{"amenity":"marketplace"}},
{"type":"Feature","geometry":{"type":"Point","coordinates":[33.5143138,-10.834232]},"properties":{"name":"Kabulufu Market","shop":"supermarket"}},
{"type":"Feature","geometry":{"type":"Point","coordinates":[33.5214722,-10.8153128]},"properties":{"name":"Katowo Trading","shop":"supermarket"}},
{"type":"Feature","geometry":{"type":"Point","coordinates":[32.8647126,-13.5703526]},"properties":{"amenity":"marketplace","name":"Market"}},
{"type":"Feature","geometry":{"type":"Point","coordinates":[33.7648632,-13.9480418]},"properties":{"name":"Chisomo Container Shop","payment:cash":"yes","shop":"convenience"}},
{"type":"Feature","geometry":{"type":"Point","coordinates":[34.2979421,-11.608711]},"properties":{"name":"The Butcher Meat Shop","shop":"butcher"}},
{"type":"Feature","geometry":{"type":"Point","coordinates":[35.3191855,-15.3854383]},"properties":{"name":"Bread Talk","shop":"bakery"}},
{"type":"Feature","geometry":{"type":"Point","coordinates":[35.0169979,-15.7861701]},"properties":{"name":"Chipiku Plus","shop":"supermarket"}},
{"type":"Feature","geometry":{"type":"Point","coordinates":[35.002593,-14.2633059]},"properties":{"shop":"bakery"}},
{"type":"Feature","geometry":{"type":"LineString","coordinates":[[35.1450418,-16.0668667],[35.1458679,-16.0675575],[35.1454388,-16.0679905],[35.1449131,-16.0675369],[35.1450418,-16.0668667]]},"properties":{"amenity":"marketplace"}},
{"type":"Feature","geometry":{"type":"LineString","coordinates":[[35.3058933,-15.4146598],[35.3059116,-15.4146663],[35.3058975,-15.4147011],[35.3058804,-15.4146943],[35.3058933,-15.4146598]]},"properties":{"amenity":"marketplace","name":"Local Market"}},
{"type":"Feature","geometry":{"type":"LineString","coordinates":[[35.2339766,-15.4872006],[35.2339898,-15.4872175],[35.2339435,-15.487241],[35.2339308,-15.4872236],[35.2339766,-15.4872006]]},"properties":{"amenity":"marketplace","name":"Local Market"}},
{"type":"Feature","geometry":{"type":"LineString","coordinates":[[35.3058653,-15.41465],[35.3058836,-15.4146565],[35.3058695,-15.4146913],[35.3058507,-15.4146824],[35.3058653,-15.41465]]},"properties":{"amenity":"marketplace","name":"Local Market"}},
{"type":"Feature","geometry":{"type":"LineString","coordinates":[[35.2339939,-15.4872236],[35.2340061,-15.4872396],[35.2339617,-15.4872655],[35.2339491,-15.4872481],[35.2339939,-15.4872236]]},"properties":{"amenity":"marketplace","name":"Local Market"}},
{"type":"Feature","geometry":{"type":"LineString","coordinates":[[35.3187362,-15.3861605],[35.3177487,-15.3867879],[35.3182376,-15.3874773],[35.3192067,-15.3868513],[35.3187362,-15.3861605]]},"properties":{"amenity":"marketplace","landuse":"retail","name":"Zomba Market"}},
{"type":"Feature","geometry":{"type":"LineString","coordinates":[[35.3194521,-15.3843571],[35.3195444,-15.3845569],[35.3196955,-15.3844921],[35.3196032,-15.3842922],[35.3194521,-15.3843571]]},"properties":{"amenity":"marketplace","building":"retail","name":"souvenir shops"}},
{"type":"Feature","geometry":{"type":"LineString","coordinates":[[35.5124864,-15.4045388],[35.5118923,-15.4044539],[35.5116295,-15.4047051],[35.5116688,-15.4049103],[35.51213,-15.4049254],[35.5124474,-15.4049963],[35.5124864,-15.4045388]]},"properties":{"amenity":"marketplace","name":"Mphupyu Market"}},
{"type":"Feature","geometry":{"type":"LineString","coordinates":[[33.7922469,-13.9384159],[33.7922551,-13.9384277],[33.792123,-13.9385137],[33.7919055,-13.9381989],[33.7920377,-13.9381129],[33.792066,-13.9381539],[33.7921134,-13.9381231],[33.7922943,-13.938385],[33.7922469,-13.9384159]]},"properties":{"addr:street":"Pacific Mall","building":"yes","designation":"Supermarket","name":"Sana Supermarket","name:ja":"サナ　キャッシュアンドキャリー","shop":"supermarket","source":"Survey"}},
{"type":"Feature","geometry":{"type":"LineString","coordinates":[[33.7716564,-13.9855838],[33.7719892,-13.9855137],[33.7722749,-13.9852041],[33.7725469,-13.985045],[33.7726392,-13.985078],[33.7726246,-13.9853236],[33.7726434,-13.9855343],[33.7725612,-13.9858056],[33.7725516,-13.9861662],[33.7723456,-13.9863829],[33.7721968,-13.9866594],[33.7721252,-13.9867759],[33.7719407,-13.9872092],[33.7717194,-13.9871871],[33.7716564,-13.9855838]]},"properties":{"amenity":"marketplace","name":"Open Air Market"}},
{"type":"Feature","geometry":{"type":"LineString","coordinates":[[35.0074032,-15.7893432],[35.007523,-15.7895442],[35.0078064,-15.7902408],[35.0074195,-15.7920107],[35.007049,-15.7919878],[35.0068348,-15.7919746],[35.0068322,-15.7913803],[35.0068359,-15.7913225],[35.0068294,-15.7911745],[35.0069367,-15.7901731],[35.0071459,-15.7895691],[35.0072961,-15.7891871],[35.0074032,-15.7893432]]},"properties":{"amenity":"marketplace","name":"Blantyre Market"}},
{"type":"Feature","geometry":{"type":"LineString","coordinates":[[33.7861261,-13.964981],[33.7861093,-13.965217],[33.7858997,-13.965203],[33.7859165,-13.964967],[33.7861261,-13.964981]]},"properties":{"shop":"supermarket"}},
{"type":"Feature","geometry":{"type":"LineString","coordinates":[[34.023317,-11.4594423],[34.0229344,-11.4592902],[34.0228369,-11.4592793],[34.0227493,-11.4593217],[34.0225123,-11.4596841],[34.0225016,-11.459763],[34.0225428,-11.4598422],[34.0226706,-11.4599601],[34.0229174,-11.4600889],[34.0230729,-11.4601362],[34.023317,-11.4594423]]},"properties":{"amenity":"marketplace","name":"Mzuzu Market"}},
{"type":"Feature","geometry":{"type":"LineString","coordinates":[[34.0195941,-11.459458],[34.0189102,-11.4600364],[34.0190525,-11.4601519],[34.0194472,-11.4603719],[34.0199855,-11.4602359],[34.0200179,-11.4601915],[34.0198758,-11.4598655],[34.0197203,-11.4596104],[34.0195941,-11.459458]]},"properties":{"amenity":"marketplace","name":"Hardware Market","source":"Survey"}},
{"type":"Feature","geometry":{"type":"LineString","coordinates":[[34.0149137,-11.4522158],[34.0147232,-11.4522921],[34.0145786,-11.4524255],[34.0147688,-11.4533725],[34.0154233,-11.4543872],[34.0159734,-11.4550674],[34.0159329,-11.4545818],[34.0157317,-11.4538772],[34.015603,-11.4534461],[34.0151741,-11.4527883],[34.0150319,-11.4525832],[34.0149137,-11.4522158]]},"properties":{"amenity":"marketplace","name":"Mzuzu Wood Market","name_1":"Vigwagwa","name_2":"Zigwagwa"}},
{"type":"Feature","geometry":{"type":"LineString","coordinates":[[34.0217606,-11.4617833],[34.0217299,-11.4621183],[34.0215502,-11.4621025],[34.0215809,-11.4617674],[34.0217606,-11.4617833]]},"properties":{"name":"Peoples","shop":"supermarket","source":"Survey"}},
{"type":"Feature","geometry":{"type":"LineString","coordinates":[[34.0224465,-11.4616893],[34.0224298,-11.4618799],[34.0222811,-11.4618673],[34.0222978,-11.4616768],[34.0224465,-11.4616893]]},"properties":{"name":"Metro","shop":"supermarket"}},
{"type":"Feature","geometry":{"type":"LineString","coordinates":[[34.017553,-11.4578166],[34.0173315,-11.4577904],[34.0172998,-11.4580474],[34.0175551,-11.4580776],[34.0175711,-11.4579477],[34.0175373,-11.4579437],[34.017553,-11.4578166]]},"properties":{"name":"Tutla's","shop":"supermarket"}},
{"type":"Feature","geometry":{"type":"LineString","coordinates":[[34.0149879,-11.4603001],[34.0154518,-11.4603008],[34.0154526,-11.4597397],[34.0159527,-11.4597404],[34.0159533,-11.45927],[34.0157416,-11.4592697],[34.015742,-11.4589608],[34.0151162,-11.4589599],[34.0151151,-11.4596946],[34.0149887,-11.4596944],[34.0149879,-11.4603001]]},"properties":{"amenity":"marketplace"}},
{"type":"Feature","geometry":{"type":"LineString","coordinates":[[34.0160591,-11.4546896],[34.0163246,-11.4546949],[34.016649,-11.4546449],[34.0168475,-11.4545897],[34.0170873,-11.4544825],[34.0171372,-11.454547700000001],[34.0169602,-11.4546423],[34.0169844,-11.4546937],[34.0161797,-11.4551391],[34.0160805,-11.455147],[34.0160591,-11.4546896]]},"properties":{"amenity":"marketplace"}},
{"type":"Feature","geometry":{"type":"LineString","coordinates":[[34.0157711,-11.4590411],[34.0158544,-11.4590418],[34.0158548,-11.4589973],[34.0160978,-11.4589993],[34.0161014,-11.4585863],[34.0157751,-11.4585835],[34.0157711,-11.4590411]]},"properties":{"amenity":"marketplace"}},
{"type":"Feature","geometry":{"type":"LineString","coordinates":[[33.7765709,-13.9794797],[33.7765388,-13.9794217],[33.7765561,-13.9794126],[33.7764485,-13.9792624],[33.7764269,-13.979277],[33.7763778,-13.9792085],[33.7764697,-13.9791466],[33.7766319,-13.9793731],[33.7766806,-13.9793476],[33.7767002,-13.9793829],[33.7767309,-13.9793676],[33.776769,-13.9794398],[33.7767398,-13.9794543],[33.7767621,-13.9794946],[33.7767353,-13.9795086],[33.7767514,-13.9795376],[33.7768003,-13.9795133],[33.7768896,-13.9796825],[33.7768443,-13.979705],[33.7768616,-13.9797362],[33.7759986,-13.9801869],[33.7759765,-13.980147],[33.7759182,-13.9802122],[33.7755722,-13.9799207],[33.7758172,-13.9796468],[33.7759109,-13.9798243],[33.7765709,-13.9794797]]},"properties":{"building":"yes","name":"Sana Superstore","operator":"Sana","shop":"supermarket"}},
{"type":"Feature","geometry":{"type":"LineString","coordinates":[[35.6005044,-14.3711013],[35.6004669,-14.3711559],[35.6006061,-14.3712494],[35.6007673,-14.3713559],[35.6008692,-14.3714469],[35.6008558,-14.3714651],[35.6009336,-14.3715326],[35.6009497,-14.371517],[35.6010274,-14.3715794],[35.6010784,-14.3715118],[35.6010033,-14.3714495],[35.6009497,-14.3714001],[35.6008129,-14.3712988],[35.6006412,-14.371187],[35.6005044,-14.3711013]]},"properties":{"amenity":"marketplace"}},
{"type":"Feature","geometry":{"type":"LineString","coordinates":[[35.0294893,-15.794016],[35.0292458,-15.7944558],[35.0293638,-15.7948171],[35.0297071,-15.7950752],[35.0305332,-15.7951269],[35.0309087,-15.7948481],[35.0310589,-15.7947242],[35.0309946,-15.7943835],[35.0305145,-15.7942493],[35.0303079,-15.7940738],[35.030147,-15.7939293],[35.0298573,-15.7939293],[35.0294893,-15.794016]]},"properties":{"name":"Cold Storage","shop":"butcher"}},
{"type":"Feature","geometry":{"type":"LineString","coordinates":[[35.0357582,-15.7968096],[35.0363375,-15.7967786],[35.0365414,-15.7966031],[35.0363482,-15.7954366],[35.036241,-15.7953437],[35.0355758,-15.7954779],[35.0355436,-15.7955605],[35.0355676,-15.7957003],[35.0356034,-15.7959084],[35.0356445,-15.7961321],[35.0357582,-15.7968096]]},"properties":{"name":"Dairy Board","shop":"butcher"}},
{"type":"Feature","geometry":{"type":"LineString","coordinates":[[35.021514,-15.7985038],[35.0215096,-15.7987311],[35.0214759,-15.7987305],[35.0214649,-15.7990246],[35.0219449,-15.7990255],[35.0219507,-15.7987313],[35.0220198,-15.7987326],[35.0220241,-15.7985131],[35.021514,-15.7985038]]},"properties":{"building":"yes","name":"SANA Cash and Carry","shop":"supermarket"}},
{"type":"Feature","geometry":{"type":"LineString","coordinates":[[35.0234028,-15.7996881],[35.0234993,-15.7996887],[35.0234956,-15.8002764],[35.0233991,-15.8002758],[35.0234028,-15.7996881]]},"properties":{"building":"yes","name":"Archade","shop":"supermarket"}},
{"type":"Feature","geometry":{"type":"LineString","coordinates":[[35.0242294,-15.8002948],[35.0242314,-15.800467],[35.0242903,-15.8004663],[35.0242909,-15.8005164],[35.0249099,-15.8005099],[35.0249051,-15.8000839],[35.0248274,-15.8000847],[35.0248245,-15.7998321],[35.0246006,-15.7998344],[35.0246045,-15.8001761],[35.0243447,-15.8001788],[35.024346,-15.8002935],[35.0242294,-15.8002948]]},"properties":{"building":"yes","name":"Chipiku Stores","shop":"supermarket"}},
{"type":"Feature","geometry":{"type":"LineString","coordinates":[[35.0253822,-15.8002167],[35.0253772,-15.8004666],[35.0254932,-15.8004687],[35.0259758,-15.8004777],[35.0262147,-15.8004821],[35.026457,-15.8004866],[35.026627,-15.8004886],[35.0266229,-15.800242],[35.0253822,-15.8002167]]},"properties":{"building":"shopping_arcade","name":"Shopping Arcade","shop":"supermarket"}},
{"type":"Feature","geometry":{"type":"LineString","coordinates":[[35.0254571,-15.8063071],[35.0253847,-15.8068052],[35.0258568,-15.8068543],[35.0261304,-15.8068362],[35.0261545,-15.8063304],[35.0254571,-15.8063071]]},"properties":{"shop":"supermarket"}},
{"type":"Feature","geometry":{"type":"LineString","coordinates":[[35.0244003,-15.8064233],[35.0244862,-15.806862],[35.0252318,-15.8067975],[35.0251299,-15.8063975],[35.0244003,-15.8064233]]},"properties":{"name":"Peoples","shop":"supermarket"}},
{"type":"Feature","geometry":{"type":"LineString","coordinates":[[35.0150824,-15.8095408],[35.0152084,-15.8093395],[35.0153693,-15.8091615],[35.0159138,-15.8093937],[35.0162089,-15.8095125],[35.0159836,-15.809848],[35.0159553,-15.8098926],[35.0159094,-15.8099589],[35.0158065,-15.8101267],[35.0154927,-15.8099538],[35.0152486,-15.8097421],[35.0150824,-15.8095408]]},"properties":{"shop":"supermarket"}},
{"type":"Feature","geometry":{"type":"LineString","coordinates":[[35.3177768,-15.3870227],[35.3173047,-15.387302],[35.317372400000007,-15.387406],[35.317538,-15.3876607],[35.3176285,-15.3876087],[35.3179914,-15.3873692],[35.3177768,-15.3870227]]},"properties":{"amenity":"marketplace","building":"yes","name":"Second Hand Market"}},
{"type":"Feature","geometry":{"type":"LineString","coordinates":[[35.3313188,-15.3798082],[35.3313963,-15.3796138],[35.3314286,-15.3796258],[35.3314388,-15.3796002],[35.3314824,-15.3796164],[35.3314917,-15.379593],[35.3315165,-15.3796022],[35.3315325,-15.3795621],[35.3315928,-15.3795844],[35.3315742,-15.3796311],[35.3316497,-15.3796592],[35.3316263,-15.3797179],[35.3316634,-15.3797316],[35.3315924,-15.3799097],[35.3313188,-15.3798082]]},"properties":{"building":"house","name":"Zomba Bakery","shop":"bakery"}},
{"type":"Feature","geometry":{"type":"LineString","coordinates":[[34.2827937,-12.9268777],[34.2828368,-12.9267858],[34.2826698,-12.9267115],[34.2826267,-12.9268034],[34.2827937,-12.9268777]]},"properties":{"addr:street":"M18, KASUNGU ROAD","building":"commercial","name":"New peoples shop","shop":"supermarket","smoking":"outside"}},
{"type":"Feature","geometry":{"type":"LineString","coordinates":[[35.0063512,-15.7897225],[35.0069144,-15.7893612],[35.0071558,-15.7890153],[35.0071202,-15.7889049],[35.0070593,-15.7887004],[35.0070646,-15.7882875],[35.0066784,-15.788241],[35.0064209,-15.788623],[35.0062653,-15.7887572],[35.00626,-15.7892115],[35.0062171,-15.7896761],[35.0063512,-15.7897225]]},"properties":{"amenity":"marketplace","building":"yes","name":"Blantyre flea Market"}},
{"type":"Feature","geometry":{"type":"LineString","coordinates":[[35.3604852,-15.3801163],[35.3608315,-15.379781],[35.3611424,-15.3794502],[35.3616264,-15.3789436],[35.3615988,-15.3789161],[35.3614804,-15.3789994],[35.3610398,-15.3793655],[35.3608596,-15.3795585],[35.3608166,-15.3796084],[35.3605187,-15.3796565],[35.3605669,-15.3797517],[35.3605078,-15.3798023],[35.3604534,-15.379757],[35.3603438,-15.3798336],[35.3604852,-15.3801163]]},"properties":{"amenity":"marketplace","name":"Chinamwali Market","opening_hours":"Sunday"}},
{"type":"Feature","geometry":{"type":"LineString","coordinates":[[35.1677439,-16.4188951],[35.167707299999999,-16.4190015],[35.1676411,-16.4189806],[35.1676777,-16.4188742],[35.1677439,-16.4188951]]},"properties":{"building":"yes","building:levels":"1","building:material":"semi-permanent","building:roof":"semi-permanent","opening_hours":"sunrise-sunset","shop":"convenience","source":"2014","source:date":"2014","status":"bad"}},
{"type":"Feature","geometry":{"type":"LineString","coordinates":[[33.7934857,-13.8946285],[33.7934547,-13.8947692],[33.7937107,-13.8948224],[33.7937417,-13.8946816],[33.7934857,-13.8946285]]},"properties":{"building":"yes","name":"Peoples","shop":"supermarket"}},
{"type":"Feature","geometry":{"type":"LineString","coordinates":[[35.0553005,-15.8170491],[35.0566208,-15.817669],[35.0569493,-15.8170603],[35.057589,-15.816921],[35.057601,-15.8165803],[35.0576272,-15.8165668],[35.0576272,-15.8164474],[35.0582206,-15.8164397],[35.0582146,-15.816521],[35.0583247,-15.8165181],[35.0583239,-15.8160338],[35.0588711,-15.8160229],[35.0588671,-15.8167438],[35.0593852,-15.8167593],[35.0593861,-15.8158806],[35.0589088,-15.8158987],[35.0588981,-15.8142935],[35.0583468,-15.8142883],[35.0577192,-15.8154316],[35.0574295,-15.8153322],[35.0573853,-15.8152535],[35.0575006,-15.8151128],[35.0575904,-15.8147516],[35.0569266,-15.8139064],[35.0560749,-15.8155556],[35.0556887,-15.8163106],[35.0553005,-15.8170491]]},"properties":{"amenity":"marketplace","name":"Limbe"}},
{"type":"Feature","geometry":{"type":"LineString","coordinates":[[35.0047068,-15.7886453],[35.004728,-15.7884725],[35.0047312,-15.788448],[35.0048829,-15.7884628],[35.0049093,-15.7884659],[35.0048869,-15.7886393],[35.0048605,-15.7886361],[35.0048743,-15.7886539],[35.0048435,-15.788676],[35.0048297,-15.7886582],[35.0047068,-15.7886453]]},"properties":{"building":"commercial","name":"Victoria Superette","shop":"supermarket"}},
{"type":"Feature","geometry":{"type":"LineString","coordinates":[[35.6485251,-15.8054809],[35.6486175,-15.8054114],[35.6487115,-15.8055272],[35.6486317,-15.8055872],[35.6485732,-15.8055152],[35.6485606,-15.8055247],[35.6485251,-15.8054809]]},"properties":{"building":"yes","name":"Peoples Trading Center","shop":"supermarket"}},
{"type":"Feature","geometry":{"type":"LineString","coordinates":[[35.1893939,-15.0458534],[35.1896537,-15.0459125],[35.1896254,-15.0460285],[35.1893656,-15.0459694],[35.1893939,-15.0458534]]},"properties":{"building":"yes","shop":"supermarket"}},
{"type":"Feature","geometry":{"type":"LineString","coordinates":[[35.5045162,-16.0257718],[35.5042286,-16.026206],[35.5044552,-16.0263164],[35.5047661,-16.0264546],[35.5050349,-16.0260022],[35.5045162,-16.0257718]]},"properties":{"amenity":"marketplace","name":"Mulanje Market"}},
{"type":"Feature","geometry":{"type":"LineString","coordinates":[[35.0132685,-15.8154085],[35.0129528,-15.8150934],[35.0127548,-15.8150222],[35.0123037,-15.8154289],[35.0121761,-15.8158996],[35.012089,-15.8160782],[35.0117519,-15.8166363],[35.0121744,-15.816922],[35.0130198,-15.8157727],[35.0130547,-15.8155579],[35.0132685,-15.8154085]]},"properties":{"amenity":"marketplace","name":"charcoal market"}},
{"type":"Feature","geometry":{"type":"LineString","coordinates":[[33.9209368,-11.0541237],[33.9208384,-11.0543309],[33.9208897,-11.0543544],[33.9209881,-11.0541472],[33.9209368,-11.0541237]]},"properties":{"amenity":"marketplace","name":"Street Market"}},
{"type":"Feature","geometry":{"type":"LineString","coordinates":[[34.9587247,-14.9896092],[34.9596313,-14.9899175],[34.9598887,-14.9900548],[34.9596098,-14.9906144],[34.9595132,-14.9906844],[34.958891,-14.990731],[34.9588025,-14.990674],[34.958671,-14.9897931],[34.9587247,-14.9896092]]},"properties":{"addr:city":"Balaka","amenity":"marketplace","building":"retail","name":"Balaka Market"}},
{"type":"Feature","geometry":{"type":"LineString","coordinates":[[33.7743396,-14.2495815],[33.773464,-14.2493042],[33.7731788,-14.2501505],[33.7740544,-14.2504278],[33.7743396,-14.2495815]]},"properties":{"amenity":"marketplace","name":"Mitundu Market"}},
{"type":"Feature","geometry":{"type":"LineString","coordinates":[[34.0156197,-11.4585733],[34.015334,-11.4585737],[34.0153344,-11.4588468],[34.0156201,-11.4588464],[34.0156197,-11.4585733]]},"properties":{"amenity":"marketplace","building":"yes"}},
{"type":"Feature","geometry":{"type":"LineString","coordinates":[[33.9751173,-10.9496339],[33.9751447,-10.9495737],[33.9752077,-10.9496013],[33.9751803,-10.9496615],[33.9751173,-10.9496339]]},"properties":{"building":"yes","shop":"convenience","wheelchair":"limited"}},
{"type":"Feature","geometry":{"type":"LineString","coordinates":[[33.9754311,-10.9489466],[33.9753468,-10.9489318],[33.9753582,-10.9488692],[33.9754425,-10.948884],[33.9754311,-10.9489466]]},"properties":{"building":"yes","shop":"convenience","wheelchair":"limited"}},
{"type":"Feature","geometry":{"type":"LineString","coordinates":[[33.9755188,-10.9490287],[33.9754517,-10.9490125],[33.9754812,-10.9488947],[33.9755483,-10.9489109],[33.9755188,-10.9490287]]},"properties":{"amenity":"marketplace","building":"yes","name":"Nkombezi Market","opening_hours":"sunrise-sunset","wheelchair":"yes"}},
{"type":"Feature","geometry":{"type":"LineString","coordinates":[[33.9753297,-10.9492427],[33.9753344,-10.9491788],[33.9753773,-10.9491818],[33.9753726,-10.9492457],[33.9753297,-10.9492427]]},"properties":{"building":"yes","shop":"convenience","wheelchair":"limited"}},
{"type":"Feature","geometry":{"type":"LineString","coordinates":[[33.9750149,-10.9503634],[33.9750622,-10.9503186],[33.975097,-10.9503542],[33.9750497,-10.9503989],[33.9750149,-10.9503634]]},"properties":{"building":"yes","shop":"convenience"}},
{"type":"Feature","geometry":{"type":"LineString","coordinates":[[33.9751999,-10.9495352],[33.9752297,-10.949429],[33.9752833,-10.9494435],[33.9752536,-10.9495497],[33.9751999,-10.9495352]]},"properties":{"building":"yes","shop":"convenience"}},
{"type":"Feature","geometry":{"type":"LineString","coordinates":[[33.9749505,-10.9502883],[33.9750059,-10.9502963],[33.9749965,-10.9503595],[33.9749411,-10.9503515],[33.9749505,-10.9502883]]},"properties":{"building":"yes","shop":"convenience"}},
{"type":"Feature","geometry":{"type":"LineString","coordinates":[[33.9748566,-10.9501145],[33.9749129,-10.950079],[33.9749452,-10.9501282],[33.9748888,-10.9501638],[33.9748566,-10.9501145]]},"properties":{"building":"yes","shop":"convenience"}},
{"type":"Feature","geometry":{"type":"LineString","coordinates":[[33.9752375,-10.9493982],[33.9752791,-10.9493192],[33.9753359,-10.9493481],[33.9752943,-10.9494271],[33.9752375,-10.9493982]]},"properties":{"building":"yes","shop":"convenience"}},
{"type":"Feature","geometry":{"type":"LineString","coordinates":[[33.9750537,-10.9500816],[33.9751082,-10.9500455],[33.9751417,-10.9500942],[33.9750873,-10.9501303],[33.9750537,-10.9500816]]},"properties":{"building":"yes","shop":"convenience"}},
{"type":"Feature","geometry":{"type":"LineString","coordinates":[[33.854712,-11.0232925],[33.8549939,-11.0231441],[33.8550531,-11.0232524],[33.8548025,-11.0233844],[33.8547944,-11.0233696],[33.8547632,-11.0233861],[33.854712,-11.0232925]]},"properties":{"building":"yes","name":"Peoples (closed)","shop":"supermarket"}},
{"type":"Feature","geometry":{"type":"LineString","coordinates":[[33.9753776,-10.9488006],[33.9754064,-10.9488006],[33.9754064,-10.9488256],[33.9753776,-10.9488256],[33.9753776,-10.9488006]]},"properties":{"building":"yes","shop":"convenience"}},
{"type":"Feature","geometry":{"type":"LineString","coordinates":[[33.9753769,-10.9490409],[33.975403,-10.9490409],[33.975403,-10.949058],[33.9753769,-10.949058],[33.9753769,-10.9490409]]},"properties":{"building":"yes","shop":"convenience"}},
{"type":"Feature","geometry":{"type":"LineString","coordinates":[[33.7783617,-13.9927864],[33.7779555,-13.9940461],[33.776938,-13.9937372],[33.7771155,-13.9931869],[33.7772885,-13.9932394],[33.7775172,-13.9925301],[33.7783617,-13.9927864]]},"properties":{"amenity":"marketplace","landuse":"retail","name":"Lilongwe Central Market","opening_hours":"sunrise-sunset","operator":"Lilongwe city","wheelchair":"limited"}},
{"type":"Feature","geometry":{"type":"LineString","coordinates":[[35.0085765,-15.7869283],[35.0087171,-15.7869575],[35.0086785,-15.7870994],[35.0085529,-15.7870743],[35.0085765,-15.7869283]]},"properties":{"addr:city":"Blantyre","building":"yes","name":"Bread Talk","shop":"bakery"}},
{"type":"Feature","geometry":{"type":"LineString","coordinates":[[35.02324,-15.7786131],[35.0232644,-15.778721],[35.0234406,-15.7786841],[35.0234162,-15.7785762],[35.02324,-15.7786131]]},"properties":{"addr:city":"Blantyre","addr:street":"Chileka Road","building":"yes","name":"Peoples Express","shop":"convenience"}},
{"type":"Feature","geometry":{"type":"LineString","coordinates":[[34.5396355,-13.8821993],[34.5396702,-13.8822094],[34.5396665,-13.8822211],[34.5396319,-13.882211],[34.5396355,-13.8821993]]},"properties":{"building":"yes","shop":"convenience"}},
{"type":"Feature","geometry":{"type":"LineString","coordinates":[[34.5397225,-13.882222],[34.5397615,-13.882222],[34.5397615,-13.8822349],[34.5397225,-13.8822349],[34.5397225,-13.882222]]},"properties":{"building":"yes","shop":"convenience"}},
{"type":"Feature","geometry":{"type":"LineString","coordinates":[[34.5394722,-13.8818701],[34.5395142,-13.881873],[34.5395121,-13.8819018],[34.5394701,-13.8818989],[34.5394722,-13.8818701]]},"properties":{"building":"yes","shop":"convenience"}},
{"type":"Feature","geometry":{"type":"LineString","coordinates":[[34.5397153,-13.8819732],[34.5397795,-13.8819732],[34.5397795,-13.8819913],[34.5397153,-13.8819913],[34.5397153,-13.8819732]]},"properties":{"building":"yes","shop":"convenience"}},
{"type":"Feature","geometry":{"type":"LineString","coordinates":[[34.1059207,-14.4065733],[34.1059881,-14.4065823],[34.1059818,-14.4066266],[34.1059144,-14.4066175],[34.1059207,-14.4065733]]},"properties":{"building":"yes","name":"Treff 3000","shop":"supermarket"}},
{"type":"Feature","geometry":{"type":"LineString","coordinates":[[33.9236594,-9.9384661],[33.9236756,-9.9394929],[33.9243782,-9.9394893],[33.9250918,-9.939476],[33.9251001,-9.9390424],[33.9250868,-9.9384632],[33.9236594,-9.9384661]]},"properties":{"amenity":"marketplace","building":"yes","name":"Public Market","opening_hours":"Mo-Su 6:00-18:00","operator":"Karonga District Council"}},
{"type":"Feature","geometry":{"type":"LineString","coordinates":[[35.3186663,-15.3854949],[35.3185489,-15.3853074],[35.3185804,-15.385289],[35.3186979,-15.3854766],[35.3186663,-15.3854949]]},"properties":{"building":"yes","name":"Wonder Bakery","shop":"bakery"}},
{"type":"Feature","geometry":{"type":"LineString","coordinates":[[35.0087625,-15.7127765],[35.0088567,-15.7127547],[35.0088876,-15.7128783],[35.0087934,-15.7129002],[35.0087625,-15.7127765]]},"properties":{"building":"yes","name":"Meat shop","shop":"butcher"}},
{"type":"Feature","geometry":{"type":"LineString","coordinates":[[35.1875228,-15.9866368],[35.1875928,-15.986665],[35.1876185,-15.9866059],[35.1875486,-15.9865778],[35.1875228,-15.9866368]]},"properties":{"addr:village":"January","building":"commercial","building:condition":"average","building:material":"plaster","name":"Grocery Outlet","shop":"supermarket"}},
{"type":"Feature","geometry":{"type":"LineString","coordinates":[[35.5998563,-14.3706054],[35.5999104,-14.3705398],[35.6002083,-14.3706152],[35.6004893,-14.3706874],[35.600689,-14.370789],[35.6006788,-14.3707398],[35.6007228,-14.3707169],[35.6008616,-14.370789],[35.6008782,-14.3708044],[35.6009395,-14.3708612],[35.6009259,-14.3709202],[35.6008515,-14.3709202],[35.6007872,-14.3709891],[35.600777,-14.3710317],[35.6007364,-14.3711006],[35.6006247,-14.3710317],[35.6005773,-14.3709989],[35.5998563,-14.3706054]]},"properties":{"amenity":"marketplace","opening_hours":"06:00-23:00"}},
{"type":"Feature","geometry":{"type":"LineString","coordinates":[[35.0065882,-15.8319933],[35.0065459,-15.8322542],[35.0066627,-15.8322717],[35.0066691,-15.8322327],[35.0066487,-15.8322297],[35.0066632,-15.8321402],[35.0067,-15.8321457],[35.0067127,-15.8320673],[35.006688,-15.8320636],[35.0066968,-15.8320096],[35.0065882,-15.8319933]]},"properties":{"building":"yes","name":"Mtonga B shopping center","shop":"convenience"}},
{"type":"Feature","geometry":{"type":"LineString","coordinates":[[35.5266912,-14.8725994],[35.5268174,-14.8725023],[35.5268726,-14.8724836],[35.5269498,-14.872461],[35.5269884,-14.872445],[35.5270174,-14.8723357],[35.5270284,-14.8722864],[35.5271608,-14.872341],[35.5271939,-14.872325],[35.5272297,-14.872321],[35.527329,-14.8723677],[35.5273828,-14.8723783],[35.5274765,-14.8720291],[35.5274889,-14.8719598],[35.5275634,-14.8719732],[35.5275827,-14.8718346],[35.5275358,-14.8716667],[35.5276585,-14.8716056],[35.527744,-14.8715123],[35.5276985,-14.8713857],[35.5276461,-14.8712805],[35.5275579,-14.8711925],[35.5274931,-14.8711552],[35.5274365,-14.8711485],[35.5272188,-14.8714904],[35.5269199,-14.8720193],[35.5266912,-14.8725994]]},"properties":{"amenity":"marketplace"}},
{"type":"Feature","geometry":{"type":"LineString","coordinates":[[34.6540791,-15.393462],[34.6539645,-15.3938244],[34.6540198,-15.3938922],[34.6540339,-15.3940918],[34.654012,-15.3942355],[34.6542261,-15.3942169],[34.6542427,-15.3942918],[34.6543798,-15.3943318],[34.6544515,-15.3943215],[34.6544371,-15.3941316],[34.6546326,-15.3941076],[34.6547787,-15.3940521],[34.6550436,-15.3940431],[34.6552245,-15.3940305],[34.655412,-15.3940538],[34.6555005,-15.3938831],[34.6554969,-15.3937347],[34.6554838,-15.3936438],[34.6547675,-15.3935359],[34.6544153,-15.3934564],[34.6540828,-15.3934135],[34.6540791,-15.393462]]},"properties":{"amenity":"marketplace"}},
{"type":"Feature","geometry":{"type":"LineString","coordinates":[[35.3169041,-15.3869238],[35.3170278,-15.3871054],[35.3168773,-15.3872007],[35.3168213,-15.3871749],[35.3167267,-15.3870361],[35.3169041,-15.3869238]]},"properties":{"amenity":"marketplace","building":"retail"}},
{"type":"Feature","geometry":{"type":"LineString","coordinates":[[33.5242313,-9.6815513],[33.5244163,-9.6815151],[33.5245464,-9.6813967],[33.5244288,-9.6812338],[33.5245124,-9.6811866],[33.524452,-9.6810511],[33.524428,-9.6809973],[33.5243863,-9.6808317],[33.5239883,-9.6809008],[33.5239148,-9.6809382],[33.5240448,-9.6811127],[33.5242313,-9.6815513]]},"properties":{"amenity":"marketplace"}},
{"type":"Feature","geometry":{"type":"LineString","coordinates":[[35.0256435,-15.8063477],[35.0256301,-15.8065051],[35.0260592,-15.8065284],[35.0260646,-15.8063632],[35.0256435,-15.8063477]]},"properties":{"addr:street":"Kenyatta Drive","building":"yes","name":"Chipiku Plus","shop":"supermarket"}},
{"type":"Feature","geometry":{"type":"LineString","coordinates":[[34.5187723,-15.6044444],[34.5188231,-15.6044346],[34.5191019,-15.6043197],[34.5191397,-15.6044133],[34.5194248,-15.6043133],[34.5192235,-15.6038003],[34.5190467,-15.6038492],[34.5186076,-15.6040039],[34.5187723,-15.6044444]]},"properties":{"amenity":"marketplace","name":"Mwanza Market"}},
{"type":"Feature","geometry":{"type":"LineString","coordinates":[[34.5197644,-15.6057304],[34.5199441,-15.6056734],[34.5198875,-15.6055078],[34.5197077,-15.6055648],[34.5197644,-15.6057304]]},"properties":{"building":"yes","name":"People's","payment:cash":"yes","shop":"convenience","source":"Local knowledge"}},
{"type":"Feature","geometry":{"type":"LineString","coordinates":[[34.517332,-14.284908],[34.5181146,-14.2848602],[34.5183364,-14.2859649],[34.5172642,-14.2859769],[34.517332,-14.284908]]},"properties":{"amenity":"marketplace"}},
{"type":"Feature","geometry":{"type":"LineString","coordinates":[[34.517961,-15.6009424],[34.5178618,-15.6009921],[34.5177358,-15.6007584],[34.5178351,-15.6007088],[34.517961,-15.6009424]]},"properties":{"building":"yes","name":"Brighto Supermarket","opening_hours":"Mo-Su 08:00-20:30","payment:cash":"yes","shop":"supermarket"}},
{"type":"Feature","geometry":{"type":"LineString","coordinates":[[34.5185401,-15.6010369],[34.5186769,-15.6009926],[34.5186183,-15.6008247],[34.5184815,-15.600869],[34.5185401,-15.6010369]]},"properties":{"building":"yes","name":"Chipiku","payment:cash":"yes","shop":"convenience"}},
{"type":"Feature","geometry":{"type":"LineString","coordinates":[[34.5196098,-15.6042888],[34.5194623,-15.6043405],[34.5194248,-15.6043133],[34.5192235,-15.6038003],[34.5191994,-15.6036662],[34.5191913,-15.6033846],[34.5192799,-15.6033149],[34.5196098,-15.6042888]]},"properties":{"amenity":"marketplace","name":"Mwanza Market"}},
{"type":"Feature","geometry":{"type":"LineString","coordinates":[[34.5108337,-15.5930876],[34.510881,-15.5930631],[34.5102224,-15.5918346],[34.5101896,-15.59191],[34.5100222,-15.5921361],[34.5100641,-15.5922114],[34.510135,-15.5922132],[34.5102315,-15.592094],[34.5103097,-15.5922184],[34.510448,-15.592427],[34.5106299,-15.5928178],[34.5108337,-15.5930876]]},"properties":{"amenity":"marketplace"}},
{"type":"Feature","geometry":{"type":"LineString","coordinates":[[33.7884988,-14.0347363],[33.7879103,-14.0348562],[33.7878414,-14.0345107],[33.7883905,-14.0341812],[33.7884988,-14.0347363]]},"properties":{"amenity":"marketplace","name":"Wakawaka Market","opening_hours":"Mo-Su"}},
{"type":"Feature","geometry":{"type":"LineString","coordinates":[[35.3596607,-15.9190967],[35.3597009,-15.9190748],[35.3597249,-15.9191156],[35.3596847,-15.9191375],[35.3596607,-15.9190967]]},"properties":{"building":"shop","shop":"supermarket"}},
{"type":"Feature","geometry":{"type":"LineString","coordinates":[[35.3596728,-15.91896],[35.3597157,-15.9190181],[35.3596761,-15.9190451],[35.3596331,-15.9189871],[35.3596728,-15.91896]]},"properties":{"building":"shop","shop":"supermarket"}},
{"type":"Feature","geometry":{"type":"LineString","coordinates":[[35.3599463,-15.9193547],[35.359996,-15.919316],[35.3600309,-15.9193574],[35.3599813,-15.9193961],[35.3599463,-15.9193547]]},"properties":{"building":"shop","shop":"supermarket"}},
{"type":"Feature","geometry":{"type":"LineString","coordinates":[[35.3599477,-15.9191187],[35.3600349,-15.919276],[35.3599185,-15.9193356],[35.3598313,-15.9191783],[35.3599477,-15.9191187]]},"properties":{"building":"shop","shop":"supermarket"}},
{"type":"Feature","geometry":{"type":"LineString","coordinates":[[35.3601354,-15.9194565],[35.3601864,-15.9195107],[35.3601339,-15.9195564],[35.3600829,-15.9195022],[35.3601354,-15.9194565]]},"properties":{"building":"shop","shop":"supermarket"}},
{"type":"Feature","geometry":{"type":"LineString","coordinates":[[35.3600469,-15.9193547],[35.3601019,-15.9194063],[35.3600528,-15.9194546],[35.3599978,-15.919403],[35.3600469,-15.9193547]]},"properties":{"building":"shop","shop":"supermarket"}},
{"type":"Feature","geometry":{"type":"LineString","coordinates":[[33.8068773,-13.9711747],[33.8073731,-13.9706182],[33.8084699,-13.9715388],[33.8079741,-13.9720952],[33.8068773,-13.9711747]]},"properties":{"addr:city":"LILONGWE","addr:housenumber":"A17","addr:postcode":"265","amenity":"marketplace","name":"AREA17 MARKET PLACE","opening_hours":"24/7","operator":"AREA 17 RESIDENCE"}},
{"type":"Feature","geometry":{"type":"LineString","coordinates":[[34.2098356,-10.4525804],[34.2096558,-10.4527327],[34.2096586,-10.4528579],[34.2094594,-10.4529205],[34.2094622,-10.4530048],[34.2091108,-10.4531354],[34.2089836,-10.4530565],[34.2084828,-10.4531327],[34.2084828,-10.4533884],[34.2082947,-10.4534428],[34.2083611,-10.4536223],[34.2088978,-10.4534863],[34.2089642,-10.4536631],[34.2092823,-10.4536795],[34.2093155,-10.4538264],[34.2097194,-10.4538454],[34.2097277,-10.4539733],[34.209985,-10.4540359],[34.2101565,-10.454025],[34.210411,-10.4540386],[34.2103834,-10.4544194],[34.2105438,-10.4544113],[34.2108537,-10.4543106],[34.2108315,-10.4537829],[34.2109477,-10.4535761],[34.2109394,-10.4533421],[34.211086,-10.4531843],[34.2115757,-10.4530374],[34.2113074,-10.4526892],[34.211158,-10.4527001],[34.2110971,-10.4525097],[34.2109699,-10.4523791],[34.2108592,-10.4522485],[34.2108205,-10.4520608],[34.2107762,-10.451971],[34.2106241,-10.4519792],[34.2105687,-10.4515847],[34.2104221,-10.4515765],[34.2101372,-10.4514514],[34.2097941,-10.4514922],[34.2096447,-10.4518567],[34.2096835,-10.4521233],[34.2095286,-10.452156],[34.2095728,-10.4523437],[34.2098218,-10.4525069],[34.2098356,-10.4525804]]},"properties":{"amenity":"marketplace"}},
{"type":"Feature","geometry":{"type":"LineString","coordinates":[[34.1674714,-11.831285],[34.1678453,-11.8311861],[34.1678706,-11.8315274],[34.1678731,-11.8318192],[34.1678984,-11.8319058],[34.168002,-11.8321581],[34.1677316,-11.8322174],[34.1675371,-11.8319775],[34.1674158,-11.831656],[34.1673273,-11.8315373],[34.1673501,-11.831421],[34.1673703,-11.8313023],[34.1674714,-11.831285]]},"properties":{"addr:city":"Chintheche","addr:postcode":"265","amenity":"marketplace"}},
{"type":"Feature","geometry":{"type":"LineString","coordinates":[[34.1501084,-11.8730146],[34.150116,-11.8723791],[34.1503813,-11.8719908],[34.1502625,-11.8715234],[34.1506188,-11.8708211],[34.1508286,-11.8708013],[34.1508109,-11.8717188],[34.1507806,-11.8721961],[34.150773,-11.8726561],[34.1508084,-11.874256],[34.1504824,-11.8743376],[34.1500983,-11.874261],[34.1499239,-11.8740137],[34.1498456,-11.8737441],[34.15003,-11.873571],[34.1501084,-11.8730146]]},"properties":{"addr:city":"Chintheche","addr:postcode":"265","amenity":"marketplace"}},
{"type":"Feature","geometry":{"type":"LineString","coordinates":[[33.7911117,-13.9387717],[33.7912084,-13.9387144],[33.7911172,-13.9385695],[33.7910205,-13.9386267],[33.7911117,-13.9387717]]},"properties":{"building":"yes","designation":"Supermarket","name":"PTC Supermarket","operator":"PTC","shop":"supermarket","source":"Survey"}},
{"type":"Feature","geometry":{"type":"LineString","coordinates":[[33.685245,-13.9438927],[33.6878783,-13.943594],[33.6881747,-13.9471232],[33.6848067,-13.9473801],[33.6841393,-13.9453973],[33.685245,-13.9438927]]},"properties":{"amenity":"marketplace","name":"Buli"}},
{"type":"Feature","geometry":{"type":"LineString","coordinates":[[33.773528399999999,-13.9858691],[33.7734781,-13.9858329],[33.773466,-13.9857873],[33.773354,-13.9857652],[33.7731622,-13.9859252],[33.7730102,-13.9861375],[33.7728685,-13.9866371],[33.7726767,-13.9870932],[33.7725897,-13.9873207],[33.7724011,-13.9880951],[33.7723646,-13.9887863],[33.7724581,-13.989349],[33.773023,-13.9892365],[33.7730603,-13.989254],[33.7732427,-13.9892156],[33.773244,-13.9891747],[33.7732621,-13.989107],[33.7731227,-13.9890803],[33.7731695,-13.9886709],[33.7732071,-13.9886502],[33.7733017,-13.9886619],[33.7733513,-13.9886346],[33.7737302,-13.9886671],[33.7739098,-13.9886906],[33.7741352,-13.9888155],[33.7742364,-13.988645],[33.773919,-13.988526],[33.7737228,-13.9884993],[33.7733671,-13.9884275],[33.7734049,-13.9880522],[33.7734324,-13.9877822],[33.7734666,-13.9876248],[33.7736852,-13.9876911],[33.7740332,-13.9878206],[33.7740693,-13.9877408],[33.7734724,-13.9874891],[33.7735555,-13.9868677],[33.7736122,-13.9863791],[33.7736048,-13.9862076],[33.773528399999999,-13.9858691]]},"properties":{"amenity":"marketplace","name":"Clothing Market"}},
{"type":"Feature","geometry":{"type":"LineString","coordinates":[[33.7740259,-13.9880672],[33.7740098,-13.9881674],[33.7743638,-13.9883978],[33.7746696,-13.9885591],[33.7749815,-13.9887003],[33.7750513,-13.9885903],[33.7748533,-13.9884902],[33.7746904,-13.9884134],[33.774481,-13.9883067],[33.7743809,-13.9882397],[33.7743142,-13.9882871],[33.7741962,-13.9882039],[33.7742043,-13.9881596],[33.7741573,-13.9880919],[33.7740889,-13.9880633],[33.7740259,-13.9880672]]},"properties":{"amenity":"marketplace"}},
{"type":"Feature","geometry":{"type":"LineString","coordinates":[[35.3732612,-15.3932647],[35.3737577,-15.3927113],[35.3740618,-15.392965],[35.3738596,-15.3931905],[35.3739008,-15.3932248],[35.3736065,-15.3935527],[35.3732612,-15.3932647]]},"properties":{"addr:city":"Zomba","amenity":"marketplace","name":"Pa dick Trading Center"}},
{"type":"Feature","geometry":{"type":"LineString","coordinates":[[34.1066752,-14.049019],[34.1067903,-14.0491476],[34.1069452,-14.049017],[34.1068301,-14.0488884],[34.1066752,-14.049019]]},"properties":{"amenity":"marketplace","building":"yes"}},
{"type":"Feature","geometry":{"type":"LineString","coordinates":[[34.1069766,-14.04915],[34.1070257,-14.0492021],[34.1071611,-14.0490594],[34.1071214,-14.0490118],[34.1069766,-14.04915]]},"properties":{"building":"yes","shop":"butcher"}},
{"type":"Feature","geometry":{"type":"LineString","coordinates":[[34.1064313,-14.047701],[34.1064501,-14.0476425],[34.1066298,-14.0476867],[34.1065708,-14.0478948],[34.1063937,-14.047848],[34.1064179,-14.0477634],[34.1064635,-14.0477752],[34.1064796,-14.0477153],[34.1064313,-14.047701]]},"properties":{"building":"yes","shop":"supermarket"}},
{"type":"Feature","geometry":{"type":"LineString","coordinates":[[35.0881996,-15.8332138],[35.0883972,-15.8329764],[35.0886166,-15.8331454],[35.088419,-15.8333829],[35.0881996,-15.8332138]]},"properties":{"amenity":"marketplace","building":"shed","layer":"-1","name":"Sugarcane market"}},
{"type":"Feature","geometry":{"type":"LineString","coordinates":[[32.888311,-13.7977329],[32.8882827,-13.7978108],[32.8882508,-13.7977998],[32.8882791,-13.7977219],[32.888311,-13.7977329]]},"properties":{"building":"yes","shop":"convenience"}},
{"type":"Feature","geometry":{"type":"LineString","coordinates":[[32.8953854,-13.7921477],[32.8953332,-13.7920773],[32.8954221,-13.7920152],[32.8954742,-13.7920856],[32.8953854,-13.7921477]]},"properties":{"building":"yes","shop":"convenience"}},
{"type":"Feature","geometry":{"type":"LineString","coordinates":[[33.936334,-13.6565454],[33.9359611,-13.6574211],[33.9367658,-13.6570666],[33.936916,-13.6567773],[33.936334,-13.6565454]]},"properties":{"amenity":"marketplace","name":"Dowa Town Market","opening_hours":"Friday, Saturday"}},
{"type":"Feature","geometry":{"type":"LineString","coordinates":[[34.0346887,-13.7234633],[34.0347397,-13.7245707],[34.0361746,-13.7246905],[34.0364268,-13.7246827],[34.0353941,-13.72369],[34.0346887,-13.7234633]]},"properties":{"amenity":"marketplace","name":"Chidothi Market","opening_hours":"Friday?"}},
{"type":"Feature","geometry":{"type":"LineString","coordinates":[[34.1057521,-13.7209371],[34.1056636,-13.7206974],[34.1067177,-13.7203378],[34.1068465,-13.720541],[34.1057521,-13.7209371]]},"properties":{"amenity":"marketplace","name":"Market","opening_hours":"Closed on Friday"}},
{"type":"Feature","geometry":{"type":"LineString","coordinates":[[34.1253504,-14.1924324],[34.1255774,-14.1931588],[34.1269331,-14.1927311],[34.1266218,-14.1917659],[34.1253504,-14.1924324]]},"properties":{"amenity":"marketplace","name":"Linthipe Market","opening_hours":"Sunday"}},
{"type":"Feature","geometry":{"type":"LineString","coordinates":[[34.2974442,-11.6100657],[34.2979136,-11.6106739],[34.2985895,-11.6103626],[34.2986016,-11.6100617],[34.2983146,-11.6095809],[34.297809,-11.6098121],[34.2975408,-11.609975],[34.2974442,-11.6100657]]},"properties":{"amenity":"marketplace"}},
{"type":"Feature","geometry":{"type":"LineString","coordinates":[[34.2986767,-11.6083395],[34.2985278,-11.6082646],[34.2984715,-11.6083316],[34.2983656,-11.6083264],[34.2983173,-11.6082765],[34.2982677,-11.6082791],[34.2982543,-11.608618],[34.298721,-11.6090134],[34.2987612,-11.6089701],[34.298792,-11.6088781],[34.2988282,-11.6087665],[34.2989355,-11.6086049],[34.2989503,-11.6084761],[34.2988926,-11.6083986],[34.2986767,-11.6083395]]},"properties":{"amenity":"marketplace"}},
{"type":"Feature","geometry":{"type":"MultiPolygon","coordinates":[[[[35.1449131,-16.0675369],[35.1454388,-16.0679905],[35.1458679,-16.0675575],[35.1450418,-16.0668667],[35.1449131,-16.0675369]]]]},"properties":{"amenity":"marketplace"}},
{"type":"Feature","geometry":{"type":"MultiPolygon","coordinates":[[[[35.3058804,-15.4146943],[35.3058975,-15.4147011],[35.3059116,-15.4146663],[35.3058933,-15.4146598],[35.3058804,-15.4146943]]]]},"properties":{"amenity":"marketplace","name":"Local Market"}},
{"type":"Feature","geometry":{"type":"MultiPolygon","coordinates":[[[[35.2339308,-15.4872236],[35.2339435,-15.487241],[35.2339898,-15.4872175],[35.2339766,-15.4872006],[35.2339308,-15.4872236]]]]},"properties":{"amenity":"marketplace","name":"Local Market"}},
{"type":"Feature","geometry":{"type":"MultiPolygon","coordinates":[[[[35.3058507,-15.4146824],[35.3058695,-15.4146913],[35.3058836,-15.4146565],[35.3058653,-15.41465],[35.3058507,-15.4146824]]]]},"properties":{"amenity":"marketplace","name":"Local Market"}},
{"type":"Feature","geometry":{"type":"MultiPolygon","coordinates":[[[[35.2339491,-15.4872481],[35.2339617,-15.4872655],[35.2340061,-15.4872396],[35.2339939,-15.4872236],[35.2339491,-15.4872481]]]]},"properties":{"amenity":"marketplace","name":"Local Market"}},
{"type":"Feature","geometry":{"type":"MultiPolygon","coordinates":[[[[35.3177487,-15.3867879],[35.3182376,-15.3874773],[35.3192067,-15.3868513],[35.3187362,-15.3861605],[35.3177487,-15.3867879]]]]},"properties":{"amenity":"marketplace","landuse":"retail","name":"Zomba Market"}},
{"type":"Feature","geometry":{"type":"MultiPolygon","coordinates":[[[[35.3194521,-15.3843571],[35.3195444,-15.3845569],[35.3196955,-15.3844921],[35.3196032,-15.3842922],[35.3194521,-15.3843571]]]]},"properties":{"amenity":"marketplace","building":"retail","name":"souvenir shops"}},
{"type":"Feature","geometry":{"type":"MultiPolygon","coordinates":[[[[35.5116295,-15.4047051],[35.5116688,-15.4049103],[35.51213,-15.4049254],[35.5124474,-15.4049963],[35.5124864,-15.4045388],[35.5118923,-15.4044539],[35.5116295,-15.4047051]]]]},"properties":{"amenity":"marketplace","name":"Mphupyu Market"}},
{"type":"Feature","geometry":{"type":"MultiPolygon","coordinates":[[[[33.7919055,-13.9381989],[33.792123,-13.9385137],[33.7922551,-13.9384277],[33.7922469,-13.9384159],[33.7922943,-13.938385],[33.7921134,-13.9381231],[33.792066,-13.9381539],[33.7920377,-13.9381129],[33.7919055,-13.9381989]]]]},"properties":{"addr:street":"Pacific Mall","building":"yes","designation":"Supermarket","name":"Sana Supermarket","name:ja":"サナ　キャッシュアンドキャリー","shop":"supermarket","source":"Survey"}},
{"type":"Feature","geometry":{"type":"MultiPolygon","coordinates":[[[[33.7716564,-13.9855838],[33.7717194,-13.9871871],[33.7719407,-13.9872092],[33.7721252,-13.9867759],[33.7721968,-13.9866594],[33.7723456,-13.9863829],[33.7725516,-13.9861662],[33.7725612,-13.9858056],[33.7726434,-13.9855343],[33.7726246,-13.9853236],[33.7726392,-13.985078],[33.7725469,-13.985045],[33.7722749,-13.9852041],[33.7719892,-13.9855137],[33.7716564,-13.9855838]]]]},"properties":{"amenity":"marketplace","name":"Open Air Market"}},
{"type":"Feature","geometry":{"type":"MultiPolygon","coordinates":[[[[35.0068294,-15.7911745],[35.0068359,-15.7913225],[35.0068322,-15.7913803],[35.0068348,-15.7919746],[35.007049,-15.7919878],[35.0074195,-15.7920107],[35.0078064,-15.7902408],[35.007523,-15.7895442],[35.0074032,-15.7893432],[35.0072961,-15.7891871],[35.0071459,-15.7895691],[35.0069367,-15.7901731],[35.0068294,-15.7911745]]]]},"properties":{"amenity":"marketplace","name":"Blantyre Market"}},
{"type":"Feature","geometry":{"type":"MultiPolygon","coordinates":[[[[33.7858997,-13.965203],[33.7861093,-13.965217],[33.7861261,-13.964981],[33.7859165,-13.964967],[33.7858997,-13.965203]]]]},"properties":{"shop":"supermarket"}},
{"type":"Feature","geometry":{"type":"MultiPolygon","coordinates":[[[[34.0225016,-11.459763],[34.0225428,-11.4598422],[34.0226706,-11.4599601],[34.0229174,-11.4600889],[34.0230729,-11.4601362],[34.023317,-11.4594423],[34.0229344,-11.4592902],[34.0228369,-11.4592793],[34.0227493,-11.4593217],[34.0225123,-11.4596841],[34.0225016,-11.459763]]]]},"properties":{"amenity":"marketplace","name":"Mzuzu Market"}},
{"type":"Feature","geometry":{"type":"MultiPolygon","coordinates":[[[[34.0189102,-11.4600364],[34.0190525,-11.4601519],[34.0194472,-11.4603719],[34.0199855,-11.4602359],[34.0200179,-11.4601915],[34.0198758,-11.4598655],[34.0197203,-11.4596104],[34.0195941,-11.459458],[34.0189102,-11.4600364]]]]},"properties":{"amenity":"marketplace","name":"Hardware Market","source":"Survey"}},
{"type":"Feature","geometry":{"type":"MultiPolygon","coordinates":[[[[34.0145786,-11.4524255],[34.0147688,-11.4533725],[34.0154233,-11.4543872],[34.0159734,-11.4550674],[34.0159329,-11.4545818],[34.0157317,-11.4538772],[34.015603,-11.4534461],[34.0151741,-11.4527883],[34.0150319,-11.4525832],[34.0149137,-11.4522158],[34.0147232,-11.4522921],[34.0145786,-11.4524255]]]]},"properties":{"amenity":"marketplace","name":"Mzuzu Wood Market","name_1":"Vigwagwa","name_2":"Zigwagwa"}},
{"type":"Feature","geometry":{"type":"MultiPolygon","coordinates":[[[[34.0215502,-11.4621025],[34.0217299,-11.4621183],[34.0217606,-11.4617833],[34.0215809,-11.4617674],[34.0215502,-11.4621025]]]]},"properties":{"name":"Peoples","shop":"supermarket","source":"Survey"}},
{"type":"Feature","geometry":{"type":"MultiPolygon","coordinates":[[[[34.0222811,-11.4618673],[34.0224298,-11.4618799],[34.0224465,-11.4616893],[34.0222978,-11.4616768],[34.0222811,-11.4618673]]]]},"properties":{"name":"Metro","shop":"supermarket"}},
{"type":"Feature","geometry":{"type":"MultiPolygon","coordinates":[[[[34.0172998,-11.4580474],[34.0175551,-11.4580776],[34.0175711,-11.4579477],[34.0175373,-11.4579437],[34.017553,-11.4578166],[34.0173315,-11.4577904],[34.0172998,-11.4580474]]]]},"properties":{"name":"Tutla's","shop":"supermarket"}},
{"type":"Feature","geometry":{"type":"MultiPolygon","coordinates":[[[[34.0149879,-11.4603001],[34.0154518,-11.4603008],[34.0154526,-11.4597397],[34.0159527,-11.4597404],[34.0159533,-11.45927],[34.0157416,-11.4592697],[34.015742,-11.4589608],[34.0151162,-11.4589599],[34.0151151,-11.4596946],[34.0149887,-11.4596944],[34.0149879,-11.4603001]]]]},"properties":{"amenity":"marketplace"}},
{"type":"Feature","geometry":{"type":"MultiPolygon","coordinates":[[[[34.0160591,-11.4546896],[34.0160805,-11.455147],[34.0161797,-11.4551391],[34.0169844,-11.4546937],[34.0169602,-11.4546423],[34.0171372,-11.454547700000001],[34.0170873,-11.4544825],[34.0168475,-11.4545897],[34.016649,-11.4546449],[34.0163246,-11.4546949],[34.0160591,-11.4546896]]]]},"properties":{"amenity":"marketplace"}},
{"type":"Feature","geometry":{"type":"MultiPolygon","coordinates":[[[[34.0157711,-11.4590411],[34.0158544,-11.4590418],[34.0158548,-11.4589973],[34.0160978,-11.4589993],[34.0161014,-11.4585863],[34.0157751,-11.4585835],[34.0157711,-11.4590411]]]]},"properties":{"amenity":"marketplace"}},
{"type":"Feature","geometry":{"type":"MultiPolygon","coordinates":[[[[33.7755722,-13.9799207],[33.7759182,-13.9802122],[33.7759765,-13.980147],[33.7759986,-13.9801869],[33.7768616,-13.9797362],[33.7768443,-13.979705],[33.7768896,-13.9796825],[33.7768003,-13.9795133],[33.7767514,-13.9795376],[33.7767353,-13.9795086],[33.7767621,-13.9794946],[33.7767398,-13.9794543],[33.776769,-13.9794398],[33.7767309,-13.9793676],[33.7767002,-13.9793829],[33.7766806,-13.9793476],[33.7766319,-13.9793731],[33.7764697,-13.9791466],[33.7763778,-13.9792085],[33.7764269,-13.979277],[33.7764485,-13.9792624],[33.7765561,-13.9794126],[33.7765388,-13.9794217],[33.7765709,-13.9794797],[33.7759109,-13.9798243],[33.7758172,-13.9796468],[33.7755722,-13.9799207]]]]},"properties":{"building":"yes","name":"Sana Superstore","operator":"Sana","shop":"supermarket"}},
{"type":"Feature","geometry":{"type":"MultiPolygon","coordinates":[[[[35.6004669,-14.3711559],[35.6006061,-14.3712494],[35.6007673,-14.3713559],[35.6008692,-14.3714469],[35.6008558,-14.3714651],[35.6009336,-14.3715326],[35.6009497,-14.371517],[35.6010274,-14.3715794],[35.6010784,-14.3715118],[35.6010033,-14.3714495],[35.6009497,-14.3714001],[35.6008129,-14.3712988],[35.6006412,-14.371187],[35.6005044,-14.3711013],[35.6004669,-14.3711559]]]]},"properties":{"amenity":"marketplace"}},
{"type":"Feature","geometry":{"type":"MultiPolygon","coordinates":[[[[35.0292458,-15.7944558],[35.0293638,-15.7948171],[35.0297071,-15.7950752],[35.0305332,-15.7951269],[35.0309087,-15.7948481],[35.0310589,-15.7947242],[35.0309946,-15.7943835],[35.0305145,-15.7942493],[35.0303079,-15.7940738],[35.030147,-15.7939293],[35.0298573,-15.7939293],[35.0294893,-15.794016],[35.0292458,-15.7944558]]]]},"properties":{"name":"Cold Storage","shop":"butcher"}},
{"type":"Feature","geometry":{"type":"MultiPolygon","coordinates":[[[[35.0355436,-15.7955605],[35.0355676,-15.7957003],[35.0356034,-15.7959084],[35.0356445,-15.7961321],[35.0357582,-15.7968096],[35.0363375,-15.7967786],[35.0365414,-15.7966031],[35.0363482,-15.7954366],[35.036241,-15.7953437],[35.0355758,-15.7954779],[35.0355436,-15.7955605]]]]},"properties":{"name":"Dairy Board","shop":"butcher"}},
{"type":"Feature","geometry":{"type":"MultiPolygon","coordinates":[[[[35.0214649,-15.7990246],[35.0219449,-15.7990255],[35.0219507,-15.7987313],[35.0220198,-15.7987326],[35.0220241,-15.7985131],[35.021514,-15.7985038],[35.0215096,-15.7987311],[35.0214759,-15.7987305],[35.0214649,-15.7990246]]]]},"properties":{"building":"yes","name":"SANA Cash and Carry","shop":"supermarket"}},
{"type":"Feature","geometry":{"type":"MultiPolygon","coordinates":[[[[35.0233991,-15.8002758],[35.0234956,-15.8002764],[35.0234993,-15.7996887],[35.0234028,-15.7996881],[35.0233991,-15.8002758]]]]},"properties":{"building":"yes","name":"Archade","shop":"supermarket"}},
{"type":"Feature","geometry":{"type":"MultiPolygon","coordinates":[[[[35.0242294,-15.8002948],[35.0242314,-15.800467],[35.0242903,-15.8004663],[35.0242909,-15.8005164],[35.0249099,-15.8005099],[35.0249051,-15.8000839],[35.0248274,-15.8000847],[35.0248245,-15.7998321],[35.0246006,-15.7998344],[35.0246045,-15.8001761],[35.0243447,-15.8001788],[35.024346,-15.8002935],[35.0242294,-15.8002948]]]]},"properties":{"building":"yes","name":"Chipiku Stores","shop":"supermarket"}},
{"type":"Feature","geometry":{"type":"MultiPolygon","coordinates":[[[[35.0253772,-15.8004666],[35.0254932,-15.8004687],[35.0259758,-15.8004777],[35.0262147,-15.8004821],[35.026457,-15.8004866],[35.026627,-15.8004886],[35.0266229,-15.800242],[35.0253822,-15.8002167],[35.0253772,-15.8004666]]]]},"properties":{"building":"shopping_arcade","name":"Shopping Arcade","shop":"supermarket"}},
{"type":"Feature","geometry":{"type":"MultiPolygon","coordinates":[[[[35.0253847,-15.8068052],[35.0258568,-15.8068543],[35.0261304,-15.8068362],[35.0261545,-15.8063304],[35.0254571,-15.8063071],[35.0253847,-15.8068052]]]]},"properties":{"shop":"supermarket"}},
{"type":"Feature","geometry":{"type":"MultiPolygon","coordinates":[[[[35.0244003,-15.8064233],[35.0244862,-15.806862],[35.0252318,-15.8067975],[35.0251299,-15.8063975],[35.0244003,-15.8064233]]]]},"properties":{"name":"Peoples","shop":"supermarket"}},
{"type":"Feature","geometry":{"type":"MultiPolygon","coordinates":[[[[35.0150824,-15.8095408],[35.0152486,-15.8097421],[35.0154927,-15.8099538],[35.0158065,-15.8101267],[35.0159094,-15.8099589],[35.0159553,-15.8098926],[35.0159836,-15.809848],[35.0162089,-15.8095125],[35.0159138,-15.8093937],[35.0153693,-15.8091615],[35.0152084,-15.8093395],[35.0150824,-15.8095408]]]]},"properties":{"shop":"supermarket"}},
{"type":"Feature","geometry":{"type":"MultiPolygon","coordinates":[[[[35.3173047,-15.387302],[35.317372400000007,-15.387406],[35.317538,-15.3876607],[35.3176285,-15.3876087],[35.3179914,-15.3873692],[35.3177768,-15.3870227],[35.3173047,-15.387302]]]]},"properties":{"amenity":"marketplace","building":"yes","name":"Second Hand Market"}},
{"type":"Feature","geometry":{"type":"MultiPolygon","coordinates":[[[[35.3313188,-15.3798082],[35.3315924,-15.3799097],[35.3316634,-15.3797316],[35.3316263,-15.3797179],[35.3316497,-15.3796592],[35.3315742,-15.3796311],[35.3315928,-15.3795844],[35.3315325,-15.3795621],[35.3315165,-15.3796022],[35.3314917,-15.379593],[35.3314824,-15.3796164],[35.3314388,-15.3796002],[35.3314286,-15.3796258],[35.3313963,-15.3796138],[35.3313188,-15.3798082]]]]},"properties":{"building":"house","name":"Zomba Bakery","shop":"bakery"}},
{"type":"Feature","geometry":{"type":"MultiPolygon","coordinates":[[[[34.2826267,-12.9268034],[34.2827937,-12.9268777],[34.2828368,-12.9267858],[34.2826698,-12.9267115],[34.2826267,-12.9268034]]]]},"properties":{"addr:street":"M18, KASUNGU ROAD","building":"commercial","name":"New peoples shop","shop":"supermarket","smoking":"outside"}},
{"type":"Feature","geometry":{"type":"MultiPolygon","coordinates":[[[[35.0062171,-15.7896761],[35.0063512,-15.7897225],[35.0069144,-15.7893612],[35.0071558,-15.7890153],[35.0071202,-15.7889049],[35.0070593,-15.7887004],[35.0070646,-15.7882875],[35.0066784,-15.788241],[35.0064209,-15.788623],[35.0062653,-15.7887572],[35.00626,-15.7892115],[35.0062171,-15.7896761]]]]},"properties":{"amenity":"marketplace","building":"yes","name":"Blantyre flea Market"}},
{"type":"Feature","geometry":{"type":"MultiPolygon","coordinates":[[[[35.3603438,-15.3798336],[35.3604852,-15.3801163],[35.3608315,-15.379781],[35.3611424,-15.3794502],[35.3616264,-15.3789436],[35.3615988,-15.3789161],[35.3614804,-15.3789994],[35.3610398,-15.3793655],[35.3608596,-15.3795585],[35.3608166,-15.3796084],[35.3605187,-15.3796565],[35.3605669,-15.3797517],[35.3605078,-15.3798023],[35.3604534,-15.379757],[35.3603438,-15.3798336]]]]},"properties":{"amenity":"marketplace","name":"Chinamwali Market","opening_hours":"Sunday"}},
{"type":"Feature","geometry":{"type":"MultiPolygon","coordinates":[[[[35.1676411,-16.4189806],[35.167707299999999,-16.4190015],[35.1677439,-16.4188951],[35.1676777,-16.4188742],[35.1676411,-16.4189806]]]]},"properties":{"building":"yes","building:levels":"1","building:material":"semi-permanent","building:roof":"semi-permanent","opening_hours":"sunrise-sunset","shop":"convenience","source":"2014","source:date":"2014","status":"bad"}},
{"type":"Feature","geometry":{"type":"MultiPolygon","coordinates":[[[[33.7934547,-13.8947692],[33.7937107,-13.8948224],[33.7937417,-13.8946816],[33.7934857,-13.8946285],[33.7934547,-13.8947692]]]]},"properties":{"building":"yes","name":"Peoples","shop":"supermarket"}},
{"type":"Feature","geometry":{"type":"MultiPolygon","coordinates":[[[[35.0553005,-15.8170491],[35.0566208,-15.817669],[35.0569493,-15.8170603],[35.057589,-15.816921],[35.057601,-15.8165803],[35.0576272,-15.8165668],[35.0576272,-15.8164474],[35.0582206,-15.8164397],[35.0582146,-15.816521],[35.0583247,-15.8165181],[35.0583239,-15.8160338],[35.0588711,-15.8160229],[35.0588671,-15.8167438],[35.0593852,-15.8167593],[35.0593861,-15.8158806],[35.0589088,-15.8158987],[35.0588981,-15.8142935],[35.0583468,-15.8142883],[35.0577192,-15.8154316],[35.0574295,-15.8153322],[35.0573853,-15.8152535],[35.0575006,-15.8151128],[35.0575904,-15.8147516],[35.0569266,-15.8139064],[35.0560749,-15.8155556],[35.0556887,-15.8163106],[35.0553005,-15.8170491]]]]},"properties":{"amenity":"marketplace","name":"Limbe"}},
{"type":"Feature","geometry":{"type":"MultiPolygon","coordinates":[[[[35.0047068,-15.7886453],[35.0048297,-15.7886582],[35.0048435,-15.788676],[35.0048743,-15.7886539],[35.0048605,-15.7886361],[35.0048869,-15.7886393],[35.0049093,-15.7884659],[35.0048829,-15.7884628],[35.0047312,-15.788448],[35.004728,-15.7884725],[35.0047068,-15.7886453]]]]},"properties":{"building":"commercial","name":"Victoria Superette","shop":"supermarket"}},
{"type":"Feature","geometry":{"type":"MultiPolygon","coordinates":[[[[35.6485251,-15.8054809],[35.6485606,-15.8055247],[35.6485732,-15.8055152],[35.6486317,-15.8055872],[35.6487115,-15.8055272],[35.6486175,-15.8054114],[35.6485251,-15.8054809]]]]},"properties":{"building":"yes","name":"Peoples Trading Center","shop":"supermarket"}},
{"type":"Feature","geometry":{"type":"MultiPolygon","coordinates":[[[[35.1893656,-15.0459694],[35.1896254,-15.0460285],[35.1896537,-15.0459125],[35.1893939,-15.0458534],[35.1893656,-15.0459694]]]]},"properties":{"building":"yes","shop":"supermarket"}},
{"type":"Feature","geometry":{"type":"MultiPolygon","coordinates":[[[[35.5042286,-16.026206],[35.5044552,-16.0263164],[35.5047661,-16.0264546],[35.5050349,-16.0260022],[35.5045162,-16.0257718],[35.5042286,-16.026206]]]]},"properties":{"amenity":"marketplace","name":"Mulanje Market"}},
{"type":"Feature","geometry":{"type":"MultiPolygon","coordinates":[[[[35.0117519,-15.8166363],[35.0121744,-15.816922],[35.0130198,-15.8157727],[35.0130547,-15.8155579],[35.0132685,-15.8154085],[35.0129528,-15.8150934],[35.0127548,-15.8150222],[35.0123037,-15.8154289],[35.0121761,-15.8158996],[35.012089,-15.8160782],[35.0117519,-15.8166363]]]]},"properties":{"amenity":"marketplace","name":"charcoal market"}},
{"type":"Feature","geometry":{"type":"MultiPolygon","coordinates":[[[[33.8551122,-11.0232558],[33.8552517,-11.0235296],[33.8562441,-11.0230347],[33.855992,-11.0228082],[33.8551122,-11.0232558]]]]},"properties":{"amenity":"marketplace","area":"yes","name":"Open Street Market"}},
{"type":"Feature","geometry":{"type":"MultiPolygon","coordinates":[[[[33.9208384,-11.0543309],[33.9208897,-11.0543544],[33.9209881,-11.0541472],[33.9209368,-11.0541237],[33.9208384,-11.0543309]]]]},"properties":{"amenity":"marketplace","name":"Street Market"}},
{"type":"Feature","geometry":{"type":"MultiPolygon","coordinates":[[[[34.958671,-14.9897931],[34.9588025,-14.990674],[34.958891,-14.990731],[34.9595132,-14.9906844],[34.9596098,-14.9906144],[34.9598887,-14.9900548],[34.9596313,-14.9899175],[34.9587247,-14.9896092],[34.958671,-14.9897931]]]]},"properties":{"addr:city":"Balaka","amenity":"marketplace","building":"retail","name":"Balaka Market"}},
{"type":"Feature","geometry":{"type":"MultiPolygon","coordinates":[[[[33.7731788,-14.2501505],[33.7740544,-14.2504278],[33.7743396,-14.2495815],[33.773464,-14.2493042],[33.7731788,-14.2501505]]]]},"properties":{"amenity":"marketplace","name":"Mitundu Market"}},
{"type":"Feature","geometry":{"type":"MultiPolygon","coordinates":[[[[34.015334,-11.4585737],[34.0153344,-11.4588468],[34.0156201,-11.4588464],[34.0156197,-11.4585733],[34.015334,-11.4585737]]]]},"properties":{"amenity":"marketplace","building":"yes"}},
{"type":"Feature","geometry":{"type":"MultiPolygon","coordinates":[[[[33.7969132,-13.9687986],[33.7969663,-13.9688077],[33.7969351,-13.9689793],[33.7973509,-13.9690522],[33.7974206,-13.9686487],[33.7970076,-13.968581],[33.796977,-13.9687487],[33.7969239,-13.9687396],[33.7969132,-13.9687986]],[[33.7970549,-13.9689009],[33.7970688,-13.968826],[33.7971219,-13.9688353],[33.7971329,-13.9687762],[33.7970797,-13.9687669],[33.7970921,-13.9687004],[33.797301,-13.9687343],[33.797266,-13.9689414],[33.7970549,-13.9689009]]]]},"properties":{"amenity":"marketplace","building":"yes","name":"Area13 Market","operator":"Lilongwe city"}},
{"type":"Feature","geometry":{"type":"MultiPolygon","coordinates":[[[[33.9751173,-10.9496339],[33.9751803,-10.9496615],[33.9752077,-10.9496013],[33.9751447,-10.9495737],[33.9751173,-10.9496339]]]]},"properties":{"building":"yes","shop":"convenience","wheelchair":"limited"}},
{"type":"Feature","geometry":{"type":"MultiPolygon","coordinates":[[[[33.9753468,-10.9489318],[33.9754311,-10.9489466],[33.9754425,-10.948884],[33.9753582,-10.9488692],[33.9753468,-10.9489318]]]]},"properties":{"building":"yes","shop":"convenience","wheelchair":"limited"}},
{"type":"Feature","geometry":{"type":"MultiPolygon","coordinates":[[[[33.9754517,-10.9490125],[33.9755188,-10.9490287],[33.9755483,-10.9489109],[33.9754812,-10.9488947],[33.9754517,-10.9490125]]]]},"properties":{"amenity":"marketplace","building":"yes","name":"Nkombezi Market","opening_hours":"sunrise-sunset","wheelchair":"yes"}},
{"type":"Feature","geometry":{"type":"MultiPolygon","coordinates":[[[[33.9753297,-10.9492427],[33.9753726,-10.9492457],[33.9753773,-10.9491818],[33.9753344,-10.9491788],[33.9753297,-10.9492427]]]]},"properties":{"building":"yes","shop":"convenience","wheelchair":"limited"}},
{"type":"Feature","geometry":{"type":"MultiPolygon","coordinates":[[[[33.9750149,-10.9503634],[33.9750497,-10.9503989],[33.975097,-10.9503542],[33.9750622,-10.9503186],[33.9750149,-10.9503634]]]]},"properties":{"building":"yes","shop":"convenience"}},
{"type":"Feature","geometry":{"type":"MultiPolygon","coordinates":[[[[33.9751999,-10.9495352],[33.9752536,-10.9495497],[33.9752833,-10.9494435],[33.9752297,-10.949429],[33.9751999,-10.9495352]]]]},"properties":{"building":"yes","shop":"convenience"}},
{"type":"Feature","geometry":{"type":"MultiPolygon","coordinates":[[[[33.9749411,-10.9503515],[33.9749965,-10.9503595],[33.9750059,-10.9502963],[33.9749505,-10.9502883],[33.9749411,-10.9503515]]]]},"properties":{"building":"yes","shop":"convenience"}},
{"type":"Feature","geometry":{"type":"MultiPolygon","coordinates":[[[[33.9748566,-10.9501145],[33.9748888,-10.9501638],[33.9749452,-10.9501282],[33.9749129,-10.950079],[33.9748566,-10.9501145]]]]},"properties":{"building":"yes","shop":"convenience"}},
{"type":"Feature","geometry":{"type":"MultiPolygon","coordinates":[[[[33.9752375,-10.9493982],[33.9752943,-10.9494271],[33.9753359,-10.9493481],[33.9752791,-10.9493192],[33.9752375,-10.9493982]]]]},"properties":{"building":"yes","shop":"convenience"}},
{"type":"Feature","geometry":{"type":"MultiPolygon","coordinates":[[[[33.9750537,-10.9500816],[33.9750873,-10.9501303],[33.9751417,-10.9500942],[33.9751082,-10.9500455],[33.9750537,-10.9500816]]]]},"properties":{"building":"yes","shop":"convenience"}},
{"type":"Feature","geometry":{"type":"MultiPolygon","coordinates":[[[[33.854712,-11.0232925],[33.8547632,-11.0233861],[33.8547944,-11.0233696],[33.8548025,-11.0233844],[33.8550531,-11.0232524],[33.8549939,-11.0231441],[33.854712,-11.0232925]]]]},"properties":{"building":"yes","name":"Peoples (closed)","shop":"supermarket"}},
{"type":"Feature","geometry":{"type":"MultiPolygon","coordinates":[[[[33.9753776,-10.9488256],[33.9754064,-10.9488256],[33.9754064,-10.9488006],[33.9753776,-10.9488006],[33.9753776,-10.9488256]]]]},"properties":{"building":"yes","shop":"convenience"}},
{"type":"Feature","geometry":{"type":"MultiPolygon","coordinates":[[[[33.9753769,-10.949058],[33.975403,-10.949058],[33.975403,-10.9490409],[33.9753769,-10.9490409],[33.9753769,-10.949058]]]]},"properties":{"building":"yes","shop":"convenience"}},
{"type":"Feature","geometry":{"type":"MultiPolygon","coordinates":[[[[33.776938,-13.9937372],[33.7779555,-13.9940461],[33.7783617,-13.9927864],[33.7775172,-13.9925301],[33.7772885,-13.9932394],[33.7771155,-13.9931869],[33.776938,-13.9937372]]]]},"properties":{"amenity":"marketplace","landuse":"retail","name":"Lilongwe Central Market","opening_hours":"sunrise-sunset","operator":"Lilongwe city","wheelchair":"limited"}},
{"type":"Feature","geometry":{"type":"MultiPolygon","coordinates":[[[[35.0085529,-15.7870743],[35.0086785,-15.7870994],[35.0087171,-15.7869575],[35.0085765,-15.7869283],[35.0085529,-15.7870743]]]]},"properties":{"addr:city":"Blantyre","building":"yes","name":"Bread Talk","shop":"bakery"}},
{"type":"Feature","geometry":{"type":"MultiPolygon","coordinates":[[[[35.02324,-15.7786131],[35.0232644,-15.778721],[35.0234406,-15.7786841],[35.0234162,-15.7785762],[35.02324,-15.7786131]]]]},"properties":{"addr:city":"Blantyre","addr:street":"Chileka Road","building":"yes","name":"Peoples Express","shop":"convenience"}},
{"type":"Feature","geometry":{"type":"MultiPolygon","coordinates":[[[[34.5396319,-13.882211],[34.5396665,-13.8822211],[34.5396702,-13.8822094],[34.5396355,-13.8821993],[34.5396319,-13.882211]]]]},"properties":{"building":"yes","shop":"convenience"}},
{"type":"Feature","geometry":{"type":"MultiPolygon","coordinates":[[[[34.5397225,-13.8822349],[34.5397615,-13.8822349],[34.5397615,-13.882222],[34.5397225,-13.882222],[34.5397225,-13.8822349]]]]},"properties":{"building":"yes","shop":"convenience"}},
{"type":"Feature","geometry":{"type":"MultiPolygon","coordinates":[[[[34.5394701,-13.8818989],[34.5395121,-13.8819018],[34.5395142,-13.881873],[34.5394722,-13.8818701],[34.5394701,-13.8818989]]]]},"properties":{"building":"yes","shop":"convenience"}},
{"type":"Feature","geometry":{"type":"MultiPolygon","coordinates":[[[[34.5397153,-13.8819913],[34.5397795,-13.8819913],[34.5397795,-13.8819732],[34.5397153,-13.8819732],[34.5397153,-13.8819913]]]]},"properties":{"building":"yes","shop":"convenience"}},
{"type":"Feature","geometry":{"type":"MultiPolygon","coordinates":[[[[34.1059144,-14.4066175],[34.1059818,-14.4066266],[34.1059881,-14.4065823],[34.1059207,-14.4065733],[34.1059144,-14.4066175]]]]},"properties":{"building":"yes","name":"Treff 3000","shop":"supermarket"}},
{"type":"Feature","geometry":{"type":"MultiPolygon","coordinates":[[[[33.9236594,-9.9384661],[33.9236756,-9.9394929],[33.9243782,-9.9394893],[33.9250918,-9.939476],[33.9251001,-9.9390424],[33.9250868,-9.9384632],[33.9236594,-9.9384661]]]]},"properties":{"amenity":"marketplace","building":"yes","name":"Public Market","opening_hours":"Mo-Su 6:00-18:00","operator":"Karonga District Council"}},
{"type":"Feature","geometry":{"type":"MultiPolygon","coordinates":[[[[35.3185489,-15.3853074],[35.3186663,-15.3854949],[35.3186979,-15.3854766],[35.3185804,-15.385289],[35.3185489,-15.3853074]]]]},"properties":{"building":"yes","name":"Wonder Bakery","shop":"bakery"}},
{"type":"Feature","geometry":{"type":"MultiPolygon","coordinates":[[[[35.0087625,-15.7127765],[35.0087934,-15.7129002],[35.0088876,-15.7128783],[35.0088567,-15.7127547],[35.0087625,-15.7127765]]]]},"properties":{"building":"yes","name":"Meat shop","shop":"butcher"}},
{"type":"Feature","geometry":{"type":"MultiPolygon","coordinates":[[[[35.1875228,-15.9866368],[35.1875928,-15.986665],[35.1876185,-15.9866059],[35.1875486,-15.9865778],[35.1875228,-15.9866368]]]]},"properties":{"addr:village":"January","building":"commercial","building:condition":"average","building:material":"plaster","name":"Grocery Outlet","shop":"supermarket"}},
{"type":"Feature","geometry":{"type":"MultiPolygon","coordinates":[[[[35.5998563,-14.3706054],[35.6005773,-14.3709989],[35.6006247,-14.3710317],[35.6007364,-14.3711006],[35.600777,-14.3710317],[35.6007872,-14.3709891],[35.6008515,-14.3709202],[35.6009259,-14.3709202],[35.6009395,-14.3708612],[35.6008782,-14.3708044],[35.6008616,-14.370789],[35.6007228,-14.3707169],[35.6006788,-14.3707398],[35.600689,-14.370789],[35.6004893,-14.3706874],[35.6002083,-14.3706152],[35.5999104,-14.3705398],[35.5998563,-14.3706054]]]]},"properties":{"amenity":"marketplace","opening_hours":"06:00-23:00"}},
{"type":"Feature","geometry":{"type":"MultiPolygon","coordinates":[[[[35.0065459,-15.8322542],[35.0066627,-15.8322717],[35.0066691,-15.8322327],[35.0066487,-15.8322297],[35.0066632,-15.8321402],[35.0067,-15.8321457],[35.0067127,-15.8320673],[35.006688,-15.8320636],[35.0066968,-15.8320096],[35.0065882,-15.8319933],[35.0065459,-15.8322542]]]]},"properties":{"building":"yes","name":"Mtonga B shopping center","shop":"convenience"}},
{"type":"Feature","geometry":{"type":"MultiPolygon","coordinates":[[[[35.5266912,-14.8725994],[35.5268174,-14.8725023],[35.5268726,-14.8724836],[35.5269498,-14.872461],[35.5269884,-14.872445],[35.5270174,-14.8723357],[35.5270284,-14.8722864],[35.5271608,-14.872341],[35.5271939,-14.872325],[35.5272297,-14.872321],[35.527329,-14.8723677],[35.5273828,-14.8723783],[35.5274765,-14.8720291],[35.5274889,-14.8719598],[35.5275634,-14.8719732],[35.5275827,-14.8718346],[35.5275358,-14.8716667],[35.5276585,-14.8716056],[35.527744,-14.8715123],[35.5276985,-14.8713857],[35.5276461,-14.8712805],[35.5275579,-14.8711925],[35.5274931,-14.8711552],[35.5274365,-14.8711485],[35.5272188,-14.8714904],[35.5269199,-14.8720193],[35.5266912,-14.8725994]]]]},"properties":{"amenity":"marketplace"}},
{"type":"Feature","geometry":{"type":"MultiPolygon","coordinates":[[[[34.6539645,-15.3938244],[34.6540198,-15.3938922],[34.6540339,-15.3940918],[34.654012,-15.3942355],[34.6542261,-15.3942169],[34.6542427,-15.3942918],[34.6543798,-15.3943318],[34.6544515,-15.3943215],[34.6544371,-15.3941316],[34.6546326,-15.3941076],[34.6547787,-15.3940521],[34.6550436,-15.3940431],[34.6552245,-15.3940305],[34.655412,-15.3940538],[34.6555005,-15.3938831],[34.6554969,-15.3937347],[34.6554838,-15.3936438],[34.6547675,-15.3935359],[34.6544153,-15.3934564],[34.6540828,-15.3934135],[34.6540791,-15.393462],[34.6539645,-15.3938244]]]]},"properties":{"amenity":"marketplace"}},
{"type":"Feature","geometry":{"type":"MultiPolygon","coordinates":[[[[35.3167267,-15.3870361],[35.3168213,-15.3871749],[35.3168773,-15.3872007],[35.3170278,-15.3871054],[35.3169041,-15.3869238],[35.3167267,-15.3870361]]]]},"properties":{"amenity":"marketplace","building":"retail"}},
{"type":"Feature","geometry":{"type":"MultiPolygon","coordinates":[[[[33.5239148,-9.6809382],[33.5240448,-9.6811127],[33.5242313,-9.6815513],[33.5244163,-9.6815151],[33.5245464,-9.6813967],[33.5244288,-9.6812338],[33.5245124,-9.6811866],[33.524452,-9.6810511],[33.524428,-9.6809973],[33.5243863,-9.6808317],[33.5239883,-9.6809008],[33.5239148,-9.6809382]]]]},"properties":{"amenity":"marketplace"}},
{"type":"Feature","geometry":{"type":"MultiPolygon","coordinates":[[[[35.0256301,-15.8065051],[35.0260592,-15.8065284],[35.0260646,-15.8063632],[35.0256435,-15.8063477],[35.0256301,-15.8065051]]]]},"properties":{"addr:street":"Kenyatta Drive","building":"yes","name":"Chipiku Plus","shop":"supermarket"}},
{"type":"Feature","geometry":{"type":"MultiPolygon","coordinates":[[[[34.5186076,-15.6040039],[34.5187723,-15.6044444],[34.5188231,-15.6044346],[34.5191019,-15.6043197],[34.5191397,-15.6044133],[34.5194248,-15.6043133],[34.5192235,-15.6038003],[34.5190467,-15.6038492],[34.5186076,-15.6040039]]]]},"properties":{"amenity":"marketplace","name":"Mwanza Market"}},
{"type":"Feature","geometry":{"type":"MultiPolygon","coordinates":[[[[34.5197077,-15.6055648],[34.5197644,-15.6057304],[34.5199441,-15.6056734],[34.5198875,-15.6055078],[34.5197077,-15.6055648]]]]},"properties":{"building":"yes","name":"People's","payment:cash":"yes","shop":"convenience","source":"Local knowledge"}},
{"type":"Feature","geometry":{"type":"MultiPolygon","coordinates":[[[[34.5172642,-14.2859769],[34.5183364,-14.2859649],[34.5181146,-14.2848602],[34.517332,-14.284908],[34.5172642,-14.2859769]]]]},"properties":{"amenity":"marketplace"}},
{"type":"Feature","geometry":{"type":"MultiPolygon","coordinates":[[[[34.5177358,-15.6007584],[34.5178618,-15.6009921],[34.517961,-15.6009424],[34.5178351,-15.6007088],[34.5177358,-15.6007584]]]]},"properties":{"building":"yes","name":"Brighto Supermarket","opening_hours":"Mo-Su 08:00-20:30","payment:cash":"yes","shop":"supermarket"}},
{"type":"Feature","geometry":{"type":"MultiPolygon","coordinates":[[[[34.5184815,-15.600869],[34.5185401,-15.6010369],[34.5186769,-15.6009926],[34.5186183,-15.6008247],[34.5184815,-15.600869]]]]},"properties":{"building":"yes","name":"Chipiku","payment:cash":"yes","shop":"convenience"}},
{"type":"Feature","geometry":{"type":"MultiPolygon","coordinates":[[[[34.5191913,-15.6033846],[34.5191994,-15.6036662],[34.5192235,-15.6038003],[34.5194248,-15.6043133],[34.5194623,-15.6043405],[34.5196098,-15.6042888],[34.5192799,-15.6033149],[34.5191913,-15.6033846]]]]},"properties":{"amenity":"marketplace","name":"Mwanza Market"}},
{"type":"Feature","geometry":{"type":"MultiPolygon","coordinates":[[[[34.5100222,-15.5921361],[34.5100641,-15.5922114],[34.510135,-15.5922132],[34.5102315,-15.592094],[34.5103097,-15.5922184],[34.510448,-15.592427],[34.5106299,-15.5928178],[34.5108337,-15.5930876],[34.510881,-15.5930631],[34.5102224,-15.5918346],[34.5101896,-15.59191],[34.5100222,-15.5921361]]]]},"properties":{"amenity":"marketplace"}},
{"type":"Feature","geometry":{"type":"MultiPolygon","coordinates":[[[[33.7878414,-14.0345107],[33.7879103,-14.0348562],[33.7884988,-14.0347363],[33.7883905,-14.0341812],[33.7878414,-14.0345107]]]]},"properties":{"amenity":"marketplace","name":"Wakawaka Market","opening_hours":"Mo-Su"}},
{"type":"Feature","geometry":{"type":"MultiPolygon","coordinates":[[[[35.3596607,-15.9190967],[35.3596847,-15.9191375],[35.3597249,-15.9191156],[35.3597009,-15.9190748],[35.3596607,-15.9190967]]]]},"properties":{"building":"shop","shop":"supermarket"}},
{"type":"Feature","geometry":{"type":"MultiPolygon","coordinates":[[[[35.3596331,-15.9189871],[35.3596761,-15.9190451],[35.3597157,-15.9190181],[35.3596728,-15.91896],[35.3596331,-15.9189871]]]]},"properties":{"building":"shop","shop":"supermarket"}},
{"type":"Feature","geometry":{"type":"MultiPolygon","coordinates":[[[[35.3599463,-15.9193547],[35.3599813,-15.9193961],[35.3600309,-15.9193574],[35.359996,-15.919316],[35.3599463,-15.9193547]]]]},"properties":{"building":"shop","shop":"supermarket"}},
{"type":"Feature","geometry":{"type":"MultiPolygon","coordinates":[[[[35.3598313,-15.9191783],[35.3599185,-15.9193356],[35.3600349,-15.919276],[35.3599477,-15.9191187],[35.3598313,-15.9191783]]]]},"properties":{"building":"shop","shop":"supermarket"}},
{"type":"Feature","geometry":{"type":"MultiPolygon","coordinates":[[[[35.3600829,-15.9195022],[35.3601339,-15.9195564],[35.3601864,-15.9195107],[35.3601354,-15.9194565],[35.3600829,-15.9195022]]]]},"properties":{"building":"shop","shop":"supermarket"}},
{"type":"Feature","geometry":{"type":"MultiPolygon","coordinates":[[[[35.3599978,-15.919403],[35.3600528,-15.9194546],[35.3601019,-15.9194063],[35.3600469,-15.9193547],[35.3599978,-15.919403]]]]},"properties":{"building":"shop","shop":"supermarket"}},
{"type":"Feature","geometry":{"type":"MultiPolygon","coordinates":[[[[33.8068773,-13.9711747],[33.8079741,-13.9720952],[33.8084699,-13.9715388],[33.8073731,-13.9706182],[33.8068773,-13.9711747]]]]},"properties":{"addr:city":"LILONGWE","addr:housenumber":"A17","addr:postcode":"265","amenity":"marketplace","name":"AREA17 MARKET PLACE","opening_hours":"24/7","operator":"AREA 17 RESIDENCE"}},
{"type":"Feature","geometry":{"type":"MultiPolygon","coordinates":[[[[34.2082947,-10.4534428],[34.2083611,-10.4536223],[34.2088978,-10.4534863],[34.2089642,-10.4536631],[34.2092823,-10.4536795],[34.2093155,-10.4538264],[34.2097194,-10.4538454],[34.2097277,-10.4539733],[34.209985,-10.4540359],[34.2101565,-10.454025],[34.210411,-10.4540386],[34.2103834,-10.4544194],[34.2105438,-10.4544113],[34.2108537,-10.4543106],[34.2108315,-10.4537829],[34.2109477,-10.4535761],[34.2109394,-10.4533421],[34.211086,-10.4531843],[34.2115757,-10.4530374],[34.2113074,-10.4526892],[34.211158,-10.4527001],[34.2110971,-10.4525097],[34.2109699,-10.4523791],[34.2108592,-10.4522485],[34.2108205,-10.4520608],[34.2107762,-10.451971],[34.2106241,-10.4519792],[34.2105687,-10.4515847],[34.2104221,-10.4515765],[34.2101372,-10.4514514],[34.2097941,-10.4514922],[34.2096447,-10.4518567],[34.2096835,-10.4521233],[34.2095286,-10.452156],[34.2095728,-10.4523437],[34.2098218,-10.4525069],[34.2098356,-10.4525804],[34.2096558,-10.4527327],[34.2096586,-10.4528579],[34.2094594,-10.4529205],[34.2094622,-10.4530048],[34.2091108,-10.4531354],[34.2089836,-10.4530565],[34.2084828,-10.4531327],[34.2084828,-10.4533884],[34.2082947,-10.4534428]]]]},"properties":{"amenity":"marketplace"}},
{"type":"Feature","geometry":{"type":"MultiPolygon","coordinates":[[[[34.1673273,-11.8315373],[34.1674158,-11.831656],[34.1675371,-11.8319775],[34.1677316,-11.8322174],[34.168002,-11.8321581],[34.1678984,-11.8319058],[34.1678731,-11.8318192],[34.1678706,-11.8315274],[34.1678453,-11.8311861],[34.1674714,-11.831285],[34.1673703,-11.8313023],[34.1673501,-11.831421],[34.1673273,-11.8315373]]]]},"properties":{"addr:city":"Chintheche","addr:postcode":"265","amenity":"marketplace"}},
{"type":"Feature","geometry":{"type":"MultiPolygon","coordinates":[[[[34.1498456,-11.8737441],[34.1499239,-11.8740137],[34.1500983,-11.874261],[34.1504824,-11.8743376],[34.1508084,-11.874256],[34.150773,-11.8726561],[34.1507806,-11.8721961],[34.1508109,-11.8717188],[34.1508286,-11.8708013],[34.1506188,-11.8708211],[34.1502625,-11.8715234],[34.1503813,-11.8719908],[34.150116,-11.8723791],[34.1501084,-11.8730146],[34.15003,-11.873571],[34.1498456,-11.8737441]]]]},"properties":{"addr:city":"Chintheche","addr:postcode":"265","amenity":"marketplace"}},
{"type":"Feature","geometry":{"type":"MultiPolygon","coordinates":[[[[33.7910205,-13.9386267],[33.7911117,-13.9387717],[33.7912084,-13.9387144],[33.7911172,-13.9385695],[33.7910205,-13.9386267]]]]},"properties":{"building":"yes","designation":"Supermarket","name":"PTC Supermarket","operator":"PTC","shop":"supermarket","source":"Survey"}},
{"type":"Feature","geometry":{"type":"MultiPolygon","coordinates":[[[[33.6841393,-13.9453973],[33.6848067,-13.9473801],[33.6881747,-13.9471232],[33.6878783,-13.943594],[33.685245,-13.9438927],[33.6841393,-13.9453973]]]]},"properties":{"amenity":"marketplace","name":"Buli"}},
{"type":"Feature","geometry":{"type":"MultiPolygon","coordinates":[[[[33.7723646,-13.9887863],[33.7724581,-13.989349],[33.773023,-13.9892365],[33.7730603,-13.989254],[33.7732427,-13.9892156],[33.773244,-13.9891747],[33.7732621,-13.989107],[33.7731227,-13.9890803],[33.7731695,-13.9886709],[33.7732071,-13.9886502],[33.7733017,-13.9886619],[33.7733513,-13.9886346],[33.7737302,-13.9886671],[33.7739098,-13.9886906],[33.7741352,-13.9888155],[33.7742364,-13.988645],[33.773919,-13.988526],[33.7737228,-13.9884993],[33.7733671,-13.9884275],[33.7734049,-13.9880522],[33.7734324,-13.9877822],[33.7734666,-13.9876248],[33.7736852,-13.9876911],[33.7740332,-13.9878206],[33.7740693,-13.9877408],[33.7734724,-13.9874891],[33.7735555,-13.9868677],[33.7736122,-13.9863791],[33.7736048,-13.9862076],[33.773528399999999,-13.9858691],[33.7734781,-13.9858329],[33.773466,-13.9857873],[33.773354,-13.9857652],[33.7731622,-13.9859252],[33.7730102,-13.9861375],[33.7728685,-13.9866371],[33.7726767,-13.9870932],[33.7725897,-13.9873207],[33.7724011,-13.9880951],[33.7723646,-13.9887863]]]]},"properties":{"amenity":"marketplace","name":"Clothing Market"}},
{"type":"Feature","geometry":{"type":"MultiPolygon","coordinates":[[[[33.7740098,-13.9881674],[33.7743638,-13.9883978],[33.7746696,-13.9885591],[33.7749815,-13.9887003],[33.7750513,-13.9885903],[33.7748533,-13.9884902],[33.7746904,-13.9884134],[33.774481,-13.9883067],[33.7743809,-13.9882397],[33.7743142,-13.9882871],[33.7741962,-13.9882039],[33.7742043,-13.9881596],[33.7741573,-13.9880919],[33.7740889,-13.9880633],[33.7740259,-13.9880672],[33.7740098,-13.9881674]]]]},"properties":{"amenity":"marketplace"}},
{"type":"Feature","geometry":{"type":"MultiPolygon","coordinates":[[[[35.3732612,-15.3932647],[35.3736065,-15.3935527],[35.3739008,-15.3932248],[35.3738596,-15.3931905],[35.3740618,-15.392965],[35.3737577,-15.3927113],[35.3732612,-15.3932647]]]]},"properties":{"addr:city":"Zomba","amenity":"marketplace","name":"Pa dick Trading Center"}},
{"type":"Feature","geometry":{"type":"MultiPolygon","coordinates":[[[[34.1066752,-14.049019],[34.1067903,-14.0491476],[34.1069452,-14.049017],[34.1068301,-14.0488884],[34.1066752,-14.049019]]]]},"properties":{"amenity":"marketplace","building":"yes"}},
{"type":"Feature","geometry":{"type":"MultiPolygon","coordinates":[[[[34.1069766,-14.04915],[34.1070257,-14.0492021],[34.1071611,-14.0490594],[34.1071214,-14.0490118],[34.1069766,-14.04915]]]]},"properties":{"building":"yes","shop":"butcher"}},
{"type":"Feature","geometry":{"type":"MultiPolygon","coordinates":[[[[34.1063937,-14.047848],[34.1065708,-14.0478948],[34.1066298,-14.0476867],[34.1064501,-14.0476425],[34.1064313,-14.047701],[34.1064796,-14.0477153],[34.1064635,-14.0477752],[34.1064179,-14.0477634],[34.1063937,-14.047848]]]]},"properties":{"building":"yes","shop":"supermarket"}},
{"type":"Feature","geometry":{"type":"MultiPolygon","coordinates":[[[[35.0881996,-15.8332138],[35.088419,-15.8333829],[35.0886166,-15.8331454],[35.0883972,-15.8329764],[35.0881996,-15.8332138]]]]},"properties":{"amenity":"marketplace","building":"shed","layer":"-1","name":"Sugarcane market"}},
{"type":"Feature","geometry":{"type":"MultiPolygon","coordinates":[[[[32.8882508,-13.7977998],[32.8882827,-13.7978108],[32.888311,-13.7977329],[32.8882791,-13.7977219],[32.8882508,-13.7977998]]]]},"properties":{"building":"yes","shop":"convenience"}},
{"type":"Feature","geometry":{"type":"MultiPolygon","coordinates":[[[[32.8953332,-13.7920773],[32.8953854,-13.7921477],[32.8954742,-13.7920856],[32.8954221,-13.7920152],[32.8953332,-13.7920773]]]]},"properties":{"building":"yes","shop":"convenience"}},
{"type":"Feature","geometry":{"type":"MultiPolygon","coordinates":[[[[33.9359611,-13.6574211],[33.9367658,-13.6570666],[33.936916,-13.6567773],[33.936334,-13.6565454],[33.9359611,-13.6574211]]]]},"properties":{"amenity":"marketplace","name":"Dowa Town Market","opening_hours":"Friday, Saturday"}},
{"type":"Feature","geometry":{"type":"MultiPolygon","coordinates":[[[[34.0346887,-13.7234633],[34.0347397,-13.7245707],[34.0361746,-13.7246905],[34.0364268,-13.7246827],[34.0353941,-13.72369],[34.0346887,-13.7234633]]]]},"properties":{"amenity":"marketplace","name":"Chidothi Market","opening_hours":"Friday?"}},
{"type":"Feature","geometry":{"type":"MultiPolygon","coordinates":[[[[34.1056636,-13.7206974],[34.1057521,-13.7209371],[34.1068465,-13.720541],[34.1067177,-13.7203378],[34.1056636,-13.7206974]]]]},"properties":{"amenity":"marketplace","name":"Market","opening_hours":"Closed on Friday"}},
{"type":"Feature","geometry":{"type":"MultiPolygon","coordinates":[[[[34.1253504,-14.1924324],[34.1255774,-14.1931588],[34.1269331,-14.1927311],[34.1266218,-14.1917659],[34.1253504,-14.1924324]]]]},"properties":{"amenity":"marketplace","name":"Linthipe Market","opening_hours":"Sunday"}},
{"type":"Feature","geometry":{"type":"MultiPolygon","coordinates":[[[[34.2974442,-11.6100657],[34.2979136,-11.6106739],[34.2985895,-11.6103626],[34.2986016,-11.6100617],[34.2983146,-11.6095809],[34.297809,-11.6098121],[34.2975408,-11.609975],[34.2974442,-11.6100657]]]]},"properties":{"amenity":"marketplace"}},
{"type":"Feature","geometry":{"type":"MultiPolygon","coordinates":[[[[34.2982543,-11.608618],[34.298721,-11.6090134],[34.2987612,-11.6089701],[34.298792,-11.6088781],[34.2988282,-11.6087665],[34.2989355,-11.6086049],[34.2989503,-11.6084761],[34.2988926,-11.6083986],[34.2986767,-11.6083395],[34.2985278,-11.6082646],[34.2984715,-11.6083316],[34.2983656,-11.6083264],[34.2983173,-11.6082765],[34.2982677,-11.6082791],[34.2982543,-11.608618]]]]},"properties":{"amenity":"marketplace"}}
]}
