{"type":"FeatureCollection","features":[
{"type":"Feature","geometry":{"type":"Point","coordinates":[30.1044117,-1.9814931]},"properties":{"amenity":"marketplace","check_date":"2023-04-09","name":"Kicukiro Market Isoko","name:es":"Mercado de Kicukiro Isoko","name:fr":"Marché de Kicukiro Isoko"}},
{"type":"Feature","geometry":{"type":"Point","coordinates":[30.0528662,-2.0916321]},"properties":{"shop":"convenience"}},
{"type":"Feature","geometry":{"type":"Point","coordinates":[30.0870791,-2.141539]},"properties":{"name":"market (isocko)","shop":"supermarket"}},
{"type":"Feature","geometry":{"type":"Point","coordinates":[29.3510896,-2.070101]},"properties":{"shop":"supermarket"}},
{"type":"Feature","geometry":{"type":"Point","coordinates":[30.0805112,-1.965418]},"properties":{"check_date":"2023-06-10","name":"Frulep","shop":"supermarket"}},
{"type":"Feature","geometry":{"type":"Point","coordinates":[30.0599043,-1.9460621]},"properties":{"check_date":"2024-03-28","name":"Simba Supermarket Centenary","name:fr":"Supermarché Simba Centenary","opening_hours":"Mo-Su 07:00-23:00","phone":"+250788307200","shop":"supermarket","website":"https://simbasupermarket.rw/","wheelchair":"limited"}},
{"type":"Feature","geometry":{"type":"Point","coordinates":[30.0615291,-1.9458437]},"properties":{"brand":"Simba","check_date":"2023-04-10","name":"Simba","name:fr":"Simba","shop":"supermarket","wheelchair":"yes"}},
{"type":"Feature","geometry":{"type":"Point","coordinates":[30.0557803,-1.9458715]},"properties":{"check_date":"2023-04-10","name":"La Galette (German Bakery&Butchery)","shop":"supermarket"}},
{"type":"Feature","geometry":{"type":"Point","coordinates":[29.7397936,-2.60483]},"properties":{"name":"Bookshop Caritas","shop":"supermarket"}},
{"type":"Feature","geometry":{"type":"Point","coordinates":[29.3269878,-2.0754043]},"properties":{"name":"animal market","shop":"supermarket"}},
{"type":"Feature","geometry":{"type":"Point","coordinates":[29.7384674,-2.6048721]},"properties":{"amenity":"marketplace","name":"Huye City Market","name:fr":"Marché de Butare"}},
{"type":"Feature","geometry":{"type":"Point","coordinates":[30.0590945,-1.9280683]},"properties":{"name":"Mercado Municipal","shop":"supermarket"}},
{"type":"Feature","geometry":{"type":"Point","coordinates":[30.0595921,-1.9445235]},"properties":{"check_date":"2023-04-10","name":"Chez Venant","name:fr":"Chez Venant","shop":"convenience"}},
{"type":"Feature","geometry":{"type":"Point","coordinates":[30.092958,-1.9474594]},"properties":{"check_date":"2023-04-08","name":"Crystal","name:fr":"Crystal","shop":"convenience"}},
{"type":"Feature","geometry":{"type":"Point","coordinates":[30.0736294,-1.9321314]},"properties":{"check_date":"2023-05-21","name":"Seth's Store","shop":"convenience"}},
{"type":"Feature","geometry":{"type":"Point","coordinates":[30.0582802,-1.9470783]},"properties":{"check_date":"2023-04-10","name":"City market","shop":"supermarket"}},
{"type":"Feature","geometry":{"type":"Point","coordinates":[30.0545962,-1.9736174]},"properties":{"check_date":"2023-04-14","shop":"bakery"}},
{"type":"Feature","geometry":{"type":"Point","coordinates":[30.1259984,-1.9702144]},"properties":{"amenity":"marketplace","name":"Remera Modern Market","name:fr":"Marché Moderne de Remera"}},
{"type":"Feature","geometry":{"type":"Point","coordinates":[30.0594786,-1.9437009]},"properties":{"check_date":"2023-04-10","name":"Nakumatt","shop":"supermarket","wheelchair":"yes"}},
{"type":"Feature","geometry":{"type":"Point","coordinates":[30.0737382,-1.9326861]},"properties":{"check_date":"2023-05-21","name":"Millenium Supermarket","shop":"convenience"}},
{"type":"Feature","geometry":{"type":"Point","coordinates":[30.3840739,-1.7666761]},"properties":{"name":"Small shop","operator":"John Bosco","shop":"convenience"}},
{"type":"Feature","geometry":{"type":"Point","coordinates":[30.0971824,-1.9254398]},"properties":{"name":"Woodlands","shop":"supermarket"}},
{"type":"Feature","geometry":{"type":"Point","coordinates":[30.1086255,-1.9601494]},"properties":{"check_date":"2023-06-10","name":"Ndolis Supermarket","name:fr":"Supermarché Ndolis","shop":"supermarket"}},
{"type":"Feature","geometry":{"type":"Point","coordinates":[30.1073227,-1.9607941]},"properties":{"check_date":"2023-06-10","name":"Carrefour supermarket","shop":"supermarket"}},
{"type":"Feature","geometry":{"type":"Point","coordinates":[30.1113357,-1.9583009]},"properties":{"check_date":"2023-06-10","name":"Elis Supermarket","name:fr":"Supermarché Elis","shop":"supermarket"}},
{"type":"Feature","geometry":{"type":"Point","coordinates":[30.4339218,-1.9511127]},"properties":{"addr:city":"Rwamagana","name":"Rwamagana Supermarket","shop":"supermarket"}},
{"type":"Feature","geometry":{"type":"Point","coordinates":[30.4430548,-1.9486961]},"properties":{"addr:city":"Rwamagana","name":"One Stop Shopping Supermarket","shop":"supermarket"}},
{"type":"Feature","geometry":{"type":"Point","coordinates":[30.5063979,-1.9017149]},"properties":{"addr:city":"Kayonza","name":"Welcome Supermarket","shop":"supermarket"}},
{"type":"Feature","geometry":{"type":"Point","coordinates":[30.5079672,-1.9002136]},"properties":{"addr:city":"Kayonza","name":"One Stop Shopping Supermarket","shop":"supermarket"}},
{"type":"Feature","geometry":{"type":"Point","coordinates":[30.5007807,-1.8013396]},"properties":{"name":"New Life & Nutrition","shop":"convenience"}},
{"type":"Feature","geometry":{"type":"Point","coordinates":[30.5187389,-1.8170427]},"properties":{"name":"alimentation shop dalslma","shop":"supermarket"}},
{"type":"Feature","geometry":{"type":"Point","coordinates":[30.5016338,-1.8005594]},"properties":{"shop":"convenience"}},
{"type":"Feature","geometry":{"type":"Point","coordinates":[30.5020502,-1.8007546]},"properties":{"shop":"butcher"}},
{"type":"Feature","geometry":{"type":"Point","coordinates":[30.5011502,-1.801043]},"properties":{"shop":"convenience"}},
{"type":"Feature","geometry":{"type":"Point","coordinates":[30.5021266,-1.8010795]},"properties":{"shop":"butcher"}},
{"type":"Feature","geometry":{"type":"Point","coordinates":[30.500548,-1.8015084]},"properties":{"shop":"convenience"}},
{"type":"Feature","geometry":{"type":"Point","coordinates":[30.5008537,-1.801878]},"properties":{"shop":"convenience"}},
{"type":"Feature","geometry":{"type":"Point","coordinates":[29.742081,-2.6013516]},"properties":{"shop":"supermarket"}},
{"type":"Feature","geometry":{"type":"Point","coordinates":[30.0749175,-1.9521379]},"properties":{"check_date":"2023-04-10","name":"Bbrood!","shop":"bakery"}},
{"type":"Feature","geometry":{"type":"Point","coordinates":[30.081514,-1.9595709]},"properties":{"amenity":"marketplace"}},
{"type":"Feature","geometry":{"type":"Point","coordinates":[30.0578131,-1.9520922]},"properties":{"addr:city":"Kigali","addr:street":"KN 61 Street","addr:street:fr":"Rue KN 61","amenity":"restaurant","check_date":"2023-04-19","cuisine":"german","name":"German Butchery","name:fr":"Boucherie Allemande","shop":"butcher","website":"https://gbdelivering.com"}},
{"type":"Feature","geometry":{"type":"Point","coordinates":[29.6417671,-1.5067455]},"properties":{"name":"Agriculture Product Market","shop":"supermarket"}},
{"type":"Feature","geometry":{"type":"Point","coordinates":[30.1032182,-1.9407028]},"properties":{"name:en":"German Butcher","shop":"convenience"}},
{"type":"Feature","geometry":{"type":"Point","coordinates":[29.7541008,-2.4682123]},"properties":{"amenity":"marketplace","name":"Rugogwe"}},
{"type":"Feature","geometry":{"type":"Point","coordinates":[29.3522565,-2.0708552]},"properties":{"name":"Future Supermarket","name:en":"Future Supermarket","shop":"supermarket"}},
{"type":"Feature","geometry":{"type":"Point","coordinates":[29.539929,-2.0642067]},"properties":{"name":"Fromagerie","name:fr":"Fromagerie","shop":"convenience"}},
{"type":"Feature","geometry":{"type":"Point","coordinates":[30.0543095,-1.974026]},"properties":{"addr:housenumber":"2","addr:postcode":"+250","addr:street":"Rue KN 174","addr:street:fr":"Rue KN 174","check_date":"2023-04-14","email":"tiersofjoy@gmail.com","name":"Tiers of Joy","name:fr":"Tiers of Joy","opening_hours":"24/7","phone":"0783590365","shop":"bakery"}},
{"type":"Feature","geometry":{"type":"Point","coordinates":[30.0763628,-1.9127495]},"properties":{"name":"Nakumatt Kagugu","name:en":"Nakumatt Kagugu","shop":"supermarket"}},
{"type":"Feature","geometry":{"type":"Point","coordinates":[29.8496442,-2.6749906]},"properties":{"GlobalID":"{3CA58B03-364B-4FD2-82E2-99BF52CB5583}","Shape_Area":"0.0","Shape_Leng":"0.0","amenity":"marketplace","area_featu":"0","comment":"Large market selling fruits and vegetables."}},
{"type":"Feature","geometry":{"type":"Point","coordinates":[30.0768071,-1.9611102]},"properties":{"check_date":"2023-04-10","name":"Delistore","name:fr":"Delistore","shop":"supermarket"}},
{"type":"Feature","geometry":{"type":"Point","coordinates":[30.0573279,-1.9466465]},"properties":{"check_date":"2023-04-10","name":"Eastgate Supermarket","name:en":"Eastgate Supermarket","shop":"supermarket"}},
{"type":"Feature","geometry":{"type":"Point","coordinates":[30.09825,-1.9537773]},"properties":{"check_date":"2023-04-07","internet_access":"wlan","name":"Simba Supermarket and Cafe","name:en":"Simba Supermarket and Cafe","payment:mastercard":"yes","payment:visa":"yes","shop":"supermarket","wheelchair":"yes"}},
{"type":"Feature","geometry":{"type":"Point","coordinates":[30.0609472,-1.9462186]},"properties":{"addr:housenumber":"1","addr:postcode":"2079","addr:street":"KN 3 Avenue","addr:street:fr":"Avenue KN 3","check_date":"2023-04-10","email":"sharmasupermarketkigali@gmail.com","internet_access":"wlan","name":"Sharma Supermarket","name:fr":"Supermarché Sharma","opening_hours":"Mo-Sa 08:00-21:15; Su 21:30-19:30","operator":"Sharma","phone":"+250788442279","shop":"supermarket","website":"http://sharmasupermarket.com"}},
{"type":"Feature","geometry":{"type":"Point","coordinates":[30.1069614,-1.959698]},"properties":{"check_date":"2023-06-10","name":"Sawa City Kisimenti","operator":"Sawa City","payment:cash":"yes","payment:credit_cards":"yes","shop":"supermarket"}},
{"type":"Feature","geometry":{"type":"Point","coordinates":[30.106887,-1.9596709]},"properties":{"check_date":"2023-06-10","name":"Brood","shop":"bakery"}},
{"type":"Feature","geometry":{"type":"Point","coordinates":[30.1247191,-1.9498572]},"properties":{"check_date":"2023-04-07","name":"Simba","shop":"supermarket"}},
{"type":"Feature","geometry":{"type":"Point","coordinates":[30.0585655,-1.9429309]},"properties":{"check_date":"2023-04-10","name":"Patel","shop":"supermarket"}},
{"type":"Feature","geometry":{"type":"Point","coordinates":[30.1250161,-1.9495589]},"properties":{"check_date":"2023-04-07","shop":"supermarket"}},
{"type":"Feature","geometry":{"type":"Point","coordinates":[30.0931452,-1.9529619]},"properties":{"check_date":"2023-04-08","name":"Simba","operator":"Simba","shop":"supermarket"}},
{"type":"Feature","geometry":{"type":"Point","coordinates":[29.3507065,-2.0692124]},"properties":{"amenity":"marketplace","name":"Karongi Market","name:fr":"Marché de Karongi","name:rn":"Isoko Karongi","name:rw":"Isoko Karongi"}},
{"type":"Feature","geometry":{"type":"Point","coordinates":[29.4098644,-2.5298036]},"properties":{"name":"Forest Honey & Bee Products","shop":"convenience"}},
{"type":"Feature","geometry":{"type":"Point","coordinates":[30.0635958,-1.9434698]},"properties":{"check_date":"2023-04-10","name":"Economat","shop":"supermarket"}},
{"type":"Feature","geometry":{"type":"Point","coordinates":[30.739589,-2.2905039]},"properties":{"shop":"convenience"}},
{"type":"Feature","geometry":{"type":"Point","coordinates":[30.6612308,-2.2687656]},"properties":{"shop":"convenience"}},
{"type":"Feature","geometry":{"type":"Point","coordinates":[30.6210137,-2.2715347]},"properties":{"shop":"convenience"}},
{"type":"Feature","geometry":{"type":"Point","coordinates":[30.7084022,-2.2857102]},"properties":{"name":"Rwanteru","shop":"butcher"}},
{"type":"Feature","geometry":{"type":"Point","coordinates":[30.5860287,-2.2778833]},"properties":{"shop":"convenience"}},
{"type":"Feature","geometry":{"type":"Point","coordinates":[30.5613336,-2.2825315]},"properties":{"shop":"convenience"}},
{"type":"Feature","geometry":{"type":"Point","coordinates":[30.5872031,-2.2775108]},"properties":{"shop":"convenience"}},
{"type":"Feature","geometry":{"type":"Point","coordinates":[30.6588912,-2.267411]},"properties":{"shop":"convenience"}},
{"type":"Feature","geometry":{"type":"Point","coordinates":[30.5577802,-1.9887051]},"properties":{"shop":"convenience"}},
{"type":"Feature","geometry":{"type":"Point","coordinates":[30.5177459,-1.946412]},"properties":{"shop":"convenience"}},
{"type":"Feature","geometry":{"type":"Point","coordinates":[30.5003137,-1.9278276]},"properties":{"shop":"convenience"}},
{"type":"Feature","geometry":{"type":"Point","coordinates":[30.5413143,-1.9637891]},"properties":{"shop":"convenience"}},
{"type":"Feature","geometry":{"type":"Point","coordinates":[30.5239282,-1.956856]},"properties":{"shop":"convenience"}},
{"type":"Feature","geometry":{"type":"Point","coordinates":[30.5072922,-1.901417]},"properties":{"shop":"convenience"}},
{"type":"Feature","geometry":{"type":"Point","coordinates":[30.3828756,-1.949172]},"properties":{"shop":"convenience"}},
{"type":"Feature","geometry":{"type":"Point","coordinates":[30.1881741,-1.9849464]},"properties":{"shop":"convenience"}},
{"type":"Feature","geometry":{"type":"Point","coordinates":[30.1757791,-1.9711875]},"properties":{"name":"One Stop Shop","name:fr":"Guichet Unique","shop":"convenience"}},
{"type":"Feature","geometry":{"type":"Point","coordinates":[30.0450305,-1.9408193]},"properties":{"check_date":"2023-04-17","shop":"convenience"}},
{"type":"Feature","geometry":{"type":"Point","coordinates":[30.0448855,-1.9404823]},"properties":{"check_date":"2023-04-14","shop":"convenience"}},
{"type":"Feature","geometry":{"type":"Point","coordinates":[30.0445416,-1.9396039]},"properties":{"check_date":"2023-04-14","name":"Asifiwe","shop":"supermarket"}},
{"type":"Feature","geometry":{"type":"Point","coordinates":[30.0440324,-1.9406562]},"properties":{"check_date":"2023-04-14","name":"Sina Gerard","shop":"convenience"}},
{"type":"Feature","geometry":{"type":"Point","coordinates":[30.0343048,-1.9435583]},"properties":{"shop":"convenience"}},
{"type":"Feature","geometry":{"type":"Point","coordinates":[29.6825198,-1.5580797]},"properties":{"shop":"convenience"}},
{"type":"Feature","geometry":{"type":"Point","coordinates":[29.6619837,-1.5235082]},"properties":{"shop":"convenience"}},
{"type":"Feature","geometry":{"type":"Point","coordinates":[29.9092554,-1.7028146]},"properties":{"shop":"convenience"}},
{"type":"Feature","geometry":{"type":"Point","coordinates":[29.8868045,-1.6632416]},"properties":{"shop":"supermarket"}},
{"type":"Feature","geometry":{"type":"Point","coordinates":[29.8872028,-1.6628642]},"properties":{"shop":"convenience"}},
{"type":"Feature","geometry":{"type":"Point","coordinates":[29.7774549,-1.648742]},"properties":{"shop":"convenience"}},
{"type":"Feature","geometry":{"type":"Point","coordinates":[29.7356678,-1.5848866]},"properties":{"shop":"convenience"}},
{"type":"Feature","geometry":{"type":"Point","coordinates":[29.7160801,-1.5713194]},"properties":{"shop":"butcher"}},
{"type":"Feature","geometry":{"type":"Point","coordinates":[29.7159226,-1.5712523]},"properties":{"shop":"convenience"}},
{"type":"Feature","geometry":{"type":"Point","coordinates":[29.6546607,-1.513804]},"properties":{"shop":"convenience"}},
{"type":"Feature","geometry":{"type":"Point","coordinates":[29.651841,-1.5100025]},"properties":{"shop":"convenience"}},
{"type":"Feature","geometry":{"type":"Point","coordinates":[29.6716501,-1.5386661]},"properties":{"shop":"convenience"}},
{"type":"Feature","geometry":{"type":"Point","coordinates":[29.7009238,-1.5600624]},"properties":{"shop":"convenience"}},
{"type":"Feature","geometry":{"type":"Point","coordinates":[29.6722695,-1.546188]},"properties":{"shop":"convenience"}},
{"type":"Feature","geometry":{"type":"Point","coordinates":[29.6641096,-1.5300553]},"properties":{"shop":"convenience"}},
{"type":"Feature","geometry":{"type":"Point","coordinates":[29.6623741,-1.5241495]},"properties":{"shop":"convenience"}},
{"type":"Feature","geometry":{"type":"Point","coordinates":[29.6625443,-1.5244438]},"properties":{"shop":"convenience"}},
{"type":"Feature","geometry":{"type":"Point","coordinates":[29.6419568,-1.5107812]},"properties":{"shop":"convenience"}},
{"type":"Feature","geometry":{"type":"Point","coordinates":[29.6115199,-1.5039316]},"properties":{"shop":"convenience"}},
{"type":"Feature","geometry":{"type":"Point","coordinates":[29.6069033,-1.5059069]},"properties":{"shop":"convenience"}},
{"type":"Feature","geometry":{"type":"Point","coordinates":[29.6106436,-1.5048464]},"properties":{"shop":"convenience"}},
{"type":"Feature","geometry":{"type":"Point","coordinates":[29.6086627,-1.5051562]},"properties":{"shop":"convenience"}},
{"type":"Feature","geometry":{"type":"Point","coordinates":[29.5769037,-1.5217276]},"properties":{"shop":"convenience"}},
{"type":"Feature","geometry":{"type":"Point","coordinates":[29.4867662,-1.6249884]},"properties":{"shop":"convenience"}},
{"type":"Feature","geometry":{"type":"Point","coordinates":[29.5491058,-1.5667997]},"properties":{"shop":"convenience"}},
{"type":"Feature","geometry":{"type":"Point","coordinates":[29.5564722,-1.5505336]},"properties":{"shop":"convenience"}},
{"type":"Feature","geometry":{"type":"Point","coordinates":[29.552063,-1.5611939]},"properties":{"name":"La boutique Urugo","shop":"convenience"}},
{"type":"Feature","geometry":{"type":"Point","coordinates":[29.4250741,-1.6243919]},"properties":{"shop":"convenience"}},
{"type":"Feature","geometry":{"type":"Point","coordinates":[29.4055467,-1.6368411]},"properties":{"shop":"convenience"}},
{"type":"Feature","geometry":{"type":"Point","coordinates":[29.4602756,-1.6202554]},"properties":{"shop":"convenience"}},
{"type":"Feature","geometry":{"type":"Point","coordinates":[29.4534304,-1.612507]},"properties":{"shop":"convenience"}},
{"type":"Feature","geometry":{"type":"Point","coordinates":[29.4157016,-1.6317636]},"properties":{"shop":"convenience"}},
{"type":"Feature","geometry":{"type":"Point","coordinates":[29.3553946,-1.6778302]},"properties":{"shop":"convenience"}},
{"type":"Feature","geometry":{"type":"Point","coordinates":[29.3481671,-1.6959889]},"properties":{"shop":"convenience"}},
{"type":"Feature","geometry":{"type":"Point","coordinates":[29.3425727,-1.6985784]},"properties":{"shop":"convenience"}},
{"type":"Feature","geometry":{"type":"Point","coordinates":[29.327657,-1.7027154]},"properties":{"shop":"convenience"}},
{"type":"Feature","geometry":{"type":"Point","coordinates":[29.3173893,-1.6991577]},"properties":{"shop":"convenience"}},
{"type":"Feature","geometry":{"type":"Point","coordinates":[29.2746186,-1.6896434]},"properties":{"shop":"convenience"}},
{"type":"Feature","geometry":{"type":"Point","coordinates":[29.2730042,-1.6907646]},"properties":{"shop":"convenience"}},
{"type":"Feature","geometry":{"type":"Point","coordinates":[29.3327753,-1.702256]},"properties":{"shop":"convenience"}},
{"type":"Feature","geometry":{"type":"Point","coordinates":[29.3277973,-1.7027823]},"properties":{"shop":"convenience"}},
{"type":"Feature","geometry":{"type":"Point","coordinates":[29.3121494,-1.6985905]},"properties":{"shop":"convenience"}},
{"type":"Feature","geometry":{"type":"Point","coordinates":[29.2497895,-1.682222]},"properties":{"name":"Everain Milk Shop","shop":"convenience"}},
{"type":"Feature","geometry":{"type":"Point","coordinates":[29.60517,-1.5071279]},"properties":{"shop":"convenience"}},
{"type":"Feature","geometry":{"type":"Point","coordinates":[29.6421141,-1.5113598]},"properties":{"shop":"convenience"}},
{"type":"Feature","geometry":{"type":"Point","coordinates":[29.6108419,-1.5047096]},"properties":{"shop":"convenience"}},
{"type":"Feature","geometry":{"type":"Point","coordinates":[29.6255564,-1.4991635]},"properties":{"shop":"convenience"}},
{"type":"Feature","geometry":{"type":"Point","coordinates":[29.5749795,-1.5235073]},"properties":{"shop":"convenience"}},
{"type":"Feature","geometry":{"type":"Point","coordinates":[29.6419882,-1.510593]},"properties":{"shop":"convenience"}},
{"type":"Feature","geometry":{"type":"Point","coordinates":[29.6422022,-1.5112182]},"properties":{"shop":"convenience"}},
{"type":"Feature","geometry":{"type":"Point","coordinates":[29.6418672,-1.5109971]},"properties":{"shop":"convenience"}},
{"type":"Feature","geometry":{"type":"Point","coordinates":[29.6496087,-1.5109158]},"properties":{"shop":"convenience"}},
{"type":"Feature","geometry":{"type":"Point","coordinates":[29.6498242,-1.5109756]},"properties":{"shop":"convenience"}},
{"type":"Feature","geometry":{"type":"Point","coordinates":[29.6606594,-1.5232161]},"properties":{"shop":"convenience"}},
{"type":"Feature","geometry":{"type":"Point","coordinates":[29.2628511,-1.6924431]},"properties":{"shop":"bakery"}},
{"type":"Feature","geometry":{"type":"Point","coordinates":[30.0935243,-1.960392]},"properties":{"amenity":"marketplace"}},
{"type":"Feature","geometry":{"type":"Point","coordinates":[29.4083364,-2.0607326]},"properties":{"amenity":"marketplace","building":"residential","name":"Kibirizi market"}},
{"type":"Feature","geometry":{"type":"Point","coordinates":[30.0478395,-1.9417323]},"properties":{"check_date":"2023-04-14","name":"Slaughterhouse","shop":"butcher"}},
{"type":"Feature","geometry":{"type":"Point","coordinates":[29.7670067,-1.351235]},"properties":{"addr:county":"Bufumbira","addr:district":"Kisoro","addr:parish":"Chahafi","addr:subcounty":"Mulora","addr:village":"Mulora","name":"Mary's Shop Bushera","opening_hours":"Mo-Su 09:00-17:00","shop":"convenience","source":"HOT_Uganda","start_date":"2018-06-01"}},
{"type":"Feature","geometry":{"type":"Point","coordinates":[29.7767356,-1.3663709]},"properties":{"addr:county":"Bufumbira","addr:district":"Kisoro","addr:parish":"Chahafi","addr:subcounty":"Murora","addr:village":"Kabingo","name":"Jack's Hotel","opening_hours":"Mo-Su 09:00-17:00","shop":"food","start_date":"2008-01-01"}},
{"type":"Feature","geometry":{"type":"Point","coordinates":[29.776605,-1.3663283]},"properties":{"addr:county":"Bufumbira","addr:district":"Kisoro","addr:parish":"Chahafi","addr:subcounty":"Murora","addr:village":"Kabingo","name":"Sedrack And Family Shop","opening_hours":"Mo-Su 09:00-17:00","shop":"convenience","start_date":"2014-01-01"}},
{"type":"Feature","geometry":{"type":"Point","coordinates":[29.7769772,-1.3664559]},"properties":{"addr:county":"Bufumbira","addr:district":"Kisoro","addr:parish":"Chahafi","addr:subcounty":"Murora","addr:village":"Kabingo","name":"John's Shop","opening_hours":"Mo-Su 09:00-17:00","shop":"convenience","start_date":"2019-03-01"}},
{"type":"Feature","geometry":{"type":"Point","coordinates":[29.77764,-1.3586133]},"properties":{"addr:county":"Bufumbira","addr:district":"Kisoro","addr:parish":"Chahafi","addr:subcounty":"Murora","addr:village":"Gicuzi","amenity":"marketplace","marketplace_type":"mixed","name":"Gicuzi Market","opening_hours":"Mo 08:00-18:00; Fr 08:00-18:00","operator":"Chairman","start_date":"1968-01-01"}},
{"type":"Feature","geometry":{"type":"Point","coordinates":[29.7912633,-1.3650583]},"properties":{"addr:county":"Bufumbira","addr:district":"Kisoro","addr:parish":"Chahafi","addr:subcounty":"Murora","addr:village":"Karambi","name":"Appolo's Shop","opening_hours":"Mo-Su 09:00-17:00","shop":"convenience","source":"HOT_Uganda","start_date":"2016-01-01"}},
{"type":"Feature","geometry":{"type":"Point","coordinates":[29.79101,-1.365165]},"properties":{"addr:county":"Bufumbira","addr:district":"Kisoro","addr:parish":"Chahafi","addr:subcounty":"Murora","addr:village":"Karambi","name":"Steven Family Shop","opening_hours":"Mo-Sa 09:00-18:00","shop":"convenience","source":"HOT_Uganda","start_date":"2015-01-01"}},
{"type":"Feature","geometry":{"type":"Point","coordinates":[29.7909467,-1.3650233]},"properties":{"addr:county":"Bufumbira","addr:district":"Kisoro","addr:parish":"Chahafi","addr:subcounty":"Murora","addr:village":"Karambi","name":"Gatabarwa Shop","opening_hours":"Mo-Sa 09:00-17:00","shop":"convenience","source":"HOT_Uganda","start_date":"2015-01-01"}},
{"type":"Feature","geometry":{"type":"Point","coordinates":[30.4985227,-1.9021325]},"properties":{"name":"Unity Supermarket","shop":"convenience"}},
{"type":"Feature","geometry":{"type":"Point","coordinates":[29.7517736,-2.3538886]},"properties":{"name":"Nyanza Market","name:fr":"Marché de Nyanza","shop":"supermarket"}},
{"type":"Feature","geometry":{"type":"Point","coordinates":[29.7519582,-2.3523083]},"properties":{"name":"Nyanza market","name:fr":"Marché de Nyanza","shop":"supermarket"}},
{"type":"Feature","geometry":{"type":"Point","coordinates":[29.7516083,-2.0871889]},"properties":{"addr:city":"Manchester/NH","addr:housenumber":"65","addr:postcode":"03102","addr:street":"Log street, 3G","name":"Muhanga main market","operator":"uwamanou","payment:cash":"yes","payment:debit_cards":"yes","shop":"supermarket"}},
{"type":"Feature","geometry":{"type":"Point","coordinates":[30.0802501,-1.9340679]},"properties":{"name":"Garden of Eden Produce","payment:credit_cards":"yes","phone":"+250 78 492 9046","shop":"food","website":"https://www.gardenofedenrwanda.com/"}},
{"type":"Feature","geometry":{"type":"Point","coordinates":[30.0587616,-1.9433162]},"properties":{"check_date":"2023-04-10","name":"T2000 supermarket","shop":"supermarket"}},
{"type":"Feature","geometry":{"type":"Point","coordinates":[30.0566934,-1.9459248]},"properties":{"check_date":"2023-04-10","shop":"supermarket"}},
{"type":"Feature","geometry":{"type":"Point","coordinates":[30.0976577,-1.9503438]},"properties":{"amenity":"marketplace"}},
{"type":"Feature","geometry":{"type":"Point","coordinates":[30.0773486,-1.9389566]},"properties":{"name":"Le Paon Supermarket","shop":"supermarket"}},
{"type":"Feature","geometry":{"type":"Point","coordinates":[30.081003,-1.9493572]},"properties":{"description":"Indian and imported western products","name":"Patel Grocers","shop":"supermarket"}},
{"type":"Feature","geometry":{"type":"Point","coordinates":[30.1937729,-2.1030268]},"properties":{"amenity":"marketplace"}},
{"type":"Feature","geometry":{"type":"Point","coordinates":[29.7775063,-1.3591316]},"properties":{"addr:county":"Bufumbira","addr:district":"Kisoro","addr:parish":"Chanika","addr:subcounty":"Murora","addr:village":"Kabingo","name":"Gad and Family Shop","opening_hours":"Mo-Sa 09:00-18:00","shop":"convenience","source":"HOT_Uganda","source:geometry:date":"2019/07/02","source:position":"Maxar_private;Ecopia.AI","start_date":"2009-01-01"}},
{"type":"Feature","geometry":{"type":"Point","coordinates":[30.0909148,-1.9183711]},"properties":{"amenity":"marketplace","name":"Kagugu Minimarket"}},
{"type":"Feature","geometry":{"type":"Point","coordinates":[30.1142998,-1.9583601]},"properties":{"check_date":"2023-03-22","name":"Women's Bakery","name:fr":"Boulangerie pour Femmes","name:rw":"uruganda rwimigati rwabahore","shop":"bakery"}},
{"type":"Feature","geometry":{"type":"Point","coordinates":[29.9861921,-1.9662666]},"properties":{"name":"La Pomme Verte","shop":"supermarket"}},
{"type":"Feature","geometry":{"type":"Point","coordinates":[29.6427907,-1.5043999]},"properties":{"shop":"bakery"}},
{"type":"Feature","geometry":{"type":"Point","coordinates":[28.9179083,-2.4775093]},"properties":{"addr:city":"Kamembe","amenity":"marketplace","name":"Kubadive"}},
{"type":"Feature","geometry":{"type":"Point","coordinates":[29.180372,-2.2715584]},"properties":{"amenity":"marketplace","name":"Rugali Market"}},
{"type":"Feature","geometry":{"type":"Point","coordinates":[28.9217173,-2.4636071]},"properties":{"amenity":"marketplace","name":"Karusharirizi"}},
{"type":"Feature","geometry":{"type":"Point","coordinates":[29.0312422,-2.7066572]},"properties":{"addr:city":"Bugarama","amenity":"marketplace","name":"Rubyiro Site"}},
{"type":"Feature","geometry":{"type":"Point","coordinates":[29.0082836,-2.4947878]},"properties":{"addr:city":"Ruharambuga","amenity":"marketplace","name":"Kucyapa"}},
{"type":"Feature","geometry":{"type":"Point","coordinates":[28.9185136,-2.4697444]},"properties":{"addr:city":"Kamembe","amenity":"marketplace","name":"Gaturika"}},
{"type":"Feature","geometry":{"type":"Point","coordinates":[28.9217478,-2.4861942]},"properties":{"addr:city":"Kamembe","amenity":"marketplace","name":"Kadashya"}},
{"type":"Feature","geometry":{"type":"Point","coordinates":[29.0707134,-2.4245179]},"properties":{"amenity":"marketplace","name":"Buhinga Market"}},
{"type":"Feature","geometry":{"type":"Point","coordinates":[29.0082677,-2.6979069]},"properties":{"amenity":"marketplace","name":"Bugarama Market","name:fr":"Marché de Bugarama"}},
{"type":"Feature","geometry":{"type":"Point","coordinates":[29.006157,-2.6995493]},"properties":{"amenity":"marketplace","name":"Bugarama Site","name:fr":"Site de Bugarama"}},
{"type":"Feature","geometry":{"type":"Point","coordinates":[29.051015,-2.4527221]},"properties":{"amenity":"marketplace","name":"Ingurube Market"}},
{"type":"Feature","geometry":{"type":"Point","coordinates":[30.1228242,-2.1973794]},"properties":{"amenity":"marketplace"}},
{"type":"Feature","geometry":{"type":"Point","coordinates":[30.060837,-1.9461258]},"properties":{"check_date":"2023-04-10","name":"Sharma","shop":"supermarket"}},
{"type":"Feature","geometry":{"type":"Point","coordinates":[29.1371536,-2.3316145]},"properties":{"name":"Alimentacion La Faraja","shop":"convenience"}},
{"type":"Feature","geometry":{"type":"Point","coordinates":[29.0900755,-2.3421076]},"properties":{"name":"Alimentation La Rose","shop":"supermarket"}},
{"type":"Feature","geometry":{"type":"Point","coordinates":[29.580031,-2.4725875]},"properties":{"amenity":"marketplace","building":"yes","name":"Nyamagabe Market"}},
{"type":"Feature","geometry":{"type":"Point","coordinates":[29.4809034,-2.5028767]},"properties":{"amenity":"marketplace","building":"yes","check_date":"2023-04-18","internet_access":"no","name":"Gasarenda Market"}},
{"type":"Feature","geometry":{"type":"Point","coordinates":[29.653997,-2.5252941]},"properties":{"amenity":"marketplace","name":"Cyizi Market"}},
{"type":"Feature","geometry":{"type":"Point","coordinates":[29.399673,-2.4486928]},"properties":{"amenity":"marketplace","name":"Kizimyamuriro"}},
{"type":"Feature","geometry":{"type":"Point","coordinates":[29.4018981,-2.4000815]},"properties":{"amenity":"marketplace","name":"Rugeti Center"}},
{"type":"Feature","geometry":{"type":"Point","coordinates":[29.701953,-2.5518695]},"properties":{"amenity":"marketplace","name":"Sovu Market"}},
{"type":"Feature","geometry":{"type":"Point","coordinates":[29.5033356,-2.505392]},"properties":{"amenity":"marketplace","name":"Kopabinya Farm"}},
{"type":"Feature","geometry":{"type":"Point","coordinates":[29.5694494,-2.6955846]},"properties":{"amenity":"marketplace","building":"yes","name":"Ndago Market"}},
{"type":"Feature","geometry":{"type":"Point","coordinates":[29.278315,-1.7349741]},"properties":{"amenity":"marketplace","name":"Brasserie"}},
{"type":"Feature","geometry":{"type":"Point","coordinates":[29.2988962,-1.9193735]},"properties":{"amenity":"marketplace","name":"Buhoro Center"}},
{"type":"Feature","geometry":{"type":"Point","coordinates":[29.3486954,-1.8837474]},"properties":{"amenity":"marketplace","name":"Gacaca Center"}},
{"type":"Feature","geometry":{"type":"Point","coordinates":[29.3692621,-1.9147971]},"properties":{"amenity":"marketplace","name":"Gisiza Market"}},
{"type":"Feature","geometry":{"type":"Point","coordinates":[29.7012414,-2.0015715]},"properties":{"amenity":"marketplace","name":"Buringa Market"}},
{"type":"Feature","geometry":{"type":"Point","coordinates":[29.6611825,-1.9439639]},"properties":{"amenity":"marketplace","name":"Cyome Market"}},
{"type":"Feature","geometry":{"type":"Point","coordinates":[29.5419374,-1.8688342]},"properties":{"amenity":"marketplace","name":"Mwibereshi Kageyo  Center"}},
{"type":"Feature","geometry":{"type":"Point","coordinates":[29.5169453,-1.6742016]},"properties":{"amenity":"marketplace","name":"Guriro Market"}},
{"type":"Feature","geometry":{"type":"Point","coordinates":[29.4981224,-1.6139071]},"properties":{"amenity":"marketplace","name":"Mukamira Market"}},
{"type":"Feature","geometry":{"type":"Point","coordinates":[29.4692507,-1.6248097]},"properties":{"amenity":"marketplace","name":"Jenda Center"}},
{"type":"Feature","geometry":{"type":"Point","coordinates":[30.1155287,-1.9567569]},"properties":{"check_date":"2023-03-22","shop":"convenience"}},
{"type":"Feature","geometry":{"type":"Point","coordinates":[30.11207,-1.9587215]},"properties":{"check_date":"2023-03-22","name":"Good Choice","shop":"convenience"}},
{"type":"Feature","geometry":{"type":"Point","coordinates":[30.1117917,-1.9582889]},"properties":{"check_date":"2023-03-22","shop":"convenience"}},
{"type":"Feature","geometry":{"type":"Point","coordinates":[29.5088906,-1.6080849]},"properties":{"air_conditioning":"no","check_date":"2023-04-12","internet_access":"wlan","internet_access:fee":"no","name":"Mukamira","name:rw":"Mukamira","payment:mastercard":"yes","payment:visa":"yes","shop":"dairy","source":"local knowledge","wheelchair":"yes"}},
{"type":"Feature","geometry":{"type":"Point","coordinates":[30.1213618,-1.9688299]},"properties":{"check_date":"2023-04-18","shop":"supermarket"}},
{"type":"Feature","geometry":{"type":"Point","coordinates":[30.1241676,-1.9712838]},"properties":{"check_date":"2023-04-18","shop":"supermarket"}},
{"type":"Feature","geometry":{"type":"Point","coordinates":[30.1249982,-1.9706704]},"properties":{"check_date":"2023-04-18","shop":"supermarket"}},
{"type":"Feature","geometry":{"type":"Point","coordinates":[30.1256431,-1.9702874]},"properties":{"amenity":"marketplace","check_date":"2023-06-09","name":"KAbeza Market"}},
{"type":"Feature","geometry":{"type":"Point","coordinates":[30.1206404,-1.9675511]},"properties":{"brand":"Shop & Go","check_date":"2023-04-21","internet_access":"wlan","internet_access:fee":"no","name":"Shop & Go","payment:mastercard":"yes","payment:visa":"yes","shop":"convenience","wheelchair":"yes"}},
{"type":"Feature","geometry":{"type":"Point","coordinates":[30.1212294,-1.9680834]},"properties":{"brand":"Shop & Go","check_date":"2023-04-21","internet_access":"wlan","internet_access:fee":"no","name":"Shop & Go","payment:mastercard":"yes","payment:visa":"yes","shop":"convenience","wheelchair":"yes"}},
{"type":"Feature","geometry":{"type":"Point","coordinates":[30.1234991,-1.9618527]},"properties":{"check_date":"2023-05-12","name":"Enjoy","shop":"supermarket"}},
{"type":"Feature","geometry":{"type":"Point","coordinates":[30.121555,-1.9608591]},"properties":{"check_date":"2023-05-12","name":"W2Y Supermarket","payment:cash":"yes","payment:mastercard":"yes","payment:visa":"yes","phone":"+250 788 383 308","shop":"supermarket"}},
{"type":"Feature","geometry":{"type":"Point","coordinates":[30.1030638,-1.9676125]},"properties":{"addr:door":"5","check_date":"2023-05-14","internet_access":"wlan","internet_access:fee":"no","name":"Deluxe trading supermarket","payment:mastercard":"yes","payment:visa":"yes","shop":"supermarket","wheelchair":"limited"}},
{"type":"Feature","geometry":{"type":"Point","coordinates":[30.1027848,-1.9690495]},"properties":{"check_date":"2023-05-14","internet_access":"no","name":"Shop well supermarket","payment:mastercard":"yes","payment:visa":"yes","shop":"supermarket","wheelchair":"yes"}},
{"type":"Feature","geometry":{"type":"Point","coordinates":[30.1198083,-1.964708]},"properties":{"brand":"Shop & Go","check_date":"2023-05-15","internet_access":"no","name":"Korubeni shop","payment:mastercard":"yes","payment:visa":"yes","shop":"convenience","wheelchair":"yes"}},
{"type":"Feature","geometry":{"type":"Point","coordinates":[30.1266294,-1.9620561]},"properties":{"check_date":"2023-05-23","name":"Dairy Gatete","phone":"+250 781 498 061","shop":"dairy"}},
{"type":"Feature","geometry":{"type":"Point","coordinates":[29.3475903,-2.0688237]},"properties":{"name":"Boutique chez Mama Ivan","shop":"convenience"}},
{"type":"Feature","geometry":{"type":"Point","coordinates":[30.0900459,-2.0050249]},"properties":{"amenity":"marketplace","check_date":"2023-05-27","name":"Kicukiro Nyanza Market"}},
{"type":"Feature","geometry":{"type":"Point","coordinates":[30.1369915,-1.9615865]},"properties":{"check_date":"2023-05-29","name":"GAZZELLE SUPERMARKET&Liquors Store","shop":"supermarket"}},
{"type":"Feature","geometry":{"type":"Point","coordinates":[30.1367765,-1.9611302]},"properties":{"check_date":"2023-05-29","name":"BUTCHERY MR FARM LTD","phone":"+250 788 322 284","shop":"butcher"}},
{"type":"Feature","geometry":{"type":"Point","coordinates":[30.1366304,-1.9611527]},"properties":{"brand":"Food Basics","brand:wikidata":"Q5465300","check_date":"2023-05-29","name":"Food Basics","shop":"supermarket"}},
{"type":"Feature","geometry":{"type":"Point","coordinates":[30.1375937,-1.9607534]},"properties":{"check_date":"2023-05-29","name":"Milk Zone INYANGE","shop":"dairy"}},
{"type":"Feature","geometry":{"type":"Point","coordinates":[30.137553,-1.9604024]},"properties":{"amenity":"marketplace","check_date":"2023-05-29","name":"Fruits market"}},
{"type":"Feature","geometry":{"type":"Point","coordinates":[30.1439984,-2.0037691]},"properties":{"check_date":"2023-05-30","shop":"supermarket"}},
{"type":"Feature","geometry":{"type":"Point","coordinates":[30.146369,-1.9968214]},"properties":{"check_date":"2023-05-30","name":"Moriah","name:fr":"Moriah","shop":"supermarket"}},
{"type":"Feature","geometry":{"type":"Point","coordinates":[30.1463921,-1.9964819]},"properties":{"check_date":"2023-05-30","shop":"bakery"}},
{"type":"Feature","geometry":{"type":"Point","coordinates":[30.1460788,-1.9962862]},"properties":{"check_date":"2023-05-30","name":"Smart","name:fr":"Smart","shop":"butcher"}},
{"type":"Feature","geometry":{"type":"Point","coordinates":[30.1459763,-1.9968365]},"properties":{"check_date":"2023-05-30","name":"Mukamira","name:fr":"Mukamira","shop":"dairy"}},
{"type":"Feature","geometry":{"type":"Point","coordinates":[30.1453065,-1.998545]},"properties":{"amenity":"marketplace","check_date":"2023-05-30","name":"Fruits shop","name:fr":"Magasin de fruits"}},
{"type":"Feature","geometry":{"type":"Point","coordinates":[30.0966326,-1.9684463]},"properties":{"brand":"Shop & Go","check_date":"2023-06-02","name":"KIGALI LEATHER LTD","shop":"convenience"}},
{"type":"Feature","geometry":{"type":"Point","coordinates":[30.0964634,-1.9689219]},"properties":{"brand":"Shop & Go","check_date":"2023-06-02","name":"Noah Gaz","shop":"convenience"}},
{"type":"Feature","geometry":{"type":"Point","coordinates":[30.0965519,-1.9688826]},"properties":{"brand":"Shop & Go","check_date":"2023-06-02","name":"Beta Thanksn","shop":"convenience"}},
{"type":"Feature","geometry":{"type":"Point","coordinates":[30.1024017,-1.9681941]},"properties":{"check_date":"2023-06-02","name":"SIMBA SONATUBE","shop":"supermarket"}},
{"type":"Feature","geometry":{"type":"Point","coordinates":[30.0481923,-1.9395632]},"properties":{"amenity":"marketplace","check_date":"2023-06-19","name":"COMO BUSINESS CENTER"}},
{"type":"Feature","geometry":{"type":"Point","coordinates":[29.6436504,-1.5073798]},"properties":{"name":"Kanuma’s Bakery and Restaurant","shop":"bakery"}},
{"type":"Feature","geometry":{"type":"Point","coordinates":[29.7433301,-2.5927808]},"properties":{"name":"Supermarket","name:en":"Alpha Supermarket","shop":"supermarket"}},
{"type":"Feature","geometry":{"type":"Point","coordinates":[29.736794,-2.6105403]},"properties":{"name":"La Tarte Ltd","shop":"bakery"}},
{"type":"Feature","geometry":{"type":"Point","coordinates":[29.7415779,-2.6017371]},"properties":{"shop":"supermarket"}},
{"type":"Feature","geometry":{"type":"Point","coordinates":[30.1141305,-1.9316179]},"properties":{"level":"0","name":"Samba Supermarket","shop":"supermarket"}},
{"type":"Feature","geometry":{"type":"Point","coordinates":[30.0795473,-1.9489843]},"properties":{"name":"Pâtisserie Royale","shop":"bakery"}},
{"type":"Feature","geometry":{"type":"Point","coordinates":[30.1586347,-1.9643425]},"properties":{"name":"Sawa Citi Freezone Branch","operator":"Sawa Citi","shop":"supermarket"}},
{"type":"Feature","geometry":{"type":"Point","coordinates":[30.1026206,-1.9717508]},"properties":{"name":"Bolus","shop":"bakery"}},
{"type":"Feature","geometry":{"type":"Point","coordinates":[30.4243966,-1.1195343]},"properties":{"amenity":"marketplace","name":"Marché de Matimba","name:fr":"Marché de Matimba"}},
{"type":"Feature","geometry":{"type":"Point","coordinates":[30.1206506,-1.9624442]},"properties":{"name":"Sina Gerard Ese Urwibutso","shop":"supermarket"}},
{"type":"Feature","geometry":{"type":"Point","coordinates":[30.1122259,-1.8758908]},"properties":{"shop":"convenience"}},
{"type":"Feature","geometry":{"type":"Point","coordinates":[30.1030262,-1.9645853]},"properties":{"shop":"supermarket"}},
{"type":"Feature","geometry":{"type":"Point","coordinates":[30.1487148,-1.9588904]},"properties":{"addr:city":"kigali","addr:street":"KK 18 Street","description":"Phoenix Chinese Supermarket Kanombe","name":"Phoenix Chinese Supermarket Kanombe","opening_hours":"Mo-Su 08:00-21:00","operator":"Phoenix Chinese Supermarket Kanombe","payment:cash":"yes","payment:mastercard":"yes","payment:momo":"yes","payment:visa":"yes","payment:wechat":"yes","phone":"0798682794","shop":"supermarket"}},
{"type":"Feature","geometry":{"type":"Point","coordinates":[29.7590255,-2.0771425]},"properties":{"check_date":"2024-05-30","name":"Nshuti Best","name:rw":"Nshuti Best","shop":"supermarket"}},
{"type":"Feature","geometry":{"type":"Point","coordinates":[30.1925005,-1.9901177]},"properties":{"shop":"convenience"}},
{"type":"Feature","geometry":{"type":"Point","coordinates":[30.1940112,-1.9953689]},"properties":{"shop":"bakery"}},
{"type":"Feature","geometry":{"type":"LineString","coordinates":[[30.1266978,-1.9494168],[30.1260702,-1.9504649],[30.1257429,-1.9503014],[30.1259548,-1.9499342],[30.1259728,-1.9499444],[30.1262085,-1.949597],[30.1262281,-1.9496082],[30.126451,-1.9492747],[30.1266978,-1.9494168]]},"properties":{"amenity":"marketplace","building":"yes","name:fr":"Marché Kimironko","source":"survey","wikidata":"Q123137145","wikimedia_commons":"Category:Kimironko Market"}},
{"type":"Feature","geometry":{"type":"LineString","coordinates":[[30.0537724,-1.959466],[30.0539199,-1.9594365],[30.0541131,-1.9593561],[30.0543437,-1.9592221],[30.0544483,-1.9591417],[30.0545061,-1.959122],[30.0547153,-1.9595696],[30.0542606,-1.959785],[30.0540809,-1.9598708],[30.0539682,-1.959903],[30.0539253,-1.9599298],[30.0538877,-1.9599325],[30.0537724,-1.959466]]},"properties":{"addr:housenumber":"Kimisaga Market 4","addr:street":"KN 112 Street","alt_name":"Isoko rya Kimisagara","check_date":"2023-06-19","internet_access":"no","name":"KIMISAGARA Market","payment:cards":"no","payment:credit_cards":"no","payment:debit_cards":"no","shop":"supermarket","wheelchair":"no"}},
{"type":"Feature","geometry":{"type":"LineString","coordinates":[[30.0545541,-1.9735332],[30.0544835,-1.9735905],[30.0545648,-1.9736726],[30.0546346,-1.9736029],[30.0545541,-1.9735332]]},"properties":{"check_date":"2023-04-14","shop":"supermarket"}},
{"type":"Feature","geometry":{"type":"LineString","coordinates":[[30.0568562,-1.9464468],[30.0567019,-1.9468239],[30.0567069,-1.9469767],[30.056937,-1.9470772],[30.0569526,-1.947039],[30.057034,-1.9470704],[30.0570046,-1.9471439],[30.0572582,-1.9472413],[30.0573004,-1.9472132],[30.0574971,-1.9466623],[30.0572417,-1.9465533],[30.0571547,-1.9465194],[30.0569181,-1.9464245],[30.0568562,-1.9464468]]},"properties":{"building":"house","building:levels":"1","check_date":"2023-04-10","roof:levels":"1","roof:shape":"flat","shop":"supermarket","source":"Bing"}},
{"type":"Feature","geometry":{"type":"LineString","coordinates":[[30.0513196,-1.9748733],[30.050578,-1.9752847],[30.050751,-1.9756828],[30.051089,-1.9755595],[30.0516522,-1.9753504],[30.0516147,-1.9751413],[30.0513196,-1.9748733]]},"properties":{"amenity":"marketplace","name":"Nyamirambo Market Place","name:fr":"Place du marché de Nyamirambo"}},
{"type":"Feature","geometry":{"type":"LineString","coordinates":[[30.1258954,-1.9704771],[30.1254233,-1.9704449],[30.1253804,-1.9702197],[30.1254941,-1.9698391],[30.1255692,-1.9696354],[30.1260091,-1.969689],[30.1260349,-1.969941],[30.1259984,-1.9702144],[30.1258954,-1.9704771]]},"properties":{"amenity":"marketplace","name":"Kabeza Modern Market","name:fr":"Marché Moderne de Kabeza","name:rw":"Isoko rya Kabeza"}},
{"type":"Feature","geometry":{"type":"LineString","coordinates":[[29.2621818,-1.6955599],[29.2625293,-1.6954901],[29.2626034,-1.695859],[29.2622559,-1.6959287],[29.2621818,-1.6955599]]},"properties":{"amenity":"marketplace","building":"yes","name":"Rubavu Market","name:fr":"Marché de Rubavu"}},
{"type":"Feature","geometry":{"type":"LineString","coordinates":[[29.2625742,-1.6955781],[29.2626598,-1.695561],[29.2627091,-1.6958076],[29.2626235,-1.6958247],[29.2625742,-1.6955781]]},"properties":{"amenity":"marketplace","building":"yes"}},
{"type":"Feature","geometry":{"type":"LineString","coordinates":[[30.0765231,-1.9804981],[30.0766347,-1.9804902],[30.0766397,-1.9805605],[30.0765605,-1.980566],[30.0765612,-1.980576],[30.0765288,-1.9805783],[30.0765231,-1.9804981]]},"properties":{"check_date":"2023-06-10","name":"Terminus","name:fr":"Terminus","shop":"supermarket"}},
{"type":"Feature","geometry":{"type":"LineString","coordinates":[[30.0768838,-1.9703115],[30.0769699,-1.9703336],[30.0769882,-1.9702619],[30.0769021,-1.9702399],[30.0768838,-1.9703115]]},"properties":{"check_date":"2023-06-10","name":"Merez","name:fr":"Merez","shop":"supermarket"}},
{"type":"Feature","geometry":{"type":"LineString","coordinates":[[30.0837401,-1.9362978],[30.0835255,-1.9362281],[30.0835094,-1.9362951],[30.0837454,-1.9363648],[30.0837401,-1.9362978]]},"properties":{"building":"yes","shop":"convenience"}},
{"type":"Feature","geometry":{"type":"LineString","coordinates":[[30.500895,-1.8013998],[30.5007628,-1.8015192],[30.5007757,-1.801645],[30.5008434,-1.8017192],[30.5009402,-1.8017644],[30.5010886,-1.8018386],[30.5012112,-1.801887],[30.5015016,-1.8017741],[30.501708,-1.8016837],[30.5019371,-1.8015644],[30.502192,-1.8014837],[30.5023823,-1.8013869],[30.5024436,-1.8013256],[30.5024629,-1.8012353],[30.5023404,-1.8010611],[30.5021952,-1.800874],[30.5020823,-1.8006675],[30.5019919,-1.8005481],[30.5018919,-1.8005707],[30.5018209,-1.8006062],[30.501779,-1.8006643],[30.5017822,-1.800732],[30.5014628,-1.8009772],[30.5013983,-1.8010579],[30.5012015,-1.801174],[30.5010499,-1.8012901],[30.500895,-1.8013998]]},"properties":{"amenity":"marketplace","name":"Karubamba's Market"}},
{"type":"Feature","geometry":{"type":"LineString","coordinates":[[30.5140099,-1.8087723],[30.5139426,-1.808799],[30.5139649,-1.8088553],[30.5140323,-1.8088286],[30.5140099,-1.8087723]]},"properties":{"name":"alimantation shop","shop":"supermarket"}},
{"type":"Feature","geometry":{"type":"LineString","coordinates":[[30.5152084,-1.8084259],[30.5151729,-1.8083847],[30.5152397,-1.8083273],[30.5152752,-1.8083685],[30.5152084,-1.8084259]]},"properties":{"building":"yes","name":"rwinkuba bucher","shop":"butcher"}},
{"type":"Feature","geometry":{"type":"LineString","coordinates":[[30.0873779,-2.1415875],[30.0874133,-2.1414881],[30.0875031,-2.14152],[30.0874677,-2.1416194],[30.0873779,-2.1415875]]},"properties":{"building":"yes","shop":"supermarket"}},
{"type":"Feature","geometry":{"type":"LineString","coordinates":[[30.0701182,-2.1125486],[30.0700887,-2.1126181],[30.0701314,-2.1126362],[30.0701609,-2.1125667],[30.0701182,-2.1125486]]},"properties":{"building":"yes","shop":"supermarket"}},
{"type":"Feature","geometry":{"type":"LineString","coordinates":[[30.0629322,-1.934895],[30.0632934,-1.935114],[30.0633628,-1.9349996],[30.0630015,-1.9347807],[30.0629322,-1.934895]]},"properties":{"building":"yes","check_date":"2023-06-19","shop":"supermarket"}},
{"type":"Feature","geometry":{"type":"LineString","coordinates":[[30.1035894,-1.9500938],[30.103532,-1.9502601],[30.103695600000003,-1.9503083],[30.1037278,-1.9501394],[30.1035894,-1.9500938]]},"properties":{"building":"yes","name":"Rz Manna","shop":"bakery"}},
{"type":"Feature","geometry":{"type":"LineString","coordinates":[[29.7390124,-2.6047922],[29.7390977,-2.6047234],[29.7391983,-2.6048477],[29.7391129,-2.6049166],[29.7390124,-2.6047922]]},"properties":{"building":"yes","shop":"bakery"}},
{"type":"Feature","geometry":{"type":"LineString","coordinates":[[30.0736858,-1.9524214],[30.0736947,-1.9525478],[30.0739425,-1.9525303],[30.0739336,-1.952404],[30.0736858,-1.9524214]]},"properties":{"building":"retail","check_date":"2023-04-10","shop":"convenience"}},
{"type":"Feature","geometry":{"type":"LineString","coordinates":[[30.0844562,-1.9584182],[30.0844944,-1.9584397],[30.0844635,-1.9584926],[30.0844253,-1.9584739],[30.0844562,-1.9584182]]},"properties":{"building":"yes","check_date":"2023-04-17","shop":"convenience"}},
{"type":"Feature","geometry":{"type":"LineString","coordinates":[[29.2618201,-1.6951602],[29.2618765,-1.6953505],[29.2620642,-1.6953063],[29.2619972,-1.695116],[29.2618201,-1.6951602]]},"properties":{"building":"yes","shop":"supermarket"}},
{"type":"Feature","geometry":{"type":"LineString","coordinates":[[29.5727161,-2.2788251],[29.5731037,-2.2787084],[29.5731924,-2.2788951],[29.5730897,-2.2789697],[29.5729799,-2.2789861],[29.5730103,-2.2790491],[29.5728982,-2.2790701],[29.5728702,-2.2790164],[29.5728305,-2.2790234],[29.5728095,-2.2789651],[29.5727815,-2.2789697],[29.5727581,-2.2788904],[29.5727254,-2.2788974],[29.5727161,-2.2788251]]},"properties":{"amenity":"marketplace","building":"yes"}},
{"type":"Feature","geometry":{"type":"LineString","coordinates":[[30.0774138,-1.9322977],[30.077473,-1.9323367],[30.0774634,-1.9323508],[30.0774151,-1.9324213],[30.077364,-1.9323891],[30.0774138,-1.9322977]]},"properties":{"building":"yes","shop":"convenience"}},
{"type":"Feature","geometry":{"type":"LineString","coordinates":[[30.0754429,-1.9311771],[30.0755212,-1.9311702],[30.0755253,-1.9312448],[30.0754463,-1.9312487],[30.0754429,-1.9311771]]},"properties":{"building":"yes","shop":"convenience"}},
{"type":"Feature","geometry":{"type":"LineString","coordinates":[[29.6413181,-1.5068013],[29.6414934,-1.5065015],[29.6419665,-1.5060982],[29.6420212,-1.5060462],[29.6425687,-1.5062364],[29.6423069,-1.5072208],[29.6416236,-1.5070826],[29.6413181,-1.5068013]]},"properties":{"amenity":"marketplace","name":"Musanze Agricultural products markets"}},
{"type":"Feature","geometry":{"type":"LineString","coordinates":[[29.3457315,-1.6997164],[29.346072,-1.6992308],[29.3457314,-1.699072],[29.3453184,-1.6989165],[29.34479,-1.6988093],[29.3445823,-1.6987418],[29.3445427,-1.698802],[29.3446553,-1.6988826],[29.3456478,-1.6996459],[29.3457315,-1.6997164]]},"properties":{"amenity":"marketplace","name":"Mahoko Market","name:fr":"Marché de Mahoko"}},
{"type":"Feature","geometry":{"type":"LineString","coordinates":[[30.1077093,-1.9603509],[30.1077059,-1.960459],[30.1077938,-1.9604792],[30.1079019,-1.960486],[30.1079222,-1.9604083],[30.1077093,-1.9603509]]},"properties":{"amenity":"marketplace","check_date":"2023-06-10"}},
{"type":"Feature","geometry":{"type":"LineString","coordinates":[[29.6295186,-1.8530661],[29.6296099,-1.8526422],[29.6303287,-1.8527969],[29.6302374,-1.8532208],[29.6295186,-1.8530661]]},"properties":{"amenity":"marketplace","name":"Ngororero Market"}},
{"type":"Feature","geometry":{"type":"LineString","coordinates":[[30.2493282,-1.3762646],[30.2493349,-1.3763149],[30.2495514,-1.3762861],[30.2495447,-1.3762358],[30.2493282,-1.3762646]]},"properties":{"addr:city":"RUKOMO","addr:housenumber":"RUKOMO","addr:postcode":"123","addr:street":"Gatunda-Rukomo-Nyagatare","amenity":"marketplace","building":"yes","description":"This will help people to sale thier product and earn some income","name":"RUKOMO Market","opening_hours":"Mo-Sa 08:00-20:00","operator":"Every one"}},
{"type":"Feature","geometry":{"type":"LineString","coordinates":[[30.1042682,-2.0265385],[30.1045425,-2.0263541],[30.104887,-2.0266855],[30.1045752,-2.0269632],[30.1042682,-2.0265385]]},"properties":{"amenity":"marketplace","name":"Gahanga Market"}},
{"type":"Feature","geometry":{"type":"LineString","coordinates":[[29.6430489,-1.5092678],[29.6436935,-1.5093522],[29.6436733,-1.509506],[29.6436434,-1.5095021],[29.6436003,-1.509831],[29.6436258,-1.5098344],[29.6436036,-1.5100037],[29.6434893,-1.5099887],[29.6434936,-1.5099554],[29.6430498,-1.5098973],[29.643047,-1.5099185],[29.6429461,-1.5099053],[29.6429706,-1.5097189],[29.6430124,-1.5097244],[29.6430618,-1.5093478],[29.6430388,-1.5093448],[29.6430489,-1.5092678]]},"properties":{"amenity":"marketplace","building":"yes","operator":"GOICO PLAZA (Musanze mordern Market)"}},
{"type":"Feature","geometry":{"type":"LineString","coordinates":[[28.9468233,-2.6330241],[28.9466917,-2.6334419],[28.9473594,-2.6336498],[28.9474489,-2.633199],[28.9472705,-2.633143],[28.9468233,-2.6330241]]},"properties":{"amenity":"marketplace","building":"yes","name":"Gishoma Modern Market"}},
{"type":"Feature","geometry":{"type":"LineString","coordinates":[[30.0243761,-2.0285599],[30.0245414,-2.0283519],[30.0247869,-2.0285469],[30.0246216,-2.0287549],[30.0243761,-2.0285599]]},"properties":{"amenity":"marketplace"}},
{"type":"Feature","geometry":{"type":"LineString","coordinates":[[30.0550817,-2.0509929],[30.0550795,-2.0511103999999999],[30.0553093,-2.0511145],[30.0553114,-2.0509995],[30.0552568,-2.0509985],[30.0552556,-2.051065],[30.0551459,-2.051063],[30.0551472,-2.0509941],[30.0550817,-2.0509929]]},"properties":{"amenity":"marketplace"}},
{"type":"Feature","geometry":{"type":"LineString","coordinates":[[30.0156403,-1.5616977],[30.0157765,-1.5619973],[30.016342,-1.5617404],[30.0162059,-1.5614409],[30.0156403,-1.5616977]]},"properties":{"amenity":"marketplace","name":"Yaramba Market"}},
{"type":"Feature","geometry":{"type":"LineString","coordinates":[[29.9765894,-1.6118453],[29.976953,-1.6121323],[29.9771699,-1.6118645],[29.9767744,-1.6115679],[29.9765894,-1.6118453]]},"properties":{"amenity":"marketplace","name":"Miyove Market"}},
{"type":"Feature","geometry":{"type":"LineString","coordinates":[[29.9282447,-1.6257461],[29.9283113,-1.6258378],[29.9283966,-1.6257759],[29.92833,-1.6256842],[29.9282447,-1.6257461]]},"properties":{"amenity":"marketplace","name":"Rwiri Market"}},
{"type":"Feature","geometry":{"type":"LineString","coordinates":[[30.0844502,-2.1391064],[30.0855768,-2.1394655],[30.0854502,-2.139862],[30.0843237,-2.1395028],[30.0844502,-2.1391064]]},"properties":{"amenity":"marketplace","building":"yes"}},
{"type":"Feature","geometry":{"type":"LineString","coordinates":[[30.0989705,-1.9719914],[30.0994404,-1.9719521],[30.099496,-1.9726152],[30.0990259,-1.9726545],[30.0989705,-1.9719914]]},"properties":{"amenity":"marketplace","building":"house","check_date":"2023-06-10","name":"Zinia Market","name:fr":"Marché Zinia","payment:mastercard":"yes","payment:visa":"yes","wheelchair":"yes"}},
{"type":"Feature","geometry":{"type":"LineString","coordinates":[[29.0909687,-2.3602125],[29.0913466,-2.3603368],[29.0911866,-2.3608222],[29.0908088,-2.3606979],[29.0909687,-2.3602125]]},"properties":{"amenity":"marketplace","building":"yes","name":"Rwesero Market"}},
{"type":"Feature","geometry":{"type":"LineString","coordinates":[[29.1361066,-2.3326002],[29.1365525,-2.3323385],[29.1362587,-2.3328301],[29.1361066,-2.3326002]]},"properties":{"amenity":"marketplace","name":"Tyazo Market","name:fr":"Marché Tyazo"}},
{"type":"Feature","geometry":{"type":"LineString","coordinates":[[28.9105217,-2.477705],[28.9099332,-2.4780374],[28.9098962,-2.4781606],[28.910001,-2.4786223],[28.9102013,-2.4786038],[28.9108545,-2.4783206],[28.9105217,-2.477705]]},"properties":{"amenity":"marketplace","name":"Marché de Rusizi","name:fr":"Marché de Rusizi"}},
{"type":"Feature","geometry":{"type":"LineString","coordinates":[[30.1190543,-1.9578156],[30.1191289,-1.9580904],[30.1194531,-1.9577847],[30.1193966,-1.9576536],[30.1190543,-1.9578156]]},"properties":{"amenity":"marketplace","building":"public","check_date":"2023-04-07","name":"Marché de Remera","name:fr":"Marché de Remera"}},
{"type":"Feature","geometry":{"type":"LineString","coordinates":[[29.4473165,-1.6117787],[29.4472924,-1.6112505],[29.4457546,-1.6112306],[29.4457313,-1.6117439],[29.4473165,-1.6117787]]},"properties":{"amenity":"marketplace","name":"Kora Market"}},
{"type":"Feature","geometry":{"type":"LineString","coordinates":[[30.1484773,-1.9784353],[30.1485939,-1.9784936],[30.1485106,-1.97866],[30.148394,-1.9786017],[30.1484773,-1.9784353]]},"properties":{"amenity":"marketplace","building":"yes","name":"Mu Itunda"}},
{"type":"Feature","geometry":{"type":"LineString","coordinates":[[30.1034698,-1.9731444],[30.1035905,-1.9730827],[30.1036876,-1.9732726],[30.1035669,-1.9733343],[30.1034698,-1.9731444]]},"properties":{"building":"yes","name":"Simba Kicukiro","shop":"supermarket"}},
{"type":"Feature","geometry":{"type":"LineString","coordinates":[[30.0747903,-1.9521854],[30.0748541,-1.9525025],[30.0750529,-1.9524626],[30.0749891,-1.9521455],[30.0747903,-1.9521854]]},"properties":{"building":"yes","name":"Sawa Citi","shop":"supermarket"}},
{"type":"Feature","geometry":{"type":"MultiPolygon","coordinates":[[[[30.1257429,-1.9503014],[30.1260702,-1.9504649],[30.1266978,-1.9494168],[30.126451,-1.9492747],[30.1262281,-1.9496082],[30.1262085,-1.949597],[30.1259728,-1.9499444],[30.1259548,-1.9499342],[30.1257429,-1.9503014]]]]},"properties":{"amenity":"marketplace","building":"yes","name:fr":"Marché Kimironko","source":"survey","wikidata":"Q123137145","wikimedia_commons":"Category:Kimironko Market"}},
{"type":"Feature","geometry":{"type":"MultiPolygon","coordinates":[[[[30.0537724,-1.959466],[30.0538877,-1.9599325],[30.0539253,-1.9599298],[30.0539682,-1.959903],[30.0540809,-1.9598708],[30.0542606,-1.959785],[30.0547153,-1.9595696],[30.0545061,-1.959122],[30.0544483,-1.9591417],[30.0543437,-1.9592221],[30.0541131,-1.9593561],[30.0539199,-1.9594365],[30.0537724,-1.959466]]]]},"properties":{"addr:housenumber":"Kimisaga Market 4","addr:street":"KN 112 Street","alt_name":"Isoko rya Kimisagara","check_date":"2023-06-19","internet_access":"no","name":"KIMISAGARA Market","payment:cards":"no","payment:credit_cards":"no","payment:debit_cards":"no","shop":"supermarket","wheelchair":"no"}},
{"type":"Feature","geometry":{"type":"MultiPolygon","coordinates":[[[[30.0544835,-1.9735905],[30.0545648,-1.9736726],[30.0546346,-1.9736029],[30.0545541,-1.9735332],[30.0544835,-1.9735905]]]]},"properties":{"check_date":"2023-04-14","shop":"supermarket"}},
{"type":"Feature","geometry":{"type":"MultiPolygon","coordinates":[[[[30.0567019,-1.9468239],[30.0567069,-1.9469767],[30.056937,-1.9470772],[30.0569526,-1.947039],[30.057034,-1.9470704],[30.0570046,-1.9471439],[30.0572582,-1.9472413],[30.0573004,-1.9472132],[30.0574971,-1.9466623],[30.0572417,-1.9465533],[30.0571547,-1.9465194],[30.0569181,-1.9464245],[30.0568562,-1.9464468],[30.0567019,-1.9468239]]]]},"properties":{"building":"house","building:levels":"1","check_date":"2023-04-10","roof:levels":"1","roof:shape":"flat","shop":"supermarket","source":"Bing"}},
{"type":"Feature","geometry":{"type":"MultiPolygon","coordinates":[[[[30.050578,-1.9752847],[30.050751,-1.9756828],[30.051089,-1.9755595],[30.0516522,-1.9753504],[30.0516147,-1.9751413],[30.0513196,-1.9748733],[30.050578,-1.9752847]]]]},"properties":{"amenity":"marketplace","name":"Nyamirambo Market Place","name:fr":"Place du marché de Nyamirambo"}},
{"type":"Feature","geometry":{"type":"MultiPolygon","coordinates":[[[[30.1253804,-1.9702197],[30.1254233,-1.9704449],[30.1258954,-1.9704771],[30.1259984,-1.9702144],[30.1260349,-1.969941],[30.1260091,-1.969689],[30.1255692,-1.9696354],[30.1254941,-1.9698391],[30.1253804,-1.9702197]]]]},"properties":{"amenity":"marketplace","name":"Kabeza Modern Market","name:fr":"Marché Moderne de Kabeza","name:rw":"Isoko rya Kabeza"}},
{"type":"Feature","geometry":{"type":"MultiPolygon","coordinates":[[[[29.2621818,-1.6955599],[29.2622559,-1.6959287],[29.2626034,-1.695859],[29.2625293,-1.6954901],[29.2621818,-1.6955599]]]]},"properties":{"amenity":"marketplace","building":"yes","name":"Rubavu Market","name:fr":"Marché de Rubavu"}},
{"type":"Feature","geometry":{"type":"MultiPolygon","coordinates":[[[[29.2625742,-1.6955781],[29.2626235,-1.6958247],[29.2627091,-1.6958076],[29.2626598,-1.695561],[29.2625742,-1.6955781]]]]},"properties":{"amenity":"marketplace","building":"yes"}},
{"type":"Feature","geometry":{"type":"MultiPolygon","coordinates":[[[[30.0765231,-1.9804981],[30.0765288,-1.9805783],[30.0765612,-1.980576],[30.0765605,-1.980566],[30.0766397,-1.9805605],[30.0766347,-1.9804902],[30.0765231,-1.9804981]]]]},"properties":{"check_date":"2023-06-10","name":"Terminus","name:fr":"Terminus","shop":"supermarket"}},
{"type":"Feature","geometry":{"type":"MultiPolygon","coordinates":[[[[30.0768838,-1.9703115],[30.0769699,-1.9703336],[30.0769882,-1.9702619],[30.0769021,-1.9702399],[30.0768838,-1.9703115]]]]},"properties":{"check_date":"2023-06-10","name":"Merez","name:fr":"Merez","shop":"supermarket"}},
{"type":"Feature","geometry":{"type":"MultiPolygon","coordinates":[[[[30.0835094,-1.9362951],[30.0837454,-1.9363648],[30.0837401,-1.9362978],[30.0835255,-1.9362281],[30.0835094,-1.9362951]]]]},"properties":{"building":"yes","shop":"convenience"}},
{"type":"Feature","geometry":{"type":"MultiPolygon","coordinates":[[[[30.5007628,-1.8015192],[30.5007757,-1.801645],[30.5008434,-1.8017192],[30.5009402,-1.8017644],[30.5010886,-1.8018386],[30.5012112,-1.801887],[30.5015016,-1.8017741],[30.501708,-1.8016837],[30.5019371,-1.8015644],[30.502192,-1.8014837],[30.5023823,-1.8013869],[30.5024436,-1.8013256],[30.5024629,-1.8012353],[30.5023404,-1.8010611],[30.5021952,-1.800874],[30.5020823,-1.8006675],[30.5019919,-1.8005481],[30.5018919,-1.8005707],[30.5018209,-1.8006062],[30.501779,-1.8006643],[30.5017822,-1.800732],[30.5014628,-1.8009772],[30.5013983,-1.8010579],[30.5012015,-1.801174],[30.5010499,-1.8012901],[30.500895,-1.8013998],[30.5007628,-1.8015192]]]]},"properties":{"amenity":"marketplace","name":"Karubamba's Market"}},
{"type":"Feature","geometry":{"type":"MultiPolygon","coordinates":[[[[30.5139426,-1.808799],[30.5139649,-1.8088553],[30.5140323,-1.8088286],[30.5140099,-1.8087723],[30.5139426,-1.808799]]]]},"properties":{"name":"alimantation shop","shop":"supermarket"}},
{"type":"Feature","geometry":{"type":"MultiPolygon","coordinates":[[[[30.5151729,-1.8083847],[30.5152084,-1.8084259],[30.5152752,-1.8083685],[30.5152397,-1.8083273],[30.5151729,-1.8083847]]]]},"properties":{"building":"yes","name":"rwinkuba bucher","shop":"butcher"}},
{"type":"Feature","geometry":{"type":"MultiPolygon","coordinates":[[[[30.0873779,-2.1415875],[30.0874677,-2.1416194],[30.0875031,-2.14152],[30.0874133,-2.1414881],[30.0873779,-2.1415875]]]]},"properties":{"building":"yes","shop":"supermarket"}},
{"type":"Feature","geometry":{"type":"MultiPolygon","coordinates":[[[[30.0700887,-2.1126181],[30.0701314,-2.1126362],[30.0701609,-2.1125667],[30.0701182,-2.1125486],[30.0700887,-2.1126181]]]]},"properties":{"building":"yes","shop":"supermarket"}},
{"type":"Feature","geometry":{"type":"MultiPolygon","coordinates":[[[[30.0629322,-1.934895],[30.0632934,-1.935114],[30.0633628,-1.9349996],[30.0630015,-1.9347807],[30.0629322,-1.934895]]]]},"properties":{"building":"yes","check_date":"2023-06-19","shop":"supermarket"}},
{"type":"Feature","geometry":{"type":"MultiPolygon","coordinates":[[[[30.103532,-1.9502601],[30.103695600000003,-1.9503083],[30.1037278,-1.9501394],[30.1035894,-1.9500938],[30.103532,-1.9502601]]]]},"properties":{"building":"yes","name":"Rz Manna","shop":"bakery"}},
{"type":"Feature","geometry":{"type":"MultiPolygon","coordinates":[[[[29.7390124,-2.6047922],[29.7391129,-2.6049166],[29.7391983,-2.6048477],[29.7390977,-2.6047234],[29.7390124,-2.6047922]]]]},"properties":{"building":"yes","shop":"bakery"}},
{"type":"Feature","geometry":{"type":"MultiPolygon","coordinates":[[[[30.0736858,-1.9524214],[30.0736947,-1.9525478],[30.0739425,-1.9525303],[30.0739336,-1.952404],[30.0736858,-1.9524214]]]]},"properties":{"building":"retail","check_date":"2023-04-10","shop":"convenience"}},
{"type":"Feature","geometry":{"type":"MultiPolygon","coordinates":[[[[30.0844253,-1.9584739],[30.0844635,-1.9584926],[30.0844944,-1.9584397],[30.0844562,-1.9584182],[30.0844253,-1.9584739]]]]},"properties":{"building":"yes","check_date":"2023-04-17","shop":"convenience"}},
{"type":"Feature","geometry":{"type":"MultiPolygon","coordinates":[[[[29.2618201,-1.6951602],[29.2618765,-1.6953505],[29.2620642,-1.6953063],[29.2619972,-1.695116],[29.2618201,-1.6951602]]]]},"properties":{"building":"yes","shop":"supermarket"}},
{"type":"Feature","geometry":{"type":"MultiPolygon","coordinates":[[[[29.5727161,-2.2788251],[29.5727254,-2.2788974],[29.5727581,-2.2788904],[29.5727815,-2.2789697],[29.5728095,-2.2789651],[29.5728305,-2.2790234],[29.5728702,-2.2790164],[29.5728982,-2.2790701],[29.5730103,-2.2790491],[29.5729799,-2.2789861],[29.5730897,-2.2789697],[29.5731924,-2.2788951],[29.5731037,-2.2787084],[29.5727161,-2.2788251]]]]},"properties":{"amenity":"marketplace","building":"yes"}},
{"type":"Feature","geometry":{"type":"MultiPolygon","coordinates":[[[[29.6480168,-2.3008949],[29.648041,-2.3009505],[29.6481111,-2.3009601],[29.6481836,-2.3009263],[29.6482731,-2.3008539],[29.6483311,-2.3007717],[29.6483432,-2.3007065],[29.6484036,-2.3006292],[29.6484616,-2.3005568],[29.6484785,-2.300465],[29.6484882,-2.3003563],[29.6484772,-2.3003219],[29.6482979,-2.3003764],[29.6480915,-2.3004809],[29.6480276,-2.3005341],[29.6480483,-2.3006027],[29.648099,-2.3006244],[29.6481111,-2.3006413],[29.6480603,-2.3007645],[29.6480389,-2.3008352],[29.6480168,-2.3008949]]]]},"properties":{"amenity":"marketplace","area":"yes"}},
{"type":"Feature","geometry":{"type":"MultiPolygon","coordinates":[[[[30.077364,-1.9323891],[30.0774151,-1.9324213],[30.0774634,-1.9323508],[30.077473,-1.9323367],[30.0774138,-1.9322977],[30.077364,-1.9323891]]]]},"properties":{"building":"yes","shop":"convenience"}},
{"type":"Feature","geometry":{"type":"MultiPolygon","coordinates":[[[[30.0754429,-1.9311771],[30.0754463,-1.9312487],[30.0755253,-1.9312448],[30.0755212,-1.9311702],[30.0754429,-1.9311771]]]]},"properties":{"building":"yes","shop":"convenience"}},
{"type":"Feature","geometry":{"type":"MultiPolygon","coordinates":[[[[29.6413181,-1.5068013],[29.6416236,-1.5070826],[29.6423069,-1.5072208],[29.6425687,-1.5062364],[29.6420212,-1.5060462],[29.6419665,-1.5060982],[29.6414934,-1.5065015],[29.6413181,-1.5068013]]]]},"properties":{"amenity":"marketplace","name":"Musanze Agricultural products markets"}},
{"type":"Feature","geometry":{"type":"MultiPolygon","coordinates":[[[[29.3445427,-1.698802],[29.3446553,-1.6988826],[29.3456478,-1.6996459],[29.3457315,-1.6997164],[29.346072,-1.6992308],[29.3457314,-1.699072],[29.3453184,-1.6989165],[29.34479,-1.6988093],[29.3445823,-1.6987418],[29.3445427,-1.698802]]]]},"properties":{"amenity":"marketplace","name":"Mahoko Market","name:fr":"Marché de Mahoko"}},
{"type":"Feature","geometry":{"type":"MultiPolygon","coordinates":[[[[30.1077059,-1.960459],[30.1077938,-1.9604792],[30.1079019,-1.960486],[30.1079222,-1.9604083],[30.1077093,-1.9603509],[30.1077059,-1.960459]]]]},"properties":{"amenity":"marketplace","check_date":"2023-06-10"}},
{"type":"Feature","geometry":{"type":"MultiPolygon","coordinates":[[[[29.6295186,-1.8530661],[29.6302374,-1.8532208],[29.6303287,-1.8527969],[29.6296099,-1.8526422],[29.6295186,-1.8530661]]]]},"properties":{"amenity":"marketplace","name":"Ngororero Market"}},
{"type":"Feature","geometry":{"type":"MultiPolygon","coordinates":[[[[30.2493282,-1.3762646],[30.2493349,-1.3763149],[30.2495514,-1.3762861],[30.2495447,-1.3762358],[30.2493282,-1.3762646]]]]},"properties":{"addr:city":"RUKOMO","addr:housenumber":"RUKOMO","addr:postcode":"123","addr:street":"Gatunda-Rukomo-Nyagatare","amenity":"marketplace","building":"yes","description":"This will help people to sale thier product and earn some income","name":"RUKOMO Market","opening_hours":"Mo-Sa 08:00-20:00","operator":"Every one"}},
{"type":"Feature","geometry":{"type":"MultiPolygon","coordinates":[[[[30.1042682,-2.0265385],[30.1045752,-2.0269632],[30.104887,-2.0266855],[30.1045425,-2.0263541],[30.1042682,-2.0265385]]]]},"properties":{"amenity":"marketplace","name":"Gahanga Market"}},
{"type":"Feature","geometry":{"type":"MultiPolygon","coordinates":[[[[29.6429461,-1.5099053],[29.643047,-1.5099185],[29.6430498,-1.5098973],[29.6434936,-1.5099554],[29.6434893,-1.5099887],[29.6436036,-1.5100037],[29.6436258,-1.5098344],[29.6436003,-1.509831],[29.6436434,-1.5095021],[29.6436733,-1.509506],[29.6436935,-1.5093522],[29.6430489,-1.5092678],[29.6430388,-1.5093448],[29.6430618,-1.5093478],[29.6430124,-1.5097244],[29.6429706,-1.5097189],[29.6429461,-1.5099053]]]]},"properties":{"amenity":"marketplace","building":"yes","operator":"GOICO PLAZA (Musanze mordern Market)"}},
{"type":"Feature","geometry":{"type":"MultiPolygon","coordinates":[[[[28.9466917,-2.6334419],[28.9473594,-2.6336498],[28.9474489,-2.633199],[28.9472705,-2.633143],[28.9468233,-2.6330241],[28.9466917,-2.6334419]]]]},"properties":{"amenity":"marketplace","building":"yes","name":"Gishoma Modern Market"}},
{"type":"Feature","geometry":{"type":"MultiPolygon","coordinates":[[[[30.0243761,-2.0285599],[30.0246216,-2.0287549],[30.0247869,-2.0285469],[30.0245414,-2.0283519],[30.0243761,-2.0285599]]]]},"properties":{"amenity":"marketplace"}},
{"type":"Feature","geometry":{"type":"MultiPolygon","coordinates":[[[[30.0550795,-2.0511103999999999],[30.0553093,-2.0511145],[30.0553114,-2.0509995],[30.0552568,-2.0509985],[30.0552556,-2.051065],[30.0551459,-2.051063],[30.0551472,-2.0509941],[30.0550817,-2.0509929],[30.0550795,-2.0511103999999999]]]]},"properties":{"amenity":"marketplace"}},
{"type":"Feature","geometry":{"type":"MultiPolygon","coordinates":[[[[30.0156403,-1.5616977],[30.0157765,-1.5619973],[30.016342,-1.5617404],[30.0162059,-1.5614409],[30.0156403,-1.5616977]]]]},"properties":{"amenity":"marketplace","name":"Yaramba Market"}},
{"type":"Feature","geometry":{"type":"MultiPolygon","coordinates":[[[[29.9765894,-1.6118453],[29.976953,-1.6121323],[29.9771699,-1.6118645],[29.9767744,-1.6115679],[29.9765894,-1.6118453]]]]},"properties":{"amenity":"marketplace","name":"Miyove Market"}},
{"type":"Feature","geometry":{"type":"MultiPolygon","coordinates":[[[[29.9282447,-1.6257461],[29.9283113,-1.6258378],[29.9283966,-1.6257759],[29.92833,-1.6256842],[29.9282447,-1.6257461]]]]},"properties":{"amenity":"marketplace","name":"Rwiri Market"}},
{"type":"Feature","geometry":{"type":"MultiPolygon","coordinates":[[[[30.0843237,-2.1395028],[30.0854502,-2.139862],[30.0855768,-2.1394655],[30.0844502,-2.1391064],[30.0843237,-2.1395028]]]]},"properties":{"amenity":"marketplace","building":"yes"}},
{"type":"Feature","geometry":{"type":"MultiPolygon","coordinates":[[[[30.0989705,-1.9719914],[30.0990259,-1.9726545],[30.099496,-1.9726152],[30.0994404,-1.9719521],[30.0989705,-1.9719914]]]]},"properties":{"amenity":"marketplace","building":"house","check_date":"2023-06-10","name":"Zinia Market","name:fr":"Marché Zinia","payment:mastercard":"yes","payment:visa":"yes","wheelchair":"yes"}},
{"type":"Feature","geometry":{"type":"MultiPolygon","coordinates":[[[[29.0908088,-2.3606979],[29.0911866,-2.3608222],[29.0913466,-2.3603368],[29.0909687,-2.3602125],[29.0908088,-2.3606979]]]]},"properties":{"amenity":"marketplace","building":"yes","name":"Rwesero Market"}},
{"type":"Feature","geometry":{"type":"MultiPolygon","coordinates":[[[[29.1361066,-2.3326002],[29.1362587,-2.3328301],[29.1365525,-2.3323385],[29.1361066,-2.3326002]]]]},"properties":{"amenity":"marketplace","name":"Tyazo Market","name:fr":"Marché Tyazo"}},
{"type":"Feature","geometry":{"type":"MultiPolygon","coordinates":[[[[28.9098962,-2.4781606],[28.910001,-2.4786223],[28.9102013,-2.4786038],[28.9108545,-2.4783206],[28.9105217,-2.477705],[28.9099332,-2.4780374],[28.9098962,-2.4781606]]]]},"properties":{"amenity":"marketplace","name":"Marché de Rusizi","name:fr":"Marché de Rusizi"}},
{"type":"Feature","geometry":{"type":"MultiPolygon","coordinates":[[[[30.1190543,-1.9578156],[30.1191289,-1.9580904],[30.1194531,-1.9577847],[30.1193966,-1.9576536],[30.1190543,-1.9578156]]]]},"properties":{"amenity":"marketplace","building":"public","check_date":"2023-04-07","name":"Marché de Remera","name:fr":"Marché de Remera"}},
{"type":"Feature","geometry":{"type":"MultiPolygon","coordinates":[[[[29.4457313,-1.6117439],[29.4473165,-1.6117787],[29.4472924,-1.6112505],[29.4457546,-1.6112306],[29.4457313,-1.6117439]]]]},"properties":{"amenity":"marketplace","name":"Kora Market"}},
{"type":"Feature","geometry":{"type":"MultiPolygon","coordinates":[[[[30.148394,-1.9786017],[30.1485106,-1.97866],[30.1485939,-1.9784936],[30.1484773,-1.9784353],[30.148394,-1.9786017]]]]},"properties":{"amenity":"marketplace","building":"yes","name":"Mu Itunda"}},
{"type":"Feature","geometry":{"type":"MultiPolygon","coordinates":[[[[30.1034698,-1.9731444],[30.1035669,-1.9733343],[30.1036876,-1.9732726],[30.1035905,-1.9730827],[30.1034698,-1.9731444]]]]},"properties":{"building":"yes","name":"Simba Kicukiro","shop":"supermarket"}},
{"type":"Feature","geometry":{"type":"MultiPolygon","coordinates":[[[[30.0747903,-1.9521854],[30.0748541,-1.9525025],[30.0750529,-1.9524626],[30.0749891,-1.9521455],[30.0747903,-1.9521854]]]]},"properties":{"building":"yes","name":"Sawa Citi","shop":"supermarket"}},
{"type":"Feature","geometry":{"type":"MultiPolygon","coordinates":[[[[30.1208752,-1.9596524],[30.1209458,-1.9597619],[30.1210621,-1.959687],[30.1212392,-1.9601118],[30.1215673,-1.9599939],[30.1213442,-1.9595054],[30.1212736,-1.9593958],[30.1208752,-1.9596524]]]]},"properties":{"amenity":"marketplace","building":"yes"}}
]}
