{"type":"FeatureCollection","features":[
{"type":"Feature","geometry":{"type":"Point","coordinates":[42.5415667,-0.3652875]},"properties":{"source":"MadMappers-SOM-2008-01"}},
{"type":"Feature","geometry":{"type":"Point","coordinates":[42.5410281,-0.3652938]},"properties":{"source":"MadMappers-SOM-2008-01"}},
{"type":"Feature","geometry":{"type":"Point","coordinates":[42.5415697,-0.3655464]},"properties":{"source":"MadMappers-SOM-2008-01"}},
{"type":"Feature","geometry":{"type":"Point","coordinates":[42.5410312,-0.3655526]},"properties":{"source":"MadMappers-SOM-2008-01"}},
{"type":"Feature","geometry":{"type":"Point","coordinates":[42.2200875,3.330562]},"properties":{"amenity":"marketplace","name":"Garbaharey Market سوق جربهاري","name:ar":"سوق جربهاري"}},
{"type":"Feature","geometry":{"type":"Point","coordinates":[41.8772814,3.9329331]},"properties":{"amenity":"marketplace","name":"Hananley Market"}},
{"type":"Feature","geometry":{"type":"Point","coordinates":[42.547938,-0.350037]},"properties":{"amenity":"marketplace","name":"Yassan Market"}},
{"type":"Feature","geometry":{"type":"Point","coordinates":[42.5478184,-0.355834]},"properties":{"amenity":"marketplace","name":"Argo Market"}},
{"type":"Feature","geometry":{"type":"Point","coordinates":[44.0785817,9.5251604]},"properties":{"shop":"convenience"}},
{"type":"Feature","geometry":{"type":"Point","coordinates":[45.3373955,2.03408]},"properties":{"name":"Mogadishu Mall (bacaadlaha)","shop":"supermarket"}},
{"type":"Feature","geometry":{"type":"Point","coordinates":[45.3203359,2.0490359]},"properties":{"addr:city":"مقديشو","name":"suuqa bakaaraha سوق البقرة","name:ar":"سوق البقرة","name:so":"suuqa bakaaraha","shop":"supermarket"}},
{"type":"Feature","geometry":{"type":"Point","coordinates":[44.0621475,9.5613756]},"properties":{"shop":"supermarket"}},
{"type":"Feature","geometry":{"type":"Point","coordinates":[44.0620271,9.5613918]},"properties":{"addr:street":"presidential Palace Road","name":"سوبرماركت كيسي بوشارو","name:ar":"سوبرماركت كيسي بوشارو","name:en":"Casey Bouchareau","opening_hours":"08:00-22:00","shop":"supermarket"}},
{"type":"Feature","geometry":{"type":"Point","coordinates":[44.0348613,9.5735901]},"properties":{"name":"Ramaad shopping center","shop":"supermarket"}},
{"type":"Feature","geometry":{"type":"Point","coordinates":[45.5260408,9.5250857]},"properties":{"addr:housenumber":"0468","addr:postcode":"+252","addr:street":"Wadada Maqaaxida Bidhaan","email":"abu_sacad@hotmail.com","internet_access":"wlan","name":"بقالة سعد","name:ar":"بقالة سعد","name:en":"Sacad Store","opening_hours":"24/7","operator":"Younis Ismael","phone":"+252634330127","shop":"supermarket"}},
{"type":"Feature","geometry":{"type":"Point","coordinates":[45.5258706,9.5249503]},"properties":{"addr:postcode":"+252","addr:street":"wadada reer ibrahim coosh","email":"abusacad736@gmail.com","internet_access":"wlan","name":"بقالة سعد","name:ar":"بقالة سعد","name:en":"Sacad Store","opening_hours":"24/7","operator":"Younis Ismael Adam","phone":"+252634330127","shop":"supermarket"}},
{"type":"Feature","geometry":{"type":"Point","coordinates":[44.0582718,9.5469461]},"properties":{"addr:city":"Hargaysia","addr:housenumber":"80","addr:street":"Faarax Nuur Street","name":"Xamdi Supermarkt  and Coffeshop","operator":"Xamdi","shop":"supermarket"}},
{"type":"Feature","geometry":{"type":"Point","coordinates":[49.1727309,11.2780765]},"properties":{"addr:postcode":"252","addr:street":"laanta hawada","amenity":"community_centre","email":"hado.aid@gmail.com","internet_access":"wlan","name:en":"HADO NGO","opening_hours":"Su-Th 08:00-14:00","phone":"002525826675","shop":"bakery","website":"http://www.hado.org"}},
{"type":"Feature","geometry":{"type":"Point","coordinates":[45.3539562,2.0458024]},"properties":{"shop":"bakery"}},
{"type":"Feature","geometry":{"type":"Point","coordinates":[49.1824381,11.2818489]},"properties":{"name:en":"Carwo Israac","phone":"0907964091","shop":"supermarket"}},
{"type":"Feature","geometry":{"type":"Point","coordinates":[44.0797489,9.576673]},"properties":{"name":"BARKHADLE BUSSINES CENTER SHEEKH NUUR","name:ar":"BARKHADLE BUSSINES CENTER SHEEKH NUUR","shop":"supermarket"}},
{"type":"Feature","geometry":{"type":"Point","coordinates":[47.4103293,6.7647647]},"properties":{"name:en":"Maxjarka","shop":"butcher"}},
{"type":"Feature","geometry":{"type":"Point","coordinates":[47.3578522,8.4761628]},"properties":{"name:en":"Al Macruuf Shopping Center","shop":"supermarket"}},
{"type":"Feature","geometry":{"type":"Point","coordinates":[44.0420469,9.5642219]},"properties":{"name":"Deeqsan Fresh Fruits Shop","shop":"supermarket"}},
{"type":"Feature","geometry":{"type":"Point","coordinates":[49.0906833,9.5109036]},"properties":{"addr:postcode":"252","addr:street":"Main Road","name":"Awaare Minimarket","name:en":"Somali","opening_hours":"24/7","shop":"supermarket"}},
{"type":"Feature","geometry":{"type":"Point","coordinates":[45.3410886,2.0345455]},"properties":{"addr:street":"Via 1 Juli / طريق 1 تموز","internet_access":"wlan","name":"مقديشو مول","name:ar":"مقديشو مول","name:en":"muqdisho mool","opening_hours":"24/7","shop":"supermarket"}},
{"type":"Feature","geometry":{"type":"Point","coordinates":[44.0567967,9.580471]},"properties":{"name:en":"Adan Naynteen Store","shop":"supermarket"}},
{"type":"Feature","geometry":{"type":"Point","coordinates":[45.3049476,2.0325971]},"properties":{"name":"FADXI SUPERMARKETS","phone":"00252612850086","shop":"supermarket"}},
{"type":"Feature","geometry":{"type":"Point","coordinates":[44.0277101,9.5659421]},"properties":{"name:en":"Cookie Time","shop":"bakery"}},
{"type":"Feature","geometry":{"type":"Point","coordinates":[50.758074,11.9672594]},"properties":{"addr:city":"علولة","name":"متجر هودو","name:ar":"متجر هودو","phone":"+252 907 382 666","shop":"convenience"}},
{"type":"Feature","geometry":{"type":"Point","coordinates":[44.0620141,9.570355]},"properties":{"amenity":"marketplace"}},
{"type":"Feature","geometry":{"type":"Point","coordinates":[44.061894,9.5711617]},"properties":{"shop":"convenience"}},
{"type":"Feature","geometry":{"type":"Point","coordinates":[44.0741551,9.5236763]},"properties":{"name":"Alloore supermarket & dry-cleaning","phone":"00252634220248","shop":"supermarket"}},
{"type":"Feature","geometry":{"type":"Point","coordinates":[44.0744662,9.5225071]},"properties":{"shop":"convenience"}},
{"type":"Feature","geometry":{"type":"Point","coordinates":[44.0706012,9.5210364]},"properties":{"shop":"convenience"}},
{"type":"Feature","geometry":{"type":"Point","coordinates":[48.4845064,8.3962587]},"properties":{"addr:street":"Wadada wayn ee barxada ka timaada","email":"sadiqmoha13@gmail.com","name":"Miidnimo Fresh Meat and Vegetables","opening_hours":"Mo-Su 05:00-23:59","phone":"+252907746679","shop":"supermarket"}},
{"type":"Feature","geometry":{"type":"Point","coordinates":[44.0574701,9.5401713]},"properties":{"addr:city":"Hargeysia","addr:housenumber":"1","addr:street":"Awrful street","name":"Guure Super markt","opening_hours":"Mo-Su 09:00-21:00","operator":"Mubarik Guure","payment:cash":"yes","phone":"+252634179372","shop":"supermarket"}},
{"type":"Feature","geometry":{"type":"Point","coordinates":[44.0579252,9.5396798]},"properties":{"addr:housenumber":"3","addr:street":"Abdi shaah Street","name":"Moofada Badhka","operator":"Jaahuur","shop":"bakery"}},
{"type":"Feature","geometry":{"type":"Point","coordinates":[45.3527657,2.0536858]},"properties":{"amenity":"marketplace"}},
{"type":"Feature","geometry":{"type":"Point","coordinates":[44.0677731,9.5610541]},"properties":{"addr:city":"hargeisa","addr:housenumber":"402 Gacan libaax","addr:postcode":"90701","addr:street":"Road Number 1 / طريق رقم 1","name":"XAAJI CIISE DABOOLE","opening_hours":"12/7","operator":"MALL","payment:cash":"yes","payment:usa":"yes","phone":"0025","shop":"supermarket"}},
{"type":"Feature","geometry":{"type":"Point","coordinates":[49.1854335,11.2806422]},"properties":{"addr:city":"Bosaso","addr:street":"Wadaad Masaajidka","name":"Cigale market","opening_hours":"24/7","payment:cash":"yes","phone":"+252907683931","shop":"supermarket"}},
{"type":"Feature","geometry":{"type":"Point","coordinates":[48.4883067,8.4056544]},"properties":{"amenity":"marketplace","name":"Animal Market"}},
{"type":"Feature","geometry":{"type":"Point","coordinates":[45.3120764,2.0229066]},"properties":{"name":"Shop","shop":"convenience"}},
{"type":"Feature","geometry":{"type":"Point","coordinates":[44.0721007,9.5626665]},"properties":{"addr:city":"hagreisa","addr:housenumber":"0994","addr:postcode":"00000","addr:street":"Abdirahman Tuur Road","branch":"marso","name":"marso onlir market","opening_hours":"24/7","operator":"khalil dahir","payment:cash":"yes","phone":"+252 63 8042859","shop":"supermarket"}},
{"type":"Feature","geometry":{"type":"Point","coordinates":[45.2428271,2.0606879]},"properties":{"shop":"bakery"}},
{"type":"Feature","geometry":{"type":"Point","coordinates":[48.4836271,8.399571]},"properties":{"addr:city":"Garowe","addr:street":"Islaam Maxamed RD","name":"Golden Hours","opening_hours":"24/7","payment:cash":"yes","phone":"+252905656666","shop":"supermarket"}},
{"type":"Feature","geometry":{"type":"LineString","coordinates":[[45.3733481,2.0480144],[45.3737473,2.0471441],[45.3745733,2.0475481],[45.3741549,2.0484004],[45.3737808,2.0482214],[45.3733481,2.0480144]]},"properties":{"shop":"butcher"}},
{"type":"Feature","geometry":{"type":"LineString","coordinates":[[42.5415697,-0.3655464],[42.5415667,-0.3652875],[42.5410281,-0.3652938],[42.5410312,-0.3655526],[42.5415697,-0.3655464]]},"properties":{"amenity":"marketplace","attribution":"Mart Roumen; FAO-SWALIM; Madmappers-SOM-2008-01","landuse":"retail","name":"Market","source":"MadMappers-SOM-2008-01"}},
{"type":"Feature","geometry":{"type":"LineString","coordinates":[[45.2900039,2.019229],[45.2907298,2.0204974],[45.2908382,2.0206586],[45.290939,2.0208378],[45.2913928,2.021637],[45.2911666,2.0217838],[45.2910334,2.0218644],[45.2906712,2.0220691],[45.2903578,2.0222392],[45.2902369,2.0223134],[45.2900946,2.0223872],[45.2898525,2.0225016],[45.2892682,2.0215128],[45.2888578,2.0207783],[45.2886287,2.0200484],[45.288811,2.0198962],[45.2890809,2.0197125],[45.2900039,2.019229]]},"properties":{"addr:city":"مقديشو","amenity":"marketplace","name":"Suuqa Wayn سوق وين","name:ar":"سوق وين","name:en":"Suuqa Wayn","name:fr":"Grand marché"}},
{"type":"Feature","geometry":{"type":"LineString","coordinates":[[44.1181435,9.5608313],[44.1191842,9.5610217],[44.1196563,9.5610852],[44.1200104,9.5609265],[44.1201498,9.5607043],[44.1203108,9.5600272],[44.1204073,9.5592443],[44.1200318,9.5592972],[44.1196992,9.5591068],[44.1194954,9.5588105],[44.1187873,9.5587259],[44.1181435,9.5608313]]},"properties":{"building":"yes","name":"Kawaanka Xoolaha","shop":"butcher"}},
{"type":"Feature","geometry":{"type":"LineString","coordinates":[[45.0635888,9.409978],[45.0639517,9.4098963],[45.0638954,9.4096392],[45.0635175,9.4097713],[45.0635888,9.409978]]},"properties":{"amenity":"marketplace","name":"Sariibad"}},
{"type":"Feature","geometry":{"type":"LineString","coordinates":[[44.0907644,9.5378344],[44.0911517,9.5379084],[44.0912055,9.5376344],[44.0908181,9.5375604],[44.0907644,9.5378344]]},"properties":{"amenity":"marketplace","building":"yes","name":"Sariibada MMooge"}},
{"type":"Feature","geometry":{"type":"LineString","coordinates":[[45.2041137,4.7356285],[45.2042706,4.7355571],[45.2042074,4.7354192],[45.2040504,4.7354906],[45.2041137,4.7356285]]},"properties":{"amenity":"marketplace","building":"supermarket","fixme":"Permission to the UNSOA mission must be required before importing the data. Feel free to rollback whether this could be an issue. Permission will be asked as soon as possible.","name":"Central Market","shop":"general","source":"UNSOA: SPOT5 image based data capture using different Ancillary Sources coming from UNSOA field mission, NSP"}},
{"type":"Feature","geometry":{"type":"LineString","coordinates":[[49.0915704,9.5070592],[49.0916146,9.506874],[49.0917125,9.5067219],[49.0918721,9.506673],[49.0921242,9.5067338],[49.092017,9.5071716],[49.0915704,9.5070592]]},"properties":{"amenity":"marketplace","name":"siilada xoolaha"}},
{"type":"Feature","geometry":{"type":"LineString","coordinates":[[49.0854677,9.5081444],[49.0855786,9.5081201],[49.085541,9.5079541],[49.0854301,9.5079785],[49.0854677,9.5081444]]},"properties":{"building":"yes","name":"suuqa Kaluunka","shop":"supermarket"}},
{"type":"Feature","geometry":{"type":"LineString","coordinates":[[43.6618551,3.1104988],[43.6622841,3.1106445],[43.662188,3.110927],[43.6621113,3.110901],[43.6621838,3.1106883],[43.6618987,3.1105914],[43.6618701,3.1106754],[43.6618027,3.1106525],[43.6618551,3.1104988]]},"properties":{"amenity":"marketplace","building":"yes","name":"Animal market"}},
{"type":"Feature","geometry":{"type":"LineString","coordinates":[[45.4912187,2.7778722],[45.4914357,2.7778017],[45.4915282,2.777791],[45.4915886,2.7777281],[45.4916207,2.7776477],[45.4916681,2.7773252],[45.4916624,2.7772535],[45.491636,2.7772095],[45.4915403,2.7771869],[45.4914518,2.777128],[45.491376700000007,2.7769927],[45.4912533,2.7769927],[45.4911339,2.7770329],[45.4910186,2.777136],[45.4909395,2.7772941],[45.49091,2.7774736],[45.4909059,2.7776156],[45.4909341,2.7776879],[45.4910615,2.7777374],[45.4911245,2.777795],[45.4911621,2.7778526],[45.4912187,2.7778722]]},"properties":{"amenity":"marketplace","name":"Animal Market"}},
{"type":"Feature","geometry":{"type":"LineString","coordinates":[[45.3868872,2.3595613],[45.3870427,2.3591821],[45.3869435,2.3591415],[45.386788,2.3595207],[45.3868872,2.3595613]]},"properties":{"amenity":"marketplace","building":"yes"}},
{"type":"Feature","geometry":{"type":"LineString","coordinates":[[44.0614401,9.5708589],[44.0615259,9.5701567],[44.0616828,9.5701725],[44.0616976,9.5701104],[44.0618344,9.5701236],[44.0618853,9.5698221],[44.0627141,9.5699226],[44.0626853,9.5701805],[44.0626625,9.5701785],[44.0626464,9.5703173],[44.0626772,9.5703306],[44.0626732,9.5704007],[44.0626464,9.5704456],[44.0625773,9.5704707],[44.0625418,9.5704621],[44.0625143,9.570482],[44.0624808,9.5705071],[44.0624687,9.5705051],[44.062464,9.5705369],[44.0623983,9.5705336],[44.0623856,9.5705858],[44.0623252,9.5705898],[44.0623225,9.5706182],[44.0622823,9.5706241],[44.0622662,9.570642],[44.0622159,9.5706665],[44.0621965,9.5706665],[44.0621857,9.5705944],[44.0621321,9.5705891],[44.0621274,9.5706837],[44.0617834,9.5708265],[44.0617418,9.5708245],[44.0617197,9.5708503],[44.061719,9.5708708],[44.061597,9.5708661],[44.0616024,9.5708318],[44.0615501,9.5708298],[44.061546,9.5708721],[44.0614401,9.5708589]]},"properties":{"amenity":"marketplace","building":"yes"}},
{"type":"Feature","geometry":{"type":"LineString","coordinates":[[42.5418098,-0.3660909],[42.5418594,-0.3660889],[42.5418615,-0.366141],[42.5418119,-0.366143],[42.5418098,-0.3660909]]},"properties":{"amenity":"marketplace","building":"yes","name":"Fish Market"}},
{"type":"Feature","geometry":{"type":"LineString","coordinates":[[45.3389526,2.0351946],[45.3389385,2.0351255],[45.3389479,2.0351019],[45.3389621,2.0350595],[45.3389699,2.0349148],[45.3389671,2.0348126],[45.3390014,2.0347215],[45.3392546,2.0347749],[45.3392609,2.0348111],[45.3392609,2.034841],[45.3392248,2.0351129],[45.3392137,2.0351349],[45.3391933,2.0352009],[45.3391021,2.0351553],[45.3390281,2.0351491],[45.3390171,2.0351915],[45.3389526,2.0351946]]},"properties":{"amenity":"marketplace"}},
{"type":"Feature","geometry":{"type":"LineString","coordinates":[[45.3221024,2.0340181],[45.322212,2.0340587],[45.3223018,2.0338168],[45.3221922,2.0337762],[45.3221024,2.0340181]]},"properties":{"building":"yes","name":"Midnimo supermarket","shop":"supermarket"}},
{"type":"Feature","geometry":{"type":"LineString","coordinates":[[42.5490746,-0.3588244],[42.5490409,-0.3589135],[42.5489678,-0.3588863],[42.5489129,-0.3590136],[42.548812,-0.3589517],[42.548917,-0.3587754],[42.5490746,-0.3588244]]},"properties":{"building":"yes","shop":"convenience"}},
{"type":"Feature","geometry":{"type":"LineString","coordinates":[[42.9762116,2.4059302],[42.9764731,2.4054732],[42.9761224,2.4052434],[42.9758281,2.4056568],[42.9762116,2.4059302]]},"properties":{"amenity":"marketplace"}},
{"type":"Feature","geometry":{"type":"LineString","coordinates":[[42.5514543,-0.3464226],[42.5514905,-0.3462831],[42.5516769,-0.3463328],[42.551638,-0.3464682],[42.5514543,-0.3464226]]},"properties":{"name":"Supermarket","shop":"supermarket"}},
{"type":"Feature","geometry":{"type":"LineString","coordinates":[[47.5177923,4.6605413],[47.5180204,4.6605137],[47.5179716,4.6596951],[47.5177501,4.6597083],[47.5177923,4.6605413]]},"properties":{"amenity":"marketplace","name":"suuqa Ariga"}},
{"type":"Feature","geometry":{"type":"MultiPolygon","coordinates":[[[[45.3733481,2.0480144],[45.3737473,2.0471441],[45.3745733,2.0475481],[45.3741549,2.0484004],[45.3737808,2.0482214],[45.3733481,2.0480144]]]]},"properties":{"shop":"butcher"}},
{"type":"Feature","geometry":{"type":"MultiPolygon","coordinates":[[[[42.5410281,-0.3652938],[42.5410312,-0.3655526],[42.5415697,-0.3655464],[42.5415667,-0.3652875],[42.5410281,-0.3652938]]]]},"properties":{"amenity":"marketplace","attribution":"Mart Roumen; FAO-SWALIM; Madmappers-SOM-2008-01","landuse":"retail","name":"Market","source":"MadMappers-SOM-2008-01"}},
{"type":"Feature","geometry":{"type":"MultiPolygon","coordinates":[[[[45.2886287,2.0200484],[45.288811,2.0198962],[45.2890809,2.0197125],[45.2900039,2.019229],[45.2907298,2.0204974],[45.2908382,2.0206586],[45.290939,2.0208378],[45.2913928,2.021637],[45.2911666,2.0217838],[45.2910334,2.0218644],[45.2906712,2.0220691],[45.2903578,2.0222392],[45.2902369,2.0223134],[45.2900946,2.0223872],[45.2898525,2.0225016],[45.2892682,2.0215128],[45.2888578,2.0207783],[45.2886287,2.0200484]]]]},"properties":{"addr:city":"مقديشو","amenity":"marketplace","name":"Suuqa Wayn سوق وين","name:ar":"سوق وين","name:en":"Suuqa Wayn","name:fr":"Grand marché"}},
{"type":"Feature","geometry":{"type":"MultiPolygon","coordinates":[[[[44.1181435,9.5608313],[44.1187873,9.5587259],[44.1194954,9.5588105],[44.1196992,9.5591068],[44.1200318,9.5592972],[44.1204073,9.5592443],[44.1203108,9.5600272],[44.1201498,9.5607043],[44.1200104,9.5609265],[44.1196563,9.5610852],[44.1191842,9.5610217],[44.1181435,9.5608313]]]]},"properties":{"building":"yes","name":"Kawaanka Xoolaha","shop":"butcher"}},
{"type":"Feature","geometry":{"type":"MultiPolygon","coordinates":[[[[45.0635175,9.4097713],[45.0638954,9.4096392],[45.0639517,9.4098963],[45.0635888,9.409978],[45.0635175,9.4097713]]]]},"properties":{"amenity":"marketplace","name":"Sariibad"}},
{"type":"Feature","geometry":{"type":"MultiPolygon","coordinates":[[[[44.0907644,9.5378344],[44.0908181,9.5375604],[44.0912055,9.5376344],[44.0911517,9.5379084],[44.0907644,9.5378344]]]]},"properties":{"amenity":"marketplace","building":"yes","name":"Sariibada MMooge"}},
{"type":"Feature","geometry":{"type":"MultiPolygon","coordinates":[[[[45.2040504,4.7354906],[45.2042074,4.7354192],[45.2042706,4.7355571],[45.2041137,4.7356285],[45.2040504,4.7354906]]]]},"properties":{"amenity":"marketplace","building":"supermarket","fixme":"Permission to the UNSOA mission must be required before importing the data. Feel free to rollback whether this could be an issue. Permission will be asked as soon as possible.","name":"Central Market","shop":"general","source":"UNSOA: SPOT5 image based data capture using different Ancillary Sources coming from UNSOA field mission, NSP"}},
{"type":"Feature","geometry":{"type":"MultiPolygon","coordinates":[[[[49.0915704,9.5070592],[49.0916146,9.506874],[49.0917125,9.5067219],[49.0918721,9.506673],[49.0921242,9.5067338],[49.092017,9.5071716],[49.0915704,9.5070592]]]]},"properties":{"amenity":"marketplace","name":"siilada xoolaha"}},
{"type":"Feature","geometry":{"type":"MultiPolygon","coordinates":[[[[49.0854301,9.5079785],[49.085541,9.5079541],[49.0855786,9.5081201],[49.0854677,9.5081444],[49.0854301,9.5079785]]]]},"properties":{"building":"yes","name":"suuqa Kaluunka","shop":"supermarket"}},
{"type":"Feature","geometry":{"type":"MultiPolygon","coordinates":[[[[43.6618027,3.1106525],[43.6618551,3.1104988],[43.6622841,3.1106445],[43.662188,3.110927],[43.6621113,3.110901],[43.6621838,3.1106883],[43.6618987,3.1105914],[43.6618701,3.1106754],[43.6618027,3.1106525]]]]},"properties":{"amenity":"marketplace","building":"yes","name":"Animal market"}},
{"type":"Feature","geometry":{"type":"MultiPolygon","coordinates":[[[[45.4909059,2.7776156],[45.49091,2.7774736],[45.4909395,2.7772941],[45.4910186,2.777136],[45.4911339,2.7770329],[45.4912533,2.7769927],[45.491376700000007,2.7769927],[45.4914518,2.777128],[45.4915403,2.7771869],[45.491636,2.7772095],[45.4916624,2.7772535],[45.4916681,2.7773252],[45.4916207,2.7776477],[45.4915886,2.7777281],[45.4915282,2.777791],[45.4914357,2.7778017],[45.4912187,2.7778722],[45.4911621,2.7778526],[45.4911245,2.777795],[45.4910615,2.7777374],[45.4909341,2.7776879],[45.4909059,2.7776156]]]]},"properties":{"amenity":"marketplace","name":"Animal Market"}},
{"type":"Feature","geometry":{"type":"MultiPolygon","coordinates":[[[[45.386788,2.3595207],[45.3869435,2.3591415],[45.3870427,2.3591821],[45.3868872,2.3595613],[45.386788,2.3595207]]]]},"properties":{"amenity":"marketplace","building":"yes"}},
{"type":"Feature","geometry":{"type":"MultiPolygon","coordinates":[[[[44.0614401,9.5708589],[44.0615259,9.5701567],[44.0616828,9.5701725],[44.0616976,9.5701104],[44.0618344,9.5701236],[44.0618853,9.5698221],[44.0627141,9.5699226],[44.0626853,9.5701805],[44.0626625,9.5701785],[44.0626464,9.5703173],[44.0626772,9.5703306],[44.0626732,9.5704007],[44.0626464,9.5704456],[44.0625773,9.5704707],[44.0625418,9.5704621],[44.0625143,9.570482],[44.0624808,9.5705071],[44.0624687,9.5705051],[44.062464,9.5705369],[44.0623983,9.5705336],[44.0623856,9.5705858],[44.0623252,9.5705898],[44.0623225,9.5706182],[44.0622823,9.5706241],[44.0622662,9.570642],[44.0622159,9.5706665],[44.0621965,9.5706665],[44.0621857,9.5705944],[44.0621321,9.5705891],[44.0621274,9.5706837],[44.0617834,9.5708265],[44.0617418,9.5708245],[44.0617197,9.5708503],[44.061719,9.5708708],[44.061597,9.5708661],[44.0616024,9.5708318],[44.0615501,9.5708298],[44.061546,9.5708721],[44.0614401,9.5708589]]]]},"properties":{"amenity":"marketplace","building":"yes"}},
{"type":"Feature","geometry":{"type":"MultiPolygon","coordinates":[[[[42.5418098,-0.3660909],[42.5418119,-0.366143],[42.5418615,-0.366141],[42.5418594,-0.3660889],[42.5418098,-0.3660909]]]]},"properties":{"amenity":"marketplace","building":"yes","name":"Fish Market"}},
{"type":"Feature","geometry":{"type":"MultiPolygon","coordinates":[[[[45.3389385,2.0351255],[45.3389479,2.0351019],[45.3389621,2.0350595],[45.3389699,2.0349148],[45.3389671,2.0348126],[45.3390014,2.0347215],[45.3392546,2.0347749],[45.3392609,2.0348111],[45.3392609,2.034841],[45.3392248,2.0351129],[45.3392137,2.0351349],[45.3391933,2.0352009],[45.3391021,2.0351553],[45.3390281,2.0351491],[45.3390171,2.0351915],[45.3389526,2.0351946],[45.3389385,2.0351255]]]]},"properties":{"amenity":"marketplace"}},
{"type":"Feature","geometry":{"type":"MultiPolygon","coordinates":[[[[45.3221024,2.0340181],[45.3221922,2.0337762],[45.3223018,2.0338168],[45.322212,2.0340587],[45.3221024,2.0340181]]]]},"properties":{"building":"yes","name":"Midnimo supermarket","shop":"supermarket"}},
{"type":"Feature","geometry":{"type":"MultiPolygon","coordinates":[[[[42.548812,-0.3589517],[42.5489129,-0.3590136],[42.5489678,-0.3588863],[42.5490409,-0.3589135],[42.5490746,-0.3588244],[42.548917,-0.3587754],[42.548812,-0.3589517]]]]},"properties":{"building":"yes","shop":"convenience"}},
{"type":"Feature","geometry":{"type":"MultiPolygon","coordinates":[[[[42.9758281,2.4056568],[42.9761224,2.4052434],[42.9764731,2.4054732],[42.9762116,2.4059302],[42.9758281,2.4056568]]]]},"properties":{"amenity":"marketplace"}},
{"type":"Feature","geometry":{"type":"MultiPolygon","coordinates":[[[[42.5514543,-0.3464226],[42.551638,-0.3464682],[42.5516769,-0.3463328],[42.5514905,-0.3462831],[42.5514543,-0.3464226]]]]},"properties":{"name":"Supermarket","shop":"supermarket"}},
{"type":"Feature","geometry":{"type":"MultiPolygon","coordinates":[[[[47.5177501,4.6597083],[47.5179716,4.6596951],[47.5180204,4.6605137],[47.5177923,4.6605413],[47.5177501,4.6597083]]]]},"properties":{"amenity":"marketplace","name":"suuqa Ariga"}}
]}
