{"type":"FeatureCollection","features":[
{"type":"Feature","geometry":{"type":"Point","coordinates":[31.5961033,4.8677673]},"properties":{"shop":"convenience","source":"own GPS survey (garmin etrex 30)"}},
{"type":"Feature","geometry":{"type":"Point","coordinates":[31.5996111,4.8605738]},"properties":{"cuisine":"chinese","name":"Wonderful supermarket","shop":"supermarket"}},
{"type":"Feature","geometry":{"type":"Point","coordinates":[31.5809328,4.8468446]},"properties":{"amenity":"marketplace","name":"Custom Market"}},
{"type":"Feature","geometry":{"type":"Point","coordinates":[31.5604285,4.8640542]},"properties":{"amenity":"marketplace","source":"own GPS survey (garmin etrex 30)"}},
{"type":"Feature","geometry":{"type":"Point","coordinates":[31.5766932,4.8456224]},"properties":{"name":"JIT","shop":"supermarket"}},
{"type":"Feature","geometry":{"type":"Point","coordinates":[31.5901884,4.8994083]},"properties":{"name":"SPLA JIT","shop":"convenience"}},
{"type":"Feature","geometry":{"type":"Point","coordinates":[30.0222473,7.4856666]},"properties":{"shop":"convenience"}},
{"type":"Feature","geometry":{"type":"Point","coordinates":[31.6007767,4.838327]},"properties":{"name":"Amen","shop":"supermarket"}},
{"type":"Feature","geometry":{"type":"Point","coordinates":[28.5793501,9.3470157]},"properties":{"amenity":"marketplace","name":"Agok market"}},
{"type":"Feature","geometry":{"type":"Point","coordinates":[31.5609964,6.2122134]},"properties":{"shop":"supermarket"}},
{"type":"Feature","geometry":{"type":"Point","coordinates":[32.9096526,6.6350693]},"properties":{"amenity":"marketplace","name":"Gumuruk Market","name:ar":"سوق قمروك"}},
{"type":"Feature","geometry":{"type":"Point","coordinates":[31.9809155,4.6885795]},"properties":{"name":"Vegetable Farm","shop":"farm"}},
{"type":"Feature","geometry":{"type":"Point","coordinates":[32.5720018,4.4094494]},"properties":{"amenity":"marketplace"}},
{"type":"Feature","geometry":{"type":"Point","coordinates":[33.4973834,4.2298771]},"properties":{"amenity":"marketplace","name":"Market"}},
{"type":"Feature","geometry":{"type":"Point","coordinates":[32.7593948,4.7612393]},"properties":{"name":"Shop","shop":"convenience"}},
{"type":"Feature","geometry":{"type":"Point","coordinates":[31.5973178,4.8616782]},"properties":{"shop":"convenience"}},
{"type":"Feature","geometry":{"type":"Point","coordinates":[31.5978821,4.8617087]},"properties":{"name":"Rhianna's Shop","shop":"convenience"}},
{"type":"Feature","geometry":{"type":"Point","coordinates":[28.3972658,4.569852]},"properties":{"shop":"supermarket"}},
{"type":"Feature","geometry":{"type":"Point","coordinates":[27.9543114,5.1837434]},"properties":{"amenity":"marketplace","name":"Yangiri Market"}},
{"type":"Feature","geometry":{"type":"Point","coordinates":[33.7439216,9.9854617]},"properties":{"amenity":"marketplace","name":"سوق فور","name:en":"Darfur Market","source":"survey"}},
{"type":"Feature","geometry":{"type":"Point","coordinates":[33.5865007,9.9899569]},"properties":{"name":"MARKET","shop":"supermarket"}},
{"type":"Feature","geometry":{"type":"Point","coordinates":[31.5936528,4.8730969]},"properties":{"name":"Ban Canteen","shop":"convenience","source":"own GPS survey (garmin etrex 30)"}},
{"type":"Feature","geometry":{"type":"Point","coordinates":[30.1495567,8.2979402]},"properties":{"name":"Leer Market Butchers (abondoned)","shop":"butcher"}},
{"type":"Feature","geometry":{"type":"Point","coordinates":[30.6739222,4.0970407]},"properties":{"name":"Ghousia Supermarket","shop":"supermarket"}},
{"type":"Feature","geometry":{"type":"Point","coordinates":[30.6749916,4.0957684]},"properties":{"name":"Tawad Supermarket","shop":"supermarket"}},
{"type":"Feature","geometry":{"type":"Point","coordinates":[30.676526,4.094445]},"properties":{"shop":"supermarket"}},
{"type":"Feature","geometry":{"type":"Point","coordinates":[31.6048487,4.8599537]},"properties":{"shop":"convenience"}},
{"type":"Feature","geometry":{"type":"Point","coordinates":[31.5921157,4.8570162]},"properties":{"name":"VaMP","name:en":"VaMP","shop":"supermarket"}},
{"type":"Feature","geometry":{"type":"Point","coordinates":[31.5935527,4.8292527]},"properties":{"name":"La Baguette Bakery","shop":"bakery"}},
{"type":"Feature","geometry":{"type":"Point","coordinates":[27.4017615,8.7671489]},"properties":{"name":"Absala investment","shop":"supermarket"}},
{"type":"Feature","geometry":{"type":"Point","coordinates":[27.4011236,8.767625]},"properties":{"name":"Absala shop","shop":"supermarket"}},
{"type":"Feature","geometry":{"type":"Point","coordinates":[31.6002564,4.8612598]},"properties":{"addr:street":"Airport Road","name":"Lily’s","shop":"supermarket"}},
{"type":"Feature","geometry":{"type":"Point","coordinates":[31.5907474,4.8533978]},"properties":{"addr:street":"Airport Road","name":"Best Home Supermarket","name:zh_pinyin":"WenMing ChaoShi","opening_hours":"Mo-Su 08:30-18:00","operator":"Liu Wenming","phone":"+211913398888","shop":"supermarket"}},
{"type":"Feature","geometry":{"type":"Point","coordinates":[25.3031756,8.318336]},"properties":{"name":"ز","shop":"bakery"}},
{"type":"Feature","geometry":{"type":"Point","coordinates":[31.5975838,4.8647746]},"properties":{"name":"Nature Valley Frozen Meat","shop":"butcher"}},
{"type":"Feature","geometry":{"type":"Point","coordinates":[31.586541,4.8578792]},"properties":{"name":"Hofana","shop":"supermarket"}},
{"type":"Feature","geometry":{"type":"Point","coordinates":[31.5912933,4.8392928]},"properties":{"name":"La Baguette","shop":"bakery"}},
{"type":"Feature","geometry":{"type":"Point","coordinates":[31.5823361,4.8541106]},"properties":{"name":"JIT Super market","shop":"supermarket"}},
{"type":"Feature","geometry":{"type":"Point","coordinates":[31.5962036,4.8570362]},"properties":{"name":"Bakery","shop":"bakery"}},
{"type":"Feature","geometry":{"type":"Point","coordinates":[31.596144,4.8569455]},"properties":{"name":"Local bakery","shop":"bakery"}},
{"type":"Feature","geometry":{"type":"Point","coordinates":[31.5957415,4.8560555]},"properties":{"name":"New Time Shopping Plazza","shop":"supermarket"}},
{"type":"Feature","geometry":{"type":"Point","coordinates":[31.8864682,7.8966672]},"properties":{"amenity":"marketplace","name":"Market Yuai"}},
{"type":"Feature","geometry":{"type":"Point","coordinates":[31.5970317,4.8645101]},"properties":{"name":"Ammadi","opening_hours":"Mo-Su 08:00-17:00","shop":"supermarket"}},
{"type":"Feature","geometry":{"type":"Point","coordinates":[32.381885,4.1980171]},"properties":{"name":"Kormush Market","shop":"supermarket"}},
{"type":"Feature","geometry":{"type":"Point","coordinates":[30.6535189,4.0819597]},"properties":{"addr:street":"Congo Road","amenity":"marketplace","name":"lutaya market yei"}},
{"type":"Feature","geometry":{"type":"Point","coordinates":[31.5859314,4.8438775]},"properties":{"name":"Sari Disco bakery","shop":"bakery"}},
{"type":"Feature","geometry":{"type":"Point","coordinates":[30.1478308,8.2968088]},"properties":{"amenity":"marketplace","name":"Leer Market abandoned"}},
{"type":"Feature","geometry":{"type":"Point","coordinates":[33.7563053,9.9778665]},"properties":{"amenity":"marketplace","name":"سوق وسخان","name:en":"Doro Market"}},
{"type":"Feature","geometry":{"type":"Point","coordinates":[33.7569496,9.9886364]},"properties":{"amenity":"marketplace","name":"سوق حريه","name:en":"Freedom Market"}},
{"type":"Feature","geometry":{"type":"Point","coordinates":[31.5812536,4.8321727]},"properties":{"name":"Wisdom Backery","shop":"bakery"}},
{"type":"Feature","geometry":{"type":"Point","coordinates":[31.6101284,4.8438305]},"properties":{"shop":"supermarket"}},
{"type":"Feature","geometry":{"type":"Point","coordinates":[31.6103844,4.8455124]},"properties":{"name":"Sabrien","shop":"supermarket"}},
{"type":"Feature","geometry":{"type":"Point","coordinates":[31.6089075,4.8468761]},"properties":{"name":"Shambi","shop":"supermarket"}},
{"type":"Feature","geometry":{"type":"Point","coordinates":[31.6093214,4.834986]},"properties":{"shop":"supermarket"}},
{"type":"Feature","geometry":{"type":"Point","coordinates":[31.6112073,4.8453229]},"properties":{"name":"Toni Supermarket","shop":"supermarket"}},
{"type":"Feature","geometry":{"type":"Point","coordinates":[31.610143,4.8400081]},"properties":{"name":"Lucky's Supermarket","shop":"supermarket"}},
{"type":"Feature","geometry":{"type":"Point","coordinates":[31.6113559,4.8477639]},"properties":{"name":"Twin Tower Supermarket","shop":"supermarket"}},
{"type":"Feature","geometry":{"type":"Point","coordinates":[31.6061184,4.841269]},"properties":{"name":"Juba Mall","shop":"supermarket"}},
{"type":"Feature","geometry":{"type":"Point","coordinates":[31.5701479,4.8625201]},"properties":{"brand":"Shop & Go","check_date":"2023-08-12","internet_access":"wlan","internet_access:fee":"no","name":"Moi Footware Store","payment:mastercard":"yes","payment:visa":"yes","shop":"convenience","wheelchair":"yes"}},
{"type":"Feature","geometry":{"type":"Point","coordinates":[32.5394421,3.9529356]},"properties":{"name":"L","shop":"supermarket"}},
{"type":"Feature","geometry":{"type":"Point","coordinates":[32.6557697,3.8939898]},"properties":{"addr:street":"Magwi-Farajok","name":"Kicenga pig Butchery","shop":"butcher"}},
{"type":"Feature","geometry":{"type":"Point","coordinates":[28.1678011,9.3022122]},"properties":{"name:ar":"جانديد","shop":"supermarket"}},
{"type":"Feature","geometry":{"type":"Point","coordinates":[27.4717239,5.605303]},"properties":{"amenity":"marketplace"}},
{"type":"Feature","geometry":{"type":"Point","coordinates":[28.0930454,9.3100274]},"properties":{"name:ar":"شانديد","shop":"supermarket"}},
{"type":"Feature","geometry":{"type":"Point","coordinates":[28.7833846,7.4736941]},"properties":{"shop":"supermarket"}},
{"type":"Feature","geometry":{"type":"Point","coordinates":[30.1444199,8.3112132]},"properties":{"amenity":"marketplace","name":"Leer Market"}},
{"type":"Feature","geometry":{"type":"Point","coordinates":[30.1425597,8.3133301]},"properties":{"amenity":"marketplace","name":"Fish Market"}},
{"type":"Feature","geometry":{"type":"Point","coordinates":[30.1388146,8.3080516]},"properties":{"amenity":"marketplace","name":"Fish Market"}},
{"type":"Feature","geometry":{"type":"Point","coordinates":[30.3281571,5.0329058]},"properties":{"addr:boma":"Medewu","addr:county":"Mundri West","addr:payam":"Bangolo","addr:state":"Western Equatoria","addr:village":"Medewu","amenity":"marketplace","capacity:shop":"1","name":"Medewu market"}},
{"type":"Feature","geometry":{"type":"Point","coordinates":[30.1583505,5.3723097]},"properties":{"addr:boma":"Gulu Boma","addr:county":"Mundri West","addr:payam":"Mundri","addr:state":"Western Equatoria","addr:village":"Gulu central","amenity":"marketplace","capacity:shop":"15","name":"Gulu central market"}},
{"type":"Feature","geometry":{"type":"Point","coordinates":[30.3010163,4.8292874]},"properties":{"addr:boma":"Bangolo boma","addr:county":"Mundri West","addr:payam":"Bangolo","addr:state":"Western Equatoria","addr:village":"Bangolo market","amenity":"marketplace","capacity:shop":"5","name":"Bangolo vegetables market"}},
{"type":"Feature","geometry":{"type":"Point","coordinates":[30.395586,5.2273421]},"properties":{"addr:boma":"Bari","addr:county":"Mundri West","addr:payam":"Bangolo","addr:state":"Western Equatoria","amenity":"marketplace","capacity:shop":"2","name":"Bari Central Market"}},
{"type":"Feature","geometry":{"type":"Point","coordinates":[30.3011442,4.8286497]},"properties":{"addr:boma":"Bangolo","addr:county":"Mundri West","addr:payam":"Bangolo","addr:state":"Western Equatoria","addr:village":"Bangolo","amenity":"marketplace","capacity:shop":"4","name":"Bangolo central Market"}},
{"type":"Feature","geometry":{"type":"Point","coordinates":[30.3273928,5.3467493]},"properties":{"addr:boma":"Bari","addr:county":"Mundri West","addr:payam":"Mundri","addr:state":"Western Equatoria","addr:village":"Moruaka","amenity":"marketplace","capacity:shop":"300","name":"Mundri Central"}},
{"type":"Feature","geometry":{"type":"Point","coordinates":[30.3187863,5.3464902]},"properties":{"addr:boma":"Mundri","addr:county":"Mundri West","addr:payam":"Mundri","addr:state":"Western Equatoria","addr:village":"Mundri center","amenity":"marketplace","capacity:shop":"400","name":"Mundri central market"}},
{"type":"Feature","geometry":{"type":"Point","coordinates":[30.164984,5.5742524]},"properties":{"addr:boma":"Mbara","addr:county":"Mundri West","addr:payam":"Mundri","addr:state":"Western Equatoria","addr:village":"Mbara center","amenity":"marketplace","capacity:shop":"5","name":"Mbara center market"}},
{"type":"Feature","geometry":{"type":"Point","coordinates":[30.3955711,5.2272314]},"properties":{"addr:boma":"Bari","addr:county":"Mundri West","addr:payam":"Bangolo","addr:state":"Western Equatoria","addr:village":"Bari","amenity":"marketplace","capacity:shop":"1","name":"Bari center market"}},
{"type":"Feature","geometry":{"type":"Point","coordinates":[30.328153,5.03285]},"properties":{"addr:boma":"Medewu","addr:county":"Mundri West","addr:payam":"Bangolo","addr:state":"Western Equatoria","addr:village":"Market Centre","amenity":"marketplace","capacity:shop":"1","name":"Medewu Market"}},
{"type":"Feature","geometry":{"type":"Point","coordinates":[30.2048099,5.2494244]},"properties":{"addr:boma":"Kotobi Boma","addr:county":"Mundri West","addr:payam":"Kotobi","addr:state":"Western Equatoria","addr:village":"Malakia","amenity":"marketplace","capacity:shop":"5","name":"Kotobi market"}},
{"type":"Feature","geometry":{"type":"Point","coordinates":[30.4359258,5.5681444]},"properties":{"addr:boma":"Bitti Boma","addr:county":"Mundri West","addr:payam":"Amadi","addr:state":"Western Equatoria","addr:village":"Mora","amenity":"marketplace","capacity:shop":"10","name":"Bitti market"}},
{"type":"Feature","geometry":{"type":"Point","coordinates":[30.389705,5.424395]},"properties":{"addr:boma":"Amadi","addr:county":"Mundri West","addr:payam":"Amadi","addr:state":"Western Equatoria","addr:village":"Faraga sika","amenity":"marketplace","capacity:shop":"8","name":"Faraga sika market"}},
{"type":"Feature","geometry":{"type":"Point","coordinates":[30.1582567,5.3724047]},"properties":{"addr:boma":"Gulu Boma","addr:county":"Mundri West","addr:payam":"Mundri","addr:state":"Western Equatoria","addr:village":"Gulu center","amenity":"marketplace","capacity:shop":"15","name":"Gulu Boma central market"}},
{"type":"Feature","geometry":{"type":"LineString","coordinates":[[31.5849322,4.8542512],[31.5849318,4.8541308],[31.5852671,4.8541335],[31.5852661,4.8542539],[31.5849322,4.8542512]]},"properties":{"building":"yes","name":"Phenicia","payment:cash":"yes","payment:credit_cards":"yes","shop":"supermarket"}},
{"type":"Feature","geometry":{"type":"LineString","coordinates":[[27.9927938,7.7120631],[27.9944929,7.7125614],[27.994789,7.7115697],[27.99309,7.7110715],[27.9927938,7.7120631]]},"properties":{"amenity":"marketplace"}},
{"type":"Feature","geometry":{"type":"LineString","coordinates":[[27.397738,8.7667548],[27.397867,8.7671796],[27.3979143,8.7673146],[27.3989014,8.7678308],[27.3990998,8.7681253],[27.3994404,8.768441],[27.4019534,8.7667572],[27.4000466,8.7659225],[27.3997725,8.766853],[27.397738,8.7667548]]},"properties":{"amenity":"marketplace","name":"Aweil Souk","name:ar":"سوق أويل"}},
{"type":"Feature","geometry":{"type":"LineString","coordinates":[[28.0034343,7.6794634],[28.004106,7.6798107],[28.0035598,7.6808483],[28.0028881,7.680501],[28.0034343,7.6794634]]},"properties":{"amenity":"marketplace"}},
{"type":"Feature","geometry":{"type":"LineString","coordinates":[[31.6179191,4.8569783],[31.6178993,4.8567946],[31.617926,4.8567917],[31.6179198,4.8567343],[31.618374,4.8566856],[31.6183824,4.8567632],[31.6182287,4.8567797],[31.6182348,4.8568363],[31.6182654,4.856833],[31.6182709,4.8568842],[31.618234,4.8568881],[31.61824,4.8569438],[31.6179191,4.8569783]]},"properties":{"building":"commercial","name":"JIT Mart","shop":"supermarket"}},
{"type":"Feature","geometry":{"type":"LineString","coordinates":[[30.6796461,4.0970713],[30.6804699,4.0971221],[30.680483,4.0965702],[30.6796399,4.0965489],[30.6796461,4.0970713]]},"properties":{"amenity":"marketplace","landuse":"retail","name":"Yei Central Market"}},
{"type":"Feature","geometry":{"type":"LineString","coordinates":[[30.6800183,4.0972256],[30.6802798,4.0972284],[30.6802803,4.0971909],[30.6800187,4.0971881],[30.6800183,4.0972256]]},"properties":{"name":"Meat Market","shop":"butcher"}},
{"type":"Feature","geometry":{"type":"LineString","coordinates":[[33.5925104,4.7674806],[33.5932095,4.7678812],[33.5931667,4.7680473],[33.5932812,4.7681287],[33.5936594,4.7678623],[33.5941509,4.767487],[33.5953286,4.7667427],[33.5956268,4.7662242],[33.5956502,4.7655389],[33.5950188,4.7653955],[33.5948305,4.7655322],[33.5933919,4.765015],[33.5925104,4.7674806]]},"properties":{"amenity":"marketplace","name":"Kapoeta Market"}},
{"type":"Feature","geometry":{"type":"LineString","coordinates":[[33.5888056,4.7803258],[33.5890594,4.7805693],[33.5894202,4.7808812],[33.5899615,4.7802938],[33.5893842,4.7797544],[33.5888056,4.7803258]]},"properties":{"amenity":"marketplace","name":"Cow Market"}},
{"type":"Feature","geometry":{"type":"LineString","coordinates":[[32.5725812,4.408832],[32.5718326,4.4090881],[32.5718802,4.4091925],[32.5721181,4.4091166],[32.5721625,4.4093064],[32.5719436,4.4095847],[32.5720578,4.4096479],[32.5721752,4.4095657],[32.5722608,4.4095499],[32.5722925,4.4097112],[32.5723187,4.4098012],[32.5720159,4.4099175],[32.5717355,4.4102261],[32.5716817,4.4105638],[32.5717355,4.4107829],[32.5731106,4.410451],[32.5732637,4.4110078],[32.5742533,4.4108052],[32.5742286,4.4106845],[32.5742215,4.4103076],[32.5742156,4.4097974],[32.5742108,4.4097258],[32.5742289,4.4087288],[32.5734108,4.4087346],[32.5733225,4.4084703],[32.5726647,4.4087118],[32.5725812,4.408832]]},"properties":{"amenity":"marketplace","name":"Torit Market"}},
{"type":"Feature","geometry":{"type":"LineString","coordinates":[[31.5913038,4.8573639],[31.5914805,4.857364],[31.5914807,4.8572117],[31.5913958,4.8572116],[31.5913959,4.8570844],[31.591304,4.8570843],[31.5913038,4.8573639]]},"properties":{"building":"yes","name":"Vamp Vegetables and Fruits","shop":"supermarket"}},
{"type":"Feature","geometry":{"type":"LineString","coordinates":[[31.5724761,4.8663075],[31.5724828,4.8661937],[31.5724372,4.8662009],[31.5724121,4.866205],[31.5723645,4.8662056],[31.5723543,4.8660429],[31.5723856,4.866042],[31.5723902,4.8661623],[31.5724216,4.8661586],[31.5724225,4.8659529],[31.5723239,4.8659492],[31.5723147,4.8658253],[31.5722289,4.8658188000000008],[31.5722547,4.8656249],[31.5718918,4.8656165],[31.5716875,4.865621],[31.5716866,4.8656968],[31.5716798,4.865901],[31.5716805,4.8660042],[31.5717131,4.8660042],[31.5717828,4.8660199],[31.571857,4.8660195],[31.5718573,4.866075],[31.5718559,4.8661118],[31.5716878,4.8661111],[31.5716904,4.8662313],[31.5716891,4.8663098],[31.5716836,4.8664881],[31.5718912,4.8664897],[31.571882,4.8662943],[31.5720059,4.8662979],[31.5720031,4.8664819],[31.5724717,4.866477],[31.5724761,4.8663075]]},"properties":{"amenity":"marketplace"}},
{"type":"Feature","geometry":{"type":"LineString","coordinates":[[30.0837658,8.388545],[30.0834119,8.3896094],[30.0851107,8.3900436],[30.0854115,8.3890352],[30.0837658,8.388545]]},"properties":{"amenity":"marketplace","landuse":"retail","name":"Rupkuai Market"}},
{"type":"Feature","geometry":{"type":"LineString","coordinates":[[30.0677854,8.3207868],[30.0665608,8.3206542],[30.0665651,8.3210362],[30.0670333,8.3210876],[30.0677854,8.3211902],[30.0677854,8.3207868]]},"properties":{"amenity":"marketplace","name":"Minyal Public Market"}},
{"type":"Feature","geometry":{"type":"LineString","coordinates":[[30.2016134,8.2662142],[30.201886,8.2657771],[30.202937,8.2652621],[30.2030056,8.2653354],[30.2028535,8.2655971],[30.2029828,8.2657344],[30.2029133,8.2658799],[30.2028003,8.2659714],[30.2028533,8.2660742],[30.202874,8.2661196],[30.2027942,8.2661774],[30.2027371,8.2662019],[30.2025102,8.2660456],[30.2024673,8.2660953],[30.2024369,8.2661365],[30.2023949,8.2661885],[30.2023493,8.2662116],[30.2023586,8.2663297],[30.2021253,8.2665036],[30.2016134,8.2662142]]},"properties":{"amenity":"marketplace","name":"Pillieny Public Market"}},
{"type":"Feature","geometry":{"type":"LineString","coordinates":[[30.1422143,8.3048339],[30.1422483,8.3049268],[30.1423195,8.3049958],[30.1424141,8.3050274],[30.1425131,8.3050153],[30.142597,8.3049619],[30.1426492,8.3048777],[30.1426593,8.3047795],[30.1426253,8.3046867],[30.142554,8.3046177],[30.1424595,8.304586],[30.1423605,8.3045982],[30.1422766,8.3046516],[30.1422244,8.3047357],[30.1422143,8.3048339]]},"properties":{"amenity":"marketplace","name":"Teashops and meeting place"}},
{"type":"Feature","geometry":{"type":"LineString","coordinates":[[29.9939631,8.5921346],[29.9948014,8.5927642],[29.9959488,8.5911989],[29.9951438,8.5906246],[29.9939631,8.5921346]]},"properties":{"addr:city":"Koch","amenity":"marketplace","landuse":"retail","name":"Koch Market"}},
{"type":"Feature","geometry":{"type":"LineString","coordinates":[[30.1002572,8.4686771],[30.1007802,8.4697091],[30.1019014,8.4691838],[30.1017029,8.4687461],[30.1016143,8.4684993],[30.1015733,8.4684039],[30.1015433,8.4683328],[30.1015047,8.4682585],[30.1014965,8.4682408],[30.1014636,8.4681834],[30.1014255,8.4681149],[30.1002572,8.4686771]]},"properties":{"amenity":"marketplace"}},
{"type":"Feature","geometry":{"type":"LineString","coordinates":[[31.5132906,4.8659228],[31.5137123,4.8659275],[31.5137151,4.8656787],[31.5132934,4.865674],[31.5132906,4.8659228]]},"properties":{"amenity":"marketplace","fixme":"confirm"}},
{"type":"Feature","geometry":{"type":"LineString","coordinates":[[31.5358116,4.8673082],[31.5358126,4.8673339],[31.5358017,4.8673947],[31.5357076,4.8673987],[31.5356952,4.8673991],[31.5355879,4.8674025],[31.5355768,4.867403],[31.5354929,4.8674068],[31.5358116,4.8673082]]},"properties":{"amenity":"marketplace"}},
{"type":"Feature","geometry":{"type":"LineString","coordinates":[[31.6048929,4.8382004],[31.6052805,4.8386249],[31.6062749,4.8375921],[31.6059622,4.8372518],[31.6048929,4.8382004]]},"properties":{"amenity":"marketplace","name":"Malakia Market","source":"USAID http://www.southsudanmaps.org/"}},
{"type":"Feature","geometry":{"type":"LineString","coordinates":[[31.6044119,4.8383519],[31.6049768,4.8378387],[31.6041353,4.8369342],[31.6038261,4.8372363],[31.6036474,4.8370216],[31.6026634,4.835895],[31.6024768,4.8360665],[31.6034832,4.8372058000000008],[31.6044119,4.8383519]]},"properties":{"amenity":"marketplace","name":"Malakia Market","source":"USAID http://www.southsudanmaps.org/"}},
{"type":"Feature","geometry":{"type":"LineString","coordinates":[[31.6138342,4.859343],[31.6139169,4.8591678],[31.6143661,4.8591448],[31.6147784,4.8592118],[31.6146349,4.8594524],[31.6146139,4.8597465],[31.6144132,4.8597818],[31.6144289,4.8601033],[31.6146952,4.8600902],[31.6147319,4.860362],[31.6145312,4.8604247],[31.6144014,4.8606992],[31.6142388,4.8609161],[31.6139091,4.8610516],[31.613815,4.8610319],[31.6137627,4.8607275],[31.6139472,4.860631],[31.6138382,4.860397],[31.6138039,4.8602949],[31.6138248,4.8600136],[31.6137792,4.8597453],[31.6138465,4.8596709],[31.6138342,4.859343]]},"properties":{"amenity":"marketplace","name":"Gabat Market","source":"USAID http://www.southsudanmaps.org/"}},
{"type":"Feature","geometry":{"type":"LineString","coordinates":[[31.6154856,4.8509471],[31.616321,4.8507032],[31.6164727,4.851469],[31.6156279,4.8516639],[31.6154856,4.8509471]]},"properties":{"amenity":"marketplace","name":"Juba Market","source":"USAID http://www.southsudanmaps.org/"}},
{"type":"Feature","geometry":{"type":"LineString","coordinates":[[31.5759189,4.8670319],[31.5767147,4.8670445],[31.5767252,4.8662189],[31.5759348,4.8661797],[31.5759189,4.8670319]]},"properties":{"amenity":"marketplace","name":"Militia Market","source":"USAID http://www.southsudanmaps.org/"}},
{"type":"Feature","geometry":{"type":"LineString","coordinates":[[31.5956316,4.8353475],[31.5956669,4.835853],[31.5962693,4.8358969],[31.5964247,4.8353527],[31.5956316,4.8353475]]},"properties":{"amenity":"marketplace","name":"Rujal Mafi Market"}},
{"type":"Feature","geometry":{"type":"LineString","coordinates":[[31.5963552,4.8301082],[31.5967131,4.830153],[31.5970668,4.8302095],[31.5969191,4.8307988],[31.5963439,4.8306011],[31.5963552,4.8301082]]},"properties":{"amenity":"marketplace","name":"Kator Market","source":"USAID http://www.southsudanmaps.org/Juba.html"}},
{"type":"Feature","geometry":{"type":"LineString","coordinates":[[31.589671,4.8301364],[31.5901162,4.829998],[31.5902663,4.8301237],[31.590626,4.830246],[31.590819,4.8303344],[31.5910274,4.8303701],[31.5910111,4.8305090999999999],[31.59058,4.8305261],[31.589893,4.8307366],[31.589671,4.8301364]]},"properties":{"amenity":"marketplace","name":"Suk Sita"}},
{"type":"Feature","geometry":{"type":"LineString","coordinates":[[31.6077125,4.8269058],[31.6077663,4.8261093],[31.6081684,4.825896],[31.6086726,4.8260896],[31.6082693,4.8267827],[31.60787,4.8265262],[31.6078404,4.8266267],[31.6077723,4.8269081],[31.6077125,4.8269058]]},"properties":{"amenity":"marketplace"}},
{"type":"Feature","geometry":{"type":"LineString","coordinates":[[31.5939121,4.8642468],[31.5938995,4.8641829],[31.5938669,4.8639769],[31.5941453,4.8639645],[31.5941916,4.8643118],[31.5939205,4.8643235],[31.5939121,4.8642468]]},"properties":{"amenity":"marketplace","barrier":"wall"}},
{"type":"Feature","geometry":{"type":"LineString","coordinates":[[31.5946308,4.8645038],[31.594631,4.8648692],[31.5949197,4.8648779],[31.5949134,4.8645118],[31.5948488,4.86447],[31.5946616,4.8644713],[31.5946308,4.8645038]]},"properties":{"amenity":"marketplace"}},
{"type":"Feature","geometry":{"type":"LineString","coordinates":[[31.5823987,4.8420515],[31.5824449,4.8420453],[31.5824508,4.8422597],[31.5820248,4.8422876],[31.5816015,4.8422981],[31.5814698,4.8422666],[31.5814635,4.8422152],[31.5817573,4.8422267],[31.5820059,4.8422341],[31.5824061,4.84221],[31.5823987,4.8420515]]},"properties":{"amenity":"marketplace"}},
{"type":"Feature","geometry":{"type":"LineString","coordinates":[[31.5836291,4.8421138],[31.5837021,4.8422004],[31.5836175,4.8422704],[31.5835309,4.8421457],[31.5835401,4.8419521],[31.5835347,4.8417202],[31.5835937,4.8416921],[31.583663,4.841704],[31.5836511,4.841744],[31.583599,4.8417492],[31.5836159,4.8419508],[31.5835978,4.8420168],[31.5836291,4.8421138]]},"properties":{"amenity":"marketplace"}},
{"type":"Feature","geometry":{"type":"LineString","coordinates":[[31.5836689,4.8417505],[31.5836846,4.8417062],[31.5837415,4.8416936],[31.5837856,4.8417313],[31.5836689,4.8417505]]},"properties":{"amenity":"marketplace"}},
{"type":"Feature","geometry":{"type":"LineString","coordinates":[[31.5838038,4.8417372],[31.5838036,4.8416852],[31.5838984,4.841671],[31.5839639,4.8416673],[31.5839642,4.8416941],[31.5838038,4.8417372]]},"properties":{"amenity":"marketplace"}},
{"type":"Feature","geometry":{"type":"LineString","coordinates":[[31.5834675,4.8421164],[31.5834436,4.8421817],[31.5832664,4.8422277],[31.58288,4.842264],[31.582567,4.8422472],[31.5825,4.8421864],[31.5828217,4.8421964],[31.5834094,4.8421476],[31.5834675,4.8421164]]},"properties":{"amenity":"marketplace"}},
{"type":"Feature","geometry":{"type":"LineString","coordinates":[[31.5838492,4.8416161],[31.5838499,4.8416428],[31.5835238,4.8416524],[31.5835141,4.8415384],[31.5835767,4.8415525],[31.5835774,4.8416133],[31.5835994,4.841612],[31.5837258,4.8416094],[31.5838492,4.8416161]]},"properties":{"amenity":"marketplace"}},
{"type":"Feature","geometry":{"type":"LineString","coordinates":[[30.6774155,4.0974772],[30.6786136,4.0974982],[30.6785258,4.096029],[30.6774169,4.0961436],[30.6773698,4.0968123],[30.6774155,4.0974772]]},"properties":{"addr:city":"Yei","amenity":"marketplace","landuse":"retail","name":"Cloth Market"}},
{"type":"Feature","geometry":{"type":"LineString","coordinates":[[31.5939946,4.816766],[31.5941902,4.8167639],[31.5942291,4.8166336],[31.5944031,4.8166368],[31.5946959,4.8166605],[31.5946808,4.8168253],[31.5948591,4.8169943],[31.5950018,4.8170029],[31.5950223,4.8165614],[31.5949304,4.8165604],[31.5949337,4.816541],[31.5947424,4.8165238],[31.5946895,4.816261],[31.5939827,4.8162761],[31.5939752,4.8165819],[31.5939946,4.816766]]},"properties":{"amenity":"marketplace"}},
{"type":"Feature","geometry":{"type":"LineString","coordinates":[[31.6074515,4.831352],[31.6072684,4.8314927],[31.6070313,4.8316344],[31.6069012,4.8317102],[31.6060374,4.8324235],[31.6067755,4.8332768],[31.6076129,4.8343527],[31.6080715,4.8348977],[31.6086247,4.8355011],[31.6084573,4.8358234],[31.6085753,4.8359998],[31.6093183,4.8353851],[31.6095597,4.8352969],[31.6094792,4.8343989],[31.6093987,4.8342947],[31.6098601,4.8329583],[31.6088409,4.8331744],[31.6085799,4.8325133],[31.6079937,4.8318765],[31.6076567,4.8316705],[31.6074515,4.831352]]},"properties":{"amenity":"marketplace","name":"Konyo Konyo Market"}},
{"type":"Feature","geometry":{"type":"LineString","coordinates":[[33.4989183,9.0249664],[33.4993748,9.026022],[33.500395,9.0255399],[33.5000231,9.0245246],[33.4989183,9.0249664]]},"properties":{"addr:city":"Mathiang","amenity":"marketplace","name":"Mathiang Market"}},
{"type":"Feature","geometry":{"type":"LineString","coordinates":[[31.558129,6.2083394],[31.5595155,6.2104521],[31.5598033,6.2108906],[31.5580752,6.2121156],[31.5571153,6.2107822],[31.5570299,6.2106715],[31.5567818,6.2108835],[31.556531,6.2111355],[31.5565149,6.2113088],[31.5561958,6.2118381],[31.5560228,6.2121007],[31.5558122,6.2123754],[31.5555362,6.2121287],[31.5554231,6.2119473],[31.5546126,6.2107875],[31.5547342,6.2107117],[31.558129,6.2083394]]},"properties":{"amenity":"marketplace","landuse":"retail","name":"Maror Market"}},
{"type":"Feature","geometry":{"type":"LineString","coordinates":[[31.5694001,4.8283192],[31.5695952,4.8289267],[31.5698865,4.8298337],[31.5699794,4.8302666],[31.5742779,4.8296858],[31.574707,4.8296911],[31.5746932,4.8292355],[31.5742373,4.8292528],[31.5742209,4.8272578],[31.5727583,4.8272525],[31.5727404,4.8276373],[31.5723095,4.8279883],[31.569606,4.8280756],[31.5694001,4.8283192]]},"properties":{"amenity":"marketplace","name":"Jebel Market"}},
{"type":"Feature","geometry":{"type":"LineString","coordinates":[[31.522538,4.8474445],[31.5227394,4.847462],[31.5228723,4.8474242],[31.5229715,4.8473689],[31.5229226,4.8473521],[31.5229095,4.8473252],[31.5227343,4.8473245],[31.5226701,4.8473312],[31.5226626,4.8473079],[31.5226151,4.8473089],[31.5226218,4.8472693],[31.5225315,4.8472667],[31.522535,4.847374],[31.522538,4.8474445]]},"properties":{"amenity":"marketplace"}},
{"type":"Feature","geometry":{"type":"LineString","coordinates":[[26.9969761,9.1207654],[26.9985747,9.1202464],[26.9987103,9.1187937],[26.9975555,9.1159508],[26.9944871,9.117222],[26.9954219,9.118852],[26.9969761,9.1207654]]},"properties":{"amenity":"marketplace","name":"Nyamlell Market"}},
{"type":"Feature","geometry":{"type":"LineString","coordinates":[[26.8682911,9.2163156],[26.8680283,9.2171999],[26.8683341,9.2198051],[26.8668428,9.2201175],[26.8657806,9.2167445],[26.8662312,9.2161832],[26.8682911,9.2163156]]},"properties":{"amenity":"marketplace","landuse":"commercial","name":"Gok Machar Market"}},
{"type":"Feature","geometry":{"type":"LineString","coordinates":[[27.6127551,9.1445847],[27.6137126,9.1445767],[27.6141161,9.144484],[27.6144154,9.1444152],[27.6144073,9.1436419],[27.6139728,9.1430885],[27.6120399,9.1428107],[27.6114082,9.1429418],[27.6114809,9.1431472],[27.6118478,9.1441845],[27.6120037,9.1446251],[27.6127551,9.1445847]]},"properties":{"amenity":"marketplace","landuse":"commercial","name":"Warawar Market"}},
{"type":"Feature","geometry":{"type":"LineString","coordinates":[[27.4358004,8.6879199],[27.4360579,8.6874321],[27.4369699,8.6873287],[27.4372596,8.6877715],[27.4367982,8.6885377],[27.436015,8.6883415],[27.4358004,8.6879199]]},"properties":{"amenity":"marketplace","name":"Panadhot Market"}},
{"type":"Feature","geometry":{"type":"LineString","coordinates":[[27.5711742,9.0160656],[27.5713834,9.0140947],[27.5713418,9.0121626],[27.571716,9.0106032],[27.5714203,9.0104413],[27.5710884,9.0102588],[27.5707075,9.0106032],[27.569345,9.0118801],[27.5695657,9.0128311],[27.569609,9.0128417],[27.5696228,9.0129281],[27.5696268,9.0130747],[27.5695492,9.0133329],[27.5694523,9.014847],[27.5696938,9.0157467],[27.5699038,9.016142],[27.569996,9.0162976],[27.5701818,9.0164365],[27.5704229,9.0163464],[27.5711742,9.0160656]]},"properties":{"amenity":"marketplace","name":"Wanyjok market"}},
{"type":"Feature","geometry":{"type":"LineString","coordinates":[[27.6252556,9.0164007],[27.6257518,9.016406],[27.6262641,9.0164352],[27.6266477,9.0166126],[27.6279351,9.0163345],[27.627793,9.0156563],[27.6275462,9.0150921],[27.6261542,9.0153384],[27.625945,9.015349],[27.625674,9.0155186],[27.6254654,9.0155647],[27.6254603,9.015561],[27.6254542,9.0155591],[27.6254478,9.0155591],[27.6254418,9.0155611],[27.6254366,9.0155648],[27.6254329,9.0155699],[27.6250625,9.0156537],[27.6249713,9.0159875],[27.625033,9.0163106],[27.6252556,9.0164007]]},"properties":{"amenity":"marketplace","name":"Malualkon Market"}},
{"type":"Feature","geometry":{"type":"LineString","coordinates":[[27.5065826,8.951147],[27.5060327,8.9502462],[27.5057028,8.9498408],[27.5050108,8.9498461],[27.5049465,8.9504184],[27.5044261,8.9506012],[27.5042786,8.9509854],[27.5042813,8.9516743],[27.5042893,8.9520611],[27.5048392,8.9524559],[27.5056733,8.9530017],[27.5072854,8.952848],[27.5074007,8.9523313],[27.5072395,8.9520967],[27.5065826,8.951147]]},"properties":{"amenity":"marketplace","name":"Akuem Market"}},
{"type":"Feature","geometry":{"type":"LineString","coordinates":[[27.428824,8.8541356],[27.4300391,8.8545225],[27.4303207,8.8542708],[27.429693,8.8529828],[27.4290064,8.853049],[27.4286979,8.8539209],[27.428824,8.8541356]]},"properties":{"amenity":"marketplace","name":"Ajaach Market"}},
{"type":"Feature","geometry":{"type":"LineString","coordinates":[[27.0975444,9.0798614],[27.0978287,9.0796495],[27.0985207,9.0784153],[27.0982954,9.0783517],[27.0978502,9.0787299],[27.0973673,9.0792999],[27.0975444,9.0798614]]},"properties":{"amenity":"marketplace","name":"Aguat Market"}},
{"type":"Feature","geometry":{"type":"LineString","coordinates":[[27.2875762,9.0420559],[27.2890514,9.0430705],[27.2887295,9.0438042],[27.2878283,9.0444744],[27.2865221,9.044175],[27.2864041,9.0437141],[27.2867125,9.0432638],[27.2866186,9.0429354],[27.2875762,9.0420559]]},"properties":{"amenity":"marketplace","name":"Mayen Ulem market"}},
{"type":"Feature","geometry":{"type":"LineString","coordinates":[[27.2522434,8.8860114],[27.2519108,8.8863374],[27.2509184,8.8868488],[27.2507441,8.8867375],[27.2517258,8.8856165],[27.2522434,8.8860114]]},"properties":{"amenity":"marketplace","name":"Udhum Market"}},
{"type":"Feature","geometry":{"type":"LineString","coordinates":[[27.5926694,8.5986038],[27.5924817,8.5969276],[27.5908026,8.5971133],[27.590588,8.5978612],[27.5909045,8.5987576],[27.5926694,8.5986038]]},"properties":{"amenity":"marketplace","name":"Malek Alel Market"}},
{"type":"Feature","geometry":{"type":"LineString","coordinates":[[27.6781461,8.6952563],[27.6785671,8.6953305],[27.6789668,8.6949646],[27.6786503,8.6945802],[27.6785095,8.6943006],[27.6783244,8.6942264],[27.6783486,8.6940249],[27.678944,8.6938154],[27.6791358,8.6935303],[27.6791545,8.6934772],[27.6790744,8.6933624],[27.6781192,8.692809],[27.6779663,8.6930212],[27.6781138,8.693342],[27.6779757,8.6938685],[27.6779248,8.6940355],[27.677969,8.6943999],[27.6779341,8.6946889],[27.6781461,8.6952563]]},"properties":{"amenity":"marketplace","name":"Wathmuok Market"}},
{"type":"Feature","geometry":{"type":"LineString","coordinates":[[27.7473766,8.7091705],[27.7478996,8.7090088],[27.7482527,8.7085671],[27.7485058,8.7082505],[27.7485433,8.7074101],[27.7469045,8.7072298],[27.7461615,8.7075745],[27.746242,8.7078714],[27.7473766,8.7091705]]},"properties":{"amenity":"marketplace","name":"Panthou Market"}},
{"type":"Feature","geometry":{"type":"LineString","coordinates":[[28.3965824,4.5715645],[28.3984678,4.5717541],[28.3987635,4.5714486],[28.3988872,4.5707184],[28.3984962,4.5706789],[28.3984962,4.570521],[28.3965326,4.5701728],[28.3965061,4.5708543],[28.3965824,4.5715645]]},"properties":{"addr:city":"Yambio","amenity":"marketplace","name":"Yambio Market"}},
{"type":"Feature","geometry":{"type":"LineString","coordinates":[[28.3965402,4.5700565],[28.3975463,4.5702664],[28.3976452,4.5696632],[28.3966683,4.5694818],[28.3965402,4.5700565]]},"properties":{"amenity":"marketplace"}},
{"type":"Feature","geometry":{"type":"LineString","coordinates":[[28.3966434,4.5694249],[28.3973796,4.5695647],[28.3976008,4.5695708],[28.3976645,4.5688876],[28.3973025,4.5689698],[28.3968143,4.569052],[28.3967467,4.5690736],[28.3966434,4.5694249]]},"properties":{"amenity":"marketplace"}},
{"type":"Feature","geometry":{"type":"LineString","coordinates":[[33.1307718,6.8035703],[33.1302912,6.8032622],[33.1303386,6.8031178],[33.1300288,6.8029152],[33.1302461,6.8025743],[33.1304178,6.8023239],[33.1304419,6.8017939],[33.1304258,6.8010934],[33.1304982,6.800899],[33.1307733,6.8008473],[33.1311393,6.8008478],[33.131223,6.801419],[33.1315311,6.8014695],[33.1315499,6.8017627],[33.1314485,6.8021772],[33.131324,6.8025069],[33.1311189,6.8026981],[33.1311443,6.8033896],[33.1310105,6.8035064],[33.1307718,6.8035703]]},"properties":{"amenity":"marketplace","landuse":"commercial","name":"Pibor market"}},
{"type":"Feature","geometry":{"type":"LineString","coordinates":[[33.0092973,7.0504462],[33.009316,7.0504785],[33.0096754,7.0509231],[33.0097479,7.0510003],[33.0098512,7.0509364],[33.0099893,7.0508512],[33.0098847,7.050577],[33.0097717,7.0502312],[33.0095842,7.0502097],[33.0093858,7.0501564],[33.0090693,7.0502283],[33.0089593,7.0503321],[33.0090988,7.0505318],[33.0092973,7.0504462]]},"properties":{"amenity":"marketplace","name":"Lekuangole Market"}},
{"type":"Feature","geometry":{"type":"LineString","coordinates":[[28.3829726,4.5752013],[28.3828065,4.5742681],[28.3842399,4.5738144],[28.3842398,4.5751147],[28.3832744,4.5751866],[28.3829726,4.5752013]]},"properties":{"amenity":"marketplace","name":"Masiya Market"}},
{"type":"Feature","geometry":{"type":"LineString","coordinates":[[32.5691763,4.4080559],[32.5696577,4.4078994],[32.5693627,4.40693],[32.5692366,4.406573],[32.5687538,4.4067267],[32.5688812,4.4071653],[32.5690609,4.4077323],[32.5691763,4.4080559]]},"properties":{"addr:city":"Torit","amenity":"marketplace","name":"Torit Market"}},
{"type":"Feature","geometry":{"type":"LineString","coordinates":[[33.5980842,4.1353446],[33.5984438,4.1354401],[33.5985746,4.1348974],[33.5982197,4.1348066],[33.5980842,4.1353446]]},"properties":{"amenity":"marketplace","name":"Kikilai Trade Post"}},
{"type":"Feature","geometry":{"type":"LineString","coordinates":[[30.6771062,4.0944526],[30.6771445,4.0944447],[30.6771142,4.094297],[30.6770759,4.0943048],[30.6771062,4.0944526]]},"properties":{"amenity":"marketplace"}},
{"type":"Feature","geometry":{"type":"LineString","coordinates":[[30.676688,4.094637],[30.6768156,4.0946083],[30.6768266,4.094657],[30.676699,4.0946857],[30.676688,4.094637]]},"properties":{"amenity":"marketplace"}},
{"type":"Feature","geometry":{"type":"LineString","coordinates":[[30.6768297,4.0945987],[30.6768044,4.0944553],[30.6767131,4.0944715],[30.6767146,4.0944795],[30.6766877,4.0944843],[30.6767116,4.0946194],[30.6768297,4.0945987]]},"properties":{"amenity":"marketplace"}},
{"type":"Feature","geometry":{"type":"LineString","coordinates":[[30.6766672,4.0944667],[30.6767568,4.0944612],[30.6767547,4.0944275],[30.6767836,4.0944257],[30.6767806,4.0943761],[30.6767335,4.094379],[30.6767322,4.0943581],[30.6767876,4.0943547],[30.6767849,4.0943102],[30.6766581,4.0943179],[30.6766672,4.0944667]]},"properties":{"amenity":"marketplace"}},
{"type":"Feature","geometry":{"type":"LineString","coordinates":[[30.6766659,4.09431],[30.6766586,4.0942305],[30.6767455,4.0942226],[30.6767528,4.0943021],[30.6766659,4.09431]]},"properties":{"amenity":"marketplace"}},
{"type":"Feature","geometry":{"type":"LineString","coordinates":[[30.6769293,4.0942928],[30.6770133,4.0942714],[30.6769966,4.0941842],[30.6769069,4.094205],[30.6769293,4.0942928]]},"properties":{"amenity":"marketplace"}},
{"type":"Feature","geometry":{"type":"LineString","coordinates":[[30.6766618,4.0942207],[30.6767464,4.0942068],[30.6767395,4.0940707],[30.6768047,4.0940616],[30.6767895,4.0939689],[30.676653,4.0939912],[30.6766397,4.0940645],[30.6766548,4.0942233],[30.6766618,4.0942207]]},"properties":{"amenity":"marketplace"}},
{"type":"Feature","geometry":{"type":"LineString","coordinates":[[30.6769028,4.0941863],[30.6769974,4.0941778],[30.6769883,4.0940768],[30.6768937,4.0940853],[30.6769028,4.0941863]]},"properties":{"amenity":"marketplace"}},
{"type":"Feature","geometry":{"type":"LineString","coordinates":[[30.6768316,4.0940327],[30.6768155,4.0939556],[30.6769445,4.0939288],[30.676972,4.0940605],[30.676897,4.0940761],[30.6768855,4.0940215],[30.6768316,4.0940327]]},"properties":{"amenity":"marketplace"}},
{"type":"Feature","geometry":{"type":"LineString","coordinates":[[30.6775199,4.093879],[30.6775031,4.0938085],[30.6776502,4.0937735],[30.677667,4.0938439],[30.6775199,4.093879]]},"properties":{"amenity":"marketplace"}},
{"type":"Feature","geometry":{"type":"LineString","coordinates":[[30.6777664,4.0938588],[30.6777548,4.0938144],[30.6776745,4.0938353],[30.6776458,4.0937256],[30.6778311,4.0936774],[30.6778708,4.0938317],[30.6777664,4.0938588]]},"properties":{"amenity":"marketplace"}},
{"type":"Feature","geometry":{"type":"LineString","coordinates":[[30.6774137,4.0938178],[30.6774077,4.0938184],[30.6774046,4.0937892],[30.6774152,4.0937881],[30.6774382,4.0937856],[30.6774927,4.0937798],[30.6775045,4.0938891],[30.6774224,4.0938979],[30.6774137,4.0938178]]},"properties":{"amenity":"marketplace"}},
{"type":"Feature","geometry":{"type":"LineString","coordinates":[[30.6772805,4.0938001999999999],[30.6772774,4.0937766],[30.6773713,4.0937647],[30.6773743,4.0937882],[30.6772805,4.0938001999999999]]},"properties":{"amenity":"marketplace"}},
{"type":"Feature","geometry":{"type":"LineString","coordinates":[[30.6772064,4.0938081],[30.6772044,4.0937925],[30.6772723,4.0937841],[30.6772743,4.0937997],[30.6772064,4.0938081]]},"properties":{"amenity":"marketplace"}},
{"type":"Feature","geometry":{"type":"LineString","coordinates":[[30.6771564,4.0939192],[30.677151,4.093838],[30.6772301,4.0938329],[30.6772354,4.093914],[30.6771564,4.0939192]]},"properties":{"amenity":"marketplace"}},
{"type":"Feature","geometry":{"type":"LineString","coordinates":[[30.6770216,4.0938737],[30.6771442,4.0938548],[30.6771548,4.0939236],[30.677143,4.0939254],[30.6771953,4.094262],[30.6770844,4.0942791],[30.6770216,4.0938737]]},"properties":{"amenity":"marketplace"}},
{"type":"Feature","geometry":{"type":"LineString","coordinates":[[30.6773513,4.0942413],[30.677344,4.0941578],[30.6772355,4.0941673],[30.6772429,4.0942509],[30.6773513,4.0942413]]},"properties":{"amenity":"marketplace"}},
{"type":"Feature","geometry":{"type":"LineString","coordinates":[[30.6771499,4.0944428],[30.6772116,4.0944313],[30.6771852,4.0942911],[30.6771236,4.0943027],[30.6771499,4.0944428]]},"properties":{"amenity":"marketplace"}},
{"type":"Feature","geometry":{"type":"LineString","coordinates":[[30.6771868,4.0941833],[30.677231,4.0941795],[30.6772347,4.0942204],[30.6771904,4.0942243],[30.6771868,4.0941833]]},"properties":{"amenity":"marketplace"}},
{"type":"Feature","geometry":{"type":"LineString","coordinates":[[30.6768697,4.0957233],[30.6768661,4.0956853],[30.6770274,4.0956702],[30.677031,4.0957082],[30.6768697,4.0957233]]},"properties":{"amenity":"marketplace"}},
{"type":"Feature","geometry":{"type":"LineString","coordinates":[[30.6768624,4.0954133],[30.6768388,4.0954155],[30.6768478,4.0955136],[30.6769215,4.095507],[30.6769173,4.0954603],[30.6768671,4.0954648],[30.6768624,4.0954133]]},"properties":{"amenity":"marketplace"}},
{"type":"Feature","geometry":{"type":"LineString","coordinates":[[30.6768064,4.0951351],[30.6768087,4.0951722],[30.676917,4.0951654],[30.6769147,4.0951283],[30.6768064,4.0951351]]},"properties":{"amenity":"marketplace"}},
{"type":"Feature","geometry":{"type":"LineString","coordinates":[[30.678339,4.0944221],[30.6783938,4.0944189],[30.6783779,4.0941512],[30.678323,4.0941545],[30.678339,4.0944221]]},"properties":{"amenity":"marketplace"}},
{"type":"Feature","geometry":{"type":"LineString","coordinates":[[30.6784119,4.0939706],[30.6783787,4.0939715],[30.6783791,4.0939832],[30.6783175,4.093985],[30.6783163,4.0939424],[30.6782924,4.093943],[30.678294,4.0939993],[30.678269,4.094],[30.6782708,4.0940613],[30.6783046,4.0940603],[30.6783051,4.0940798],[30.6782767,4.0940804],[30.6782779,4.0941368],[30.678408,4.0941342],[30.6784069,4.0940811],[30.6784151,4.0940809],[30.6784119,4.0939706]]},"properties":{"amenity":"marketplace"}},
{"type":"Feature","geometry":{"type":"LineString","coordinates":[[30.6780821,4.0939048],[30.6780879,4.093939],[30.6782026,4.0939195],[30.6781967,4.0938853],[30.6780821,4.0939048]]},"properties":{"amenity":"marketplace"}},
{"type":"Feature","geometry":{"type":"LineString","coordinates":[[30.678181,4.0937591],[30.6781244,4.0937678],[30.6781431,4.0938895],[30.6781997,4.0938808],[30.678181,4.0937591]]},"properties":{"amenity":"marketplace"}},
{"type":"Feature","geometry":{"type":"LineString","coordinates":[[30.6782844,4.094661],[30.6784046,4.0946648],[30.6784066,4.0945989],[30.6782864,4.0945951],[30.6782844,4.094661]]},"properties":{"amenity":"marketplace"}},
{"type":"Feature","geometry":{"type":"LineString","coordinates":[[30.6782925,4.0946729],[30.678294,4.0947299],[30.6783983,4.0947272],[30.6783968,4.0946701],[30.6782925,4.0946729]]},"properties":{"amenity":"marketplace"}},
{"type":"Feature","geometry":{"type":"LineString","coordinates":[[30.6782573,4.094145],[30.6782482,4.0942597],[30.6783048,4.0942642],[30.678314,4.0941495],[30.6782573,4.094145]]},"properties":{"amenity":"marketplace"}},
{"type":"Feature","geometry":{"type":"LineString","coordinates":[[28.6741901,7.2739072],[28.6729797,7.2759364],[28.6752661,7.2768773],[28.6761863,7.274497],[28.6741901,7.2739072]]},"properties":{"addr:city":"Tonj","amenity":"marketplace","name":"Tonj Market"}},
{"type":"Feature","geometry":{"type":"LineString","coordinates":[[33.004915,7.790319],[33.0060523,7.7903722],[33.0063205,7.7907389],[33.006452,7.7910392],[33.0065324,7.7912411],[33.0066387,7.7915101],[33.0048712,7.7917068],[33.0048104,7.7915468],[33.0047944,7.7913528],[33.004797,7.7910179],[33.0047917,7.7908851],[33.0047729,7.7907947],[33.0048426,7.7904758],[33.004915,7.790319]]},"properties":{"addr:city":"Akobo","amenity":"marketplace","name":"Akobo Market"}},
{"type":"Feature","geometry":{"type":"LineString","coordinates":[[32.111154,9.8867035],[32.1104442,9.8875178],[32.1122997,9.8890908],[32.1129827,9.8883579],[32.1119948,9.8874487],[32.111154,9.8867035]]},"properties":{"addr:city":"Kodok","addr:street":"Kodok-Malakal Road","amenity":"marketplace","name":"Kodok Market"}},
{"type":"Feature","geometry":{"type":"LineString","coordinates":[[29.787696,9.2402128],[29.7874107,9.2420197],[29.7902767,9.2424922],[29.7916349,9.2427161],[29.7919091,9.2408611],[29.787696,9.2402128]]},"properties":{"addr:city":"Bentiu","amenity":"marketplace","name":"Bentiu Market"}},
{"type":"Feature","geometry":{"type":"LineString","coordinates":[[31.7516069,5.4483328],[31.7523285,5.4477521],[31.7518122,5.4470782],[31.7510967,5.4476792],[31.7516069,5.4483328]]},"properties":{"addr:city":"Terekeka","addr:street":"Juba-Terekeka Road","amenity":"marketplace","name":"Terekeka Market"}},
{"type":"Feature","geometry":{"type":"LineString","coordinates":[[32.2987708,4.1268659],[32.2978288,4.1258336],[32.2974921,4.1261333],[32.2971093,4.1264856],[32.2979839,4.1275365],[32.2987708,4.1268659]]},"properties":{"amenity":"marketplace"}},
{"type":"Feature","geometry":{"type":"LineString","coordinates":[[31.536119,4.8675328],[31.5361283,4.8658536],[31.5349513,4.8659979],[31.5350037,4.8665474],[31.5345754,4.8665259],[31.5340917,4.8673087],[31.5329055,4.867318],[31.5328562,4.8675666],[31.5342057,4.8675942],[31.536119,4.8675328]]},"properties":{"addr:street":"Gudele Road","amenity":"marketplace","name":"Gudele Market"}},
{"type":"Feature","geometry":{"type":"LineString","coordinates":[[32.8131215,11.7435075],[32.8130904,11.741445],[32.8135438,11.7414488],[32.8135755,11.7408126],[32.815956,11.7408212],[32.8159793,11.7429039],[32.8159723,11.7434685],[32.8131215,11.7435075]]},"properties":{"addr:city":"Renk","amenity":"marketplace","name":"Renk Market"}},
{"type":"Feature","geometry":{"type":"LineString","coordinates":[[33.725855,9.9598723],[33.7254591,9.9613588],[33.7278992,9.9619771],[33.7281822,9.9605744],[33.7273364,9.9604694],[33.7262818,9.9601906],[33.7263343,9.9599698],[33.725855,9.9598723]]},"properties":{"amenity":"marketplace","name":"Bunj Market"}},
{"type":"Feature","geometry":{"type":"LineString","coordinates":[[31.65502,9.5297678],[31.6551753,9.5295161],[31.6552343,9.5294224],[31.6552733,9.5293596],[31.6553548,9.5292121],[31.6548918,9.5289485],[31.6551988,9.5283298],[31.6550331,9.528242],[31.6512711,9.5262491],[31.650988,9.5268355],[31.6518409,9.5272718],[31.6515578,9.5278547],[31.6515459,9.52787],[31.6520166,9.528226],[31.6520285,9.5282107],[31.6527113,9.5285389],[31.6538537,9.529181],[31.65502,9.5297678]]},"properties":{"addr:city":"Malakal","amenity":"marketplace","name":"Malakal Central Market"}},
{"type":"Feature","geometry":{"type":"LineString","coordinates":[[32.7265483,11.6087118],[32.7266043,11.6096998],[32.72755,11.6096518],[32.7274776,11.6086706],[32.7265483,11.6087118]]},"properties":{"addr:city":"Wadakona","amenity":"marketplace","name":"Wadakona Market"}},
{"type":"Feature","geometry":{"type":"LineString","coordinates":[[29.1661763,9.2289732],[29.1704587,9.2297384],[29.1700944,9.2311535],[29.1662277,9.2303099],[29.1661763,9.2289732]]},"properties":{"amenity":"marketplace","name":"Mayom Market"}},
{"type":"Feature","geometry":{"type":"LineString","coordinates":[[29.7872121,9.2867121],[29.7869363,9.2881284],[29.7876405,9.2883592],[29.7885818,9.2886743],[29.7887166,9.2883361],[29.7889144,9.2881634],[29.7891063,9.2880868],[29.7894263,9.2880495],[29.7894889,9.2878744],[29.7894918,9.287765],[29.7894453,9.2876863],[29.7886421,9.2873466],[29.7877336,9.2869489],[29.7872121,9.2867121]]},"properties":{"amenity":"marketplace","name":"Rubkona Market"}},
{"type":"Feature","geometry":{"type":"LineString","coordinates":[[31.6526663,9.5284914],[31.6529453,9.5279705],[31.6532378,9.5281228],[31.6532123,9.5281705],[31.6532915,9.5282118],[31.6533195,9.5281595],[31.6535253,9.5282666],[31.6532438,9.5287922],[31.6526663,9.5284914]]},"properties":{"amenity":"marketplace"}},
{"type":"Feature","geometry":{"type":"LineString","coordinates":[[28.2985986,8.9944954],[28.2995,8.9946946],[28.2996189,8.9941691],[28.2987175,8.9939701],[28.2985986,8.9944954]]},"properties":{"amenity":"marketplace","name":"Fish and Vegetables Market of Wunrock"}},
{"type":"Feature","geometry":{"type":"LineString","coordinates":[[30.0887645,10.10558],[30.0888731,10.1039825],[30.0905441,10.104013],[30.0909827,10.1040344],[30.0912639,10.1044935],[30.0913182,10.1051979],[30.0912569,10.1057349],[30.0909332,10.105763],[30.0907681,10.1058824],[30.0907652,10.1064029],[30.0907254,10.106707],[30.0903019,10.1066997],[30.0902169,10.1063557],[30.0898947,10.1057451],[30.0891068,10.1056065],[30.0887645,10.10558]]},"properties":{"amenity":"marketplace","name":"Big Market"}},
{"type":"Feature","geometry":{"type":"MultiPolygon","coordinates":[[[[31.5849318,4.8541308],[31.5852671,4.8541335],[31.5852661,4.8542539],[31.5849322,4.8542512],[31.5849318,4.8541308]]]]},"properties":{"building":"yes","name":"Phenicia","payment:cash":"yes","payment:credit_cards":"yes","shop":"supermarket"}},
{"type":"Feature","geometry":{"type":"MultiPolygon","coordinates":[[[[27.9927938,7.7120631],[27.99309,7.7110715],[27.994789,7.7115697],[27.9944929,7.7125614],[27.9927938,7.7120631]]]]},"properties":{"amenity":"marketplace"}},
{"type":"Feature","geometry":{"type":"MultiPolygon","coordinates":[[[[27.397738,8.7667548],[27.3997725,8.766853],[27.4000466,8.7659225],[27.4019534,8.7667572],[27.3994404,8.768441],[27.3990998,8.7681253],[27.3989014,8.7678308],[27.3979143,8.7673146],[27.397867,8.7671796],[27.397738,8.7667548]]]]},"properties":{"amenity":"marketplace","name":"Aweil Souk","name:ar":"سوق أويل"}},
{"type":"Feature","geometry":{"type":"MultiPolygon","coordinates":[[[[28.0028881,7.680501],[28.0034343,7.6794634],[28.004106,7.6798107],[28.0035598,7.6808483],[28.0028881,7.680501]]]]},"properties":{"amenity":"marketplace"}},
{"type":"Feature","geometry":{"type":"MultiPolygon","coordinates":[[[[31.6178993,4.8567946],[31.617926,4.8567917],[31.6179198,4.8567343],[31.618374,4.8566856],[31.6183824,4.8567632],[31.6182287,4.8567797],[31.6182348,4.8568363],[31.6182654,4.856833],[31.6182709,4.8568842],[31.618234,4.8568881],[31.61824,4.8569438],[31.6179191,4.8569783],[31.6178993,4.8567946]]]]},"properties":{"building":"commercial","name":"JIT Mart","shop":"supermarket"}},
{"type":"Feature","geometry":{"type":"MultiPolygon","coordinates":[[[[30.6796399,4.0965489],[30.680483,4.0965702],[30.6804699,4.0971221],[30.6796461,4.0970713],[30.6796399,4.0965489]]]]},"properties":{"amenity":"marketplace","landuse":"retail","name":"Yei Central Market"}},
{"type":"Feature","geometry":{"type":"MultiPolygon","coordinates":[[[[30.6800183,4.0972256],[30.6800187,4.0971881],[30.6802803,4.0971909],[30.6802798,4.0972284],[30.6800183,4.0972256]]]]},"properties":{"name":"Meat Market","shop":"butcher"}},
{"type":"Feature","geometry":{"type":"MultiPolygon","coordinates":[[[[33.5925104,4.7674806],[33.5933919,4.765015],[33.5948305,4.7655322],[33.5950188,4.7653955],[33.5956502,4.7655389],[33.5956268,4.7662242],[33.5953286,4.7667427],[33.5941509,4.767487],[33.5936594,4.7678623],[33.5932812,4.7681287],[33.5931667,4.7680473],[33.5932095,4.7678812],[33.5925104,4.7674806]]]]},"properties":{"amenity":"marketplace","name":"Kapoeta Market"}},
{"type":"Feature","geometry":{"type":"MultiPolygon","coordinates":[[[[33.5888056,4.7803258],[33.5893842,4.7797544],[33.5899615,4.7802938],[33.5894202,4.7808812],[33.5890594,4.7805693],[33.5888056,4.7803258]]]]},"properties":{"amenity":"marketplace","name":"Cow Market"}},
{"type":"Feature","geometry":{"type":"MultiPolygon","coordinates":[[[[32.5716817,4.4105638],[32.5717355,4.4102261],[32.5720159,4.4099175],[32.5723187,4.4098012],[32.5722925,4.4097112],[32.5722608,4.4095499],[32.5721752,4.4095657],[32.5720578,4.4096479],[32.5719436,4.4095847],[32.5721625,4.4093064],[32.5721181,4.4091166],[32.5718802,4.4091925],[32.5718326,4.4090881],[32.5725812,4.408832],[32.5726647,4.4087118],[32.5733225,4.4084703],[32.5734108,4.4087346],[32.5742289,4.4087288],[32.5742108,4.4097258],[32.5742156,4.4097974],[32.5742215,4.4103076],[32.5742286,4.4106845],[32.5742533,4.4108052],[32.5732637,4.4110078],[32.5731106,4.410451],[32.5717355,4.4107829],[32.5716817,4.4105638]]]]},"properties":{"amenity":"marketplace","name":"Torit Market"}},
{"type":"Feature","geometry":{"type":"MultiPolygon","coordinates":[[[[31.5913038,4.8573639],[31.591304,4.8570843],[31.5913959,4.8570844],[31.5913958,4.8572116],[31.5914807,4.8572117],[31.5914805,4.857364],[31.5913038,4.8573639]]]]},"properties":{"building":"yes","name":"Vamp Vegetables and Fruits","shop":"supermarket"}},
{"type":"Feature","geometry":{"type":"MultiPolygon","coordinates":[[[[31.5716798,4.865901],[31.5716866,4.8656968],[31.5716875,4.865621],[31.5718918,4.8656165],[31.5722547,4.8656249],[31.5722289,4.8658188000000008],[31.5723147,4.8658253],[31.5723239,4.8659492],[31.5724225,4.8659529],[31.5724216,4.8661586],[31.5723902,4.8661623],[31.5723856,4.866042],[31.5723543,4.8660429],[31.5723645,4.8662056],[31.5724121,4.866205],[31.5724372,4.8662009],[31.5724828,4.8661937],[31.5724761,4.8663075],[31.5724717,4.866477],[31.5720031,4.8664819],[31.5720059,4.8662979],[31.571882,4.8662943],[31.5718912,4.8664897],[31.5716836,4.8664881],[31.5716891,4.8663098],[31.5716904,4.8662313],[31.5716878,4.8661111],[31.5718559,4.8661118],[31.5718573,4.866075],[31.571857,4.8660195],[31.5717828,4.8660199],[31.5717131,4.8660042],[31.5716805,4.8660042],[31.5716798,4.865901]]]]},"properties":{"amenity":"marketplace"}},
{"type":"Feature","geometry":{"type":"MultiPolygon","coordinates":[[[[30.0834119,8.3896094],[30.0837658,8.388545],[30.0854115,8.3890352],[30.0851107,8.3900436],[30.0834119,8.3896094]]]]},"properties":{"amenity":"marketplace","landuse":"retail","name":"Rupkuai Market"}},
{"type":"Feature","geometry":{"type":"MultiPolygon","coordinates":[[[[30.0665608,8.3206542],[30.0677854,8.3207868],[30.0677854,8.3211902],[30.0670333,8.3210876],[30.0665651,8.3210362],[30.0665608,8.3206542]]]]},"properties":{"amenity":"marketplace","name":"Minyal Public Market"}},
{"type":"Feature","geometry":{"type":"MultiPolygon","coordinates":[[[[30.2016134,8.2662142],[30.201886,8.2657771],[30.202937,8.2652621],[30.2030056,8.2653354],[30.2028535,8.2655971],[30.2029828,8.2657344],[30.2029133,8.2658799],[30.2028003,8.2659714],[30.2028533,8.2660742],[30.202874,8.2661196],[30.2027942,8.2661774],[30.2027371,8.2662019],[30.2025102,8.2660456],[30.2024673,8.2660953],[30.2024369,8.2661365],[30.2023949,8.2661885],[30.2023493,8.2662116],[30.2023586,8.2663297],[30.2021253,8.2665036],[30.2016134,8.2662142]]]]},"properties":{"amenity":"marketplace","name":"Pillieny Public Market"}},
{"type":"Feature","geometry":{"type":"MultiPolygon","coordinates":[[[[30.1422143,8.3048339],[30.1422244,8.3047357],[30.1422766,8.3046516],[30.1423605,8.3045982],[30.1424595,8.304586],[30.142554,8.3046177],[30.1426253,8.3046867],[30.1426593,8.3047795],[30.1426492,8.3048777],[30.142597,8.3049619],[30.1425131,8.3050153],[30.1424141,8.3050274],[30.1423195,8.3049958],[30.1422483,8.3049268],[30.1422143,8.3048339]]]]},"properties":{"amenity":"marketplace","name":"Teashops and meeting place"}},
{"type":"Feature","geometry":{"type":"MultiPolygon","coordinates":[[[[29.9939631,8.5921346],[29.9951438,8.5906246],[29.9959488,8.5911989],[29.9948014,8.5927642],[29.9939631,8.5921346]]]]},"properties":{"addr:city":"Koch","amenity":"marketplace","landuse":"retail","name":"Koch Market"}},
{"type":"Feature","geometry":{"type":"MultiPolygon","coordinates":[[[[30.1002572,8.4686771],[30.1014255,8.4681149],[30.1014636,8.4681834],[30.1014965,8.4682408],[30.1015047,8.4682585],[30.1015433,8.4683328],[30.1015733,8.4684039],[30.1016143,8.4684993],[30.1017029,8.4687461],[30.1019014,8.4691838],[30.1007802,8.4697091],[30.1002572,8.4686771]]]]},"properties":{"amenity":"marketplace"}},
{"type":"Feature","geometry":{"type":"MultiPolygon","coordinates":[[[[31.5132906,4.8659228],[31.5132934,4.865674],[31.5137151,4.8656787],[31.5137123,4.8659275],[31.5132906,4.8659228]]]]},"properties":{"amenity":"marketplace","fixme":"confirm"}},
{"type":"Feature","geometry":{"type":"MultiPolygon","coordinates":[[[[31.5354929,4.8674068],[31.5358116,4.8673082],[31.5358126,4.8673339],[31.5358017,4.8673947],[31.5357076,4.8673987],[31.5356952,4.8673991],[31.5355879,4.8674025],[31.5355768,4.867403],[31.5354929,4.8674068]]]]},"properties":{"amenity":"marketplace"}},
{"type":"Feature","geometry":{"type":"MultiPolygon","coordinates":[[[[31.6048929,4.8382004],[31.6059622,4.8372518],[31.6062749,4.8375921],[31.6052805,4.8386249],[31.6048929,4.8382004]]]]},"properties":{"amenity":"marketplace","name":"Malakia Market","source":"USAID http://www.southsudanmaps.org/"}},
{"type":"Feature","geometry":{"type":"MultiPolygon","coordinates":[[[[31.6024768,4.8360665],[31.6026634,4.835895],[31.6036474,4.8370216],[31.6038261,4.8372363],[31.6041353,4.8369342],[31.6049768,4.8378387],[31.6044119,4.8383519],[31.6034832,4.8372058000000008],[31.6024768,4.8360665]]]]},"properties":{"amenity":"marketplace","name":"Malakia Market","source":"USAID http://www.southsudanmaps.org/"}},
{"type":"Feature","geometry":{"type":"MultiPolygon","coordinates":[[[[31.6137627,4.8607275],[31.6139472,4.860631],[31.6138382,4.860397],[31.6138039,4.8602949],[31.6138248,4.8600136],[31.6137792,4.8597453],[31.6138465,4.8596709],[31.6138342,4.859343],[31.6139169,4.8591678],[31.6143661,4.8591448],[31.6147784,4.8592118],[31.6146349,4.8594524],[31.6146139,4.8597465],[31.6144132,4.8597818],[31.6144289,4.8601033],[31.6146952,4.8600902],[31.6147319,4.860362],[31.6145312,4.8604247],[31.6144014,4.8606992],[31.6142388,4.8609161],[31.6139091,4.8610516],[31.613815,4.8610319],[31.6137627,4.8607275]]]]},"properties":{"amenity":"marketplace","name":"Gabat Market","source":"USAID http://www.southsudanmaps.org/"}},
{"type":"Feature","geometry":{"type":"MultiPolygon","coordinates":[[[[31.6154856,4.8509471],[31.616321,4.8507032],[31.6164727,4.851469],[31.6156279,4.8516639],[31.6154856,4.8509471]]]]},"properties":{"amenity":"marketplace","name":"Juba Market","source":"USAID http://www.southsudanmaps.org/"}},
{"type":"Feature","geometry":{"type":"MultiPolygon","coordinates":[[[[31.5759189,4.8670319],[31.5759348,4.8661797],[31.5767252,4.8662189],[31.5767147,4.8670445],[31.5759189,4.8670319]]]]},"properties":{"amenity":"marketplace","name":"Militia Market","source":"USAID http://www.southsudanmaps.org/"}},
{"type":"Feature","geometry":{"type":"MultiPolygon","coordinates":[[[[31.5956316,4.8353475],[31.5964247,4.8353527],[31.5962693,4.8358969],[31.5956669,4.835853],[31.5956316,4.8353475]]]]},"properties":{"amenity":"marketplace","name":"Rujal Mafi Market"}},
{"type":"Feature","geometry":{"type":"MultiPolygon","coordinates":[[[[31.5963439,4.8306011],[31.5963552,4.8301082],[31.5967131,4.830153],[31.5970668,4.8302095],[31.5969191,4.8307988],[31.5963439,4.8306011]]]]},"properties":{"amenity":"marketplace","name":"Kator Market","source":"USAID http://www.southsudanmaps.org/Juba.html"}},
{"type":"Feature","geometry":{"type":"MultiPolygon","coordinates":[[[[31.589671,4.8301364],[31.5901162,4.829998],[31.5902663,4.8301237],[31.590626,4.830246],[31.590819,4.8303344],[31.5910274,4.8303701],[31.5910111,4.8305090999999999],[31.59058,4.8305261],[31.589893,4.8307366],[31.589671,4.8301364]]]]},"properties":{"amenity":"marketplace","name":"Suk Sita"}},
{"type":"Feature","geometry":{"type":"MultiPolygon","coordinates":[[[[31.6077125,4.8269058],[31.6077663,4.8261093],[31.6081684,4.825896],[31.6086726,4.8260896],[31.6082693,4.8267827],[31.60787,4.8265262],[31.6078404,4.8266267],[31.6077723,4.8269081],[31.6077125,4.8269058]]]]},"properties":{"amenity":"marketplace"}},
{"type":"Feature","geometry":{"type":"MultiPolygon","coordinates":[[[[31.5938669,4.8639769],[31.5941453,4.8639645],[31.5941916,4.8643118],[31.5939205,4.8643235],[31.5939121,4.8642468],[31.5938995,4.8641829],[31.5938669,4.8639769]]]]},"properties":{"amenity":"marketplace","barrier":"wall"}},
{"type":"Feature","geometry":{"type":"MultiPolygon","coordinates":[[[[31.5946308,4.8645038],[31.5946616,4.8644713],[31.5948488,4.86447],[31.5949134,4.8645118],[31.5949197,4.8648779],[31.594631,4.8648692],[31.5946308,4.8645038]]]]},"properties":{"amenity":"marketplace"}},
{"type":"Feature","geometry":{"type":"MultiPolygon","coordinates":[[[[31.5814635,4.8422152],[31.5817573,4.8422267],[31.5820059,4.8422341],[31.5824061,4.84221],[31.5823987,4.8420515],[31.5824449,4.8420453],[31.5824508,4.8422597],[31.5820248,4.8422876],[31.5816015,4.8422981],[31.5814698,4.8422666],[31.5814635,4.8422152]]]]},"properties":{"amenity":"marketplace"}},
{"type":"Feature","geometry":{"type":"MultiPolygon","coordinates":[[[[31.5835309,4.8421457],[31.5835401,4.8419521],[31.5835347,4.8417202],[31.5835937,4.8416921],[31.583663,4.841704],[31.5836511,4.841744],[31.583599,4.8417492],[31.5836159,4.8419508],[31.5835978,4.8420168],[31.5836291,4.8421138],[31.5837021,4.8422004],[31.5836175,4.8422704],[31.5835309,4.8421457]]]]},"properties":{"amenity":"marketplace"}},
{"type":"Feature","geometry":{"type":"MultiPolygon","coordinates":[[[[31.5836689,4.8417505],[31.5836846,4.8417062],[31.5837415,4.8416936],[31.5837856,4.8417313],[31.5836689,4.8417505]]]]},"properties":{"amenity":"marketplace"}},
{"type":"Feature","geometry":{"type":"MultiPolygon","coordinates":[[[[31.5838036,4.8416852],[31.5838984,4.841671],[31.5839639,4.8416673],[31.5839642,4.8416941],[31.5838038,4.8417372],[31.5838036,4.8416852]]]]},"properties":{"amenity":"marketplace"}},
{"type":"Feature","geometry":{"type":"MultiPolygon","coordinates":[[[[31.5825,4.8421864],[31.5828217,4.8421964],[31.5834094,4.8421476],[31.5834675,4.8421164],[31.5834436,4.8421817],[31.5832664,4.8422277],[31.58288,4.842264],[31.582567,4.8422472],[31.5825,4.8421864]]]]},"properties":{"amenity":"marketplace"}},
{"type":"Feature","geometry":{"type":"MultiPolygon","coordinates":[[[[31.5835141,4.8415384],[31.5835767,4.8415525],[31.5835774,4.8416133],[31.5835994,4.841612],[31.5837258,4.8416094],[31.5838492,4.8416161],[31.5838499,4.8416428],[31.5835238,4.8416524],[31.5835141,4.8415384]]]]},"properties":{"amenity":"marketplace"}},
{"type":"Feature","geometry":{"type":"MultiPolygon","coordinates":[[[[30.6773698,4.0968123],[30.6774169,4.0961436],[30.6785258,4.096029],[30.6786136,4.0974982],[30.6774155,4.0974772],[30.6773698,4.0968123]]]]},"properties":{"addr:city":"Yei","amenity":"marketplace","landuse":"retail","name":"Cloth Market"}},
{"type":"Feature","geometry":{"type":"MultiPolygon","coordinates":[[[[31.5939752,4.8165819],[31.5939827,4.8162761],[31.5946895,4.816261],[31.5947424,4.8165238],[31.5949337,4.816541],[31.5949304,4.8165604],[31.5950223,4.8165614],[31.5950018,4.8170029],[31.5948591,4.8169943],[31.5946808,4.8168253],[31.5946959,4.8166605],[31.5944031,4.8166368],[31.5942291,4.8166336],[31.5941902,4.8167639],[31.5939946,4.816766],[31.5939752,4.8165819]]]]},"properties":{"amenity":"marketplace"}},
{"type":"Feature","geometry":{"type":"MultiPolygon","coordinates":[[[[31.6060374,4.8324235],[31.6069012,4.8317102],[31.6070313,4.8316344],[31.6072684,4.8314927],[31.6074515,4.831352],[31.6076567,4.8316705],[31.6079937,4.8318765],[31.6085799,4.8325133],[31.6088409,4.8331744],[31.6098601,4.8329583],[31.6093987,4.8342947],[31.6094792,4.8343989],[31.6095597,4.8352969],[31.6093183,4.8353851],[31.6085753,4.8359998],[31.6084573,4.8358234],[31.6086247,4.8355011],[31.6080715,4.8348977],[31.6076129,4.8343527],[31.6067755,4.8332768],[31.6060374,4.8324235]]]]},"properties":{"amenity":"marketplace","name":"Konyo Konyo Market"}},
{"type":"Feature","geometry":{"type":"MultiPolygon","coordinates":[[[[33.4989183,9.0249664],[33.5000231,9.0245246],[33.500395,9.0255399],[33.4993748,9.026022],[33.4989183,9.0249664]]]]},"properties":{"addr:city":"Mathiang","amenity":"marketplace","name":"Mathiang Market"}},
{"type":"Feature","geometry":{"type":"MultiPolygon","coordinates":[[[[31.5546126,6.2107875],[31.5547342,6.2107117],[31.558129,6.2083394],[31.5595155,6.2104521],[31.5598033,6.2108906],[31.5580752,6.2121156],[31.5571153,6.2107822],[31.5570299,6.2106715],[31.5567818,6.2108835],[31.556531,6.2111355],[31.5565149,6.2113088],[31.5561958,6.2118381],[31.5560228,6.2121007],[31.5558122,6.2123754],[31.5555362,6.2121287],[31.5554231,6.2119473],[31.5546126,6.2107875]]]]},"properties":{"amenity":"marketplace","landuse":"retail","name":"Maror Market"}},
{"type":"Feature","geometry":{"type":"MultiPolygon","coordinates":[[[[31.5694001,4.8283192],[31.569606,4.8280756],[31.5723095,4.8279883],[31.5727404,4.8276373],[31.5727583,4.8272525],[31.5742209,4.8272578],[31.5742373,4.8292528],[31.5746932,4.8292355],[31.574707,4.8296911],[31.5742779,4.8296858],[31.5699794,4.8302666],[31.5698865,4.8298337],[31.5695952,4.8289267],[31.5694001,4.8283192]]]]},"properties":{"amenity":"marketplace","name":"Jebel Market"}},
{"type":"Feature","geometry":{"type":"MultiPolygon","coordinates":[[[[31.5225315,4.8472667],[31.5226218,4.8472693],[31.5226151,4.8473089],[31.5226626,4.8473079],[31.5226701,4.8473312],[31.5227343,4.8473245],[31.5229095,4.8473252],[31.5229226,4.8473521],[31.5229715,4.8473689],[31.5228723,4.8474242],[31.5227394,4.847462],[31.522538,4.8474445],[31.522535,4.847374],[31.5225315,4.8472667]]]]},"properties":{"amenity":"marketplace"}},
{"type":"Feature","geometry":{"type":"MultiPolygon","coordinates":[[[[26.9944871,9.117222],[26.9975555,9.1159508],[26.9987103,9.1187937],[26.9985747,9.1202464],[26.9969761,9.1207654],[26.9954219,9.118852],[26.9944871,9.117222]]]]},"properties":{"amenity":"marketplace","name":"Nyamlell Market"}},
{"type":"Feature","geometry":{"type":"MultiPolygon","coordinates":[[[[26.8657806,9.2167445],[26.8662312,9.2161832],[26.8682911,9.2163156],[26.8680283,9.2171999],[26.8683341,9.2198051],[26.8668428,9.2201175],[26.8657806,9.2167445]]]]},"properties":{"amenity":"marketplace","landuse":"commercial","name":"Gok Machar Market"}},
{"type":"Feature","geometry":{"type":"MultiPolygon","coordinates":[[[[27.6114082,9.1429418],[27.6120399,9.1428107],[27.6139728,9.1430885],[27.6144073,9.1436419],[27.6144154,9.1444152],[27.6141161,9.144484],[27.6137126,9.1445767],[27.6127551,9.1445847],[27.6120037,9.1446251],[27.6118478,9.1441845],[27.6114809,9.1431472],[27.6114082,9.1429418]]]]},"properties":{"amenity":"marketplace","landuse":"commercial","name":"Warawar Market"}},
{"type":"Feature","geometry":{"type":"MultiPolygon","coordinates":[[[[27.4358004,8.6879199],[27.4360579,8.6874321],[27.4369699,8.6873287],[27.4372596,8.6877715],[27.4367982,8.6885377],[27.436015,8.6883415],[27.4358004,8.6879199]]]]},"properties":{"amenity":"marketplace","name":"Panadhot Market"}},
{"type":"Feature","geometry":{"type":"MultiPolygon","coordinates":[[[[27.569345,9.0118801],[27.5707075,9.0106032],[27.5710884,9.0102588],[27.5714203,9.0104413],[27.571716,9.0106032],[27.5713418,9.0121626],[27.5713834,9.0140947],[27.5711742,9.0160656],[27.5704229,9.0163464],[27.5701818,9.0164365],[27.569996,9.0162976],[27.5699038,9.016142],[27.5696938,9.0157467],[27.5694523,9.014847],[27.5695492,9.0133329],[27.5696268,9.0130747],[27.5696228,9.0129281],[27.569609,9.0128417],[27.5695657,9.0128311],[27.569345,9.0118801]]]]},"properties":{"amenity":"marketplace","name":"Wanyjok market"}},
{"type":"Feature","geometry":{"type":"MultiPolygon","coordinates":[[[[27.6249713,9.0159875],[27.6250625,9.0156537],[27.6254329,9.0155699],[27.6254366,9.0155648],[27.6254418,9.0155611],[27.6254478,9.0155591],[27.6254542,9.0155591],[27.6254603,9.015561],[27.6254654,9.0155647],[27.625674,9.0155186],[27.625945,9.015349],[27.6261542,9.0153384],[27.6275462,9.0150921],[27.627793,9.0156563],[27.6279351,9.0163345],[27.6266477,9.0166126],[27.6262641,9.0164352],[27.6257518,9.016406],[27.6252556,9.0164007],[27.625033,9.0163106],[27.6249713,9.0159875]]]]},"properties":{"amenity":"marketplace","name":"Malualkon Market"}},
{"type":"Feature","geometry":{"type":"MultiPolygon","coordinates":[[[[27.5042786,8.9509854],[27.5044261,8.9506012],[27.5049465,8.9504184],[27.5050108,8.9498461],[27.5057028,8.9498408],[27.5060327,8.9502462],[27.5065826,8.951147],[27.5072395,8.9520967],[27.5074007,8.9523313],[27.5072854,8.952848],[27.5056733,8.9530017],[27.5048392,8.9524559],[27.5042893,8.9520611],[27.5042813,8.9516743],[27.5042786,8.9509854]]]]},"properties":{"amenity":"marketplace","name":"Akuem Market"}},
{"type":"Feature","geometry":{"type":"MultiPolygon","coordinates":[[[[27.4286979,8.8539209],[27.4290064,8.853049],[27.429693,8.8529828],[27.4303207,8.8542708],[27.4300391,8.8545225],[27.428824,8.8541356],[27.4286979,8.8539209]]]]},"properties":{"amenity":"marketplace","name":"Ajaach Market"}},
{"type":"Feature","geometry":{"type":"MultiPolygon","coordinates":[[[[27.0973673,9.0792999],[27.0978502,9.0787299],[27.0982954,9.0783517],[27.0985207,9.0784153],[27.0978287,9.0796495],[27.0975444,9.0798614],[27.0973673,9.0792999]]]]},"properties":{"amenity":"marketplace","name":"Aguat Market"}},
{"type":"Feature","geometry":{"type":"MultiPolygon","coordinates":[[[[27.2864041,9.0437141],[27.2867125,9.0432638],[27.2866186,9.0429354],[27.2875762,9.0420559],[27.2890514,9.0430705],[27.2887295,9.0438042],[27.2878283,9.0444744],[27.2865221,9.044175],[27.2864041,9.0437141]]]]},"properties":{"amenity":"marketplace","name":"Mayen Ulem market"}},
{"type":"Feature","geometry":{"type":"MultiPolygon","coordinates":[[[[27.2507441,8.8867375],[27.2517258,8.8856165],[27.2522434,8.8860114],[27.2519108,8.8863374],[27.2509184,8.8868488],[27.2507441,8.8867375]]]]},"properties":{"amenity":"marketplace","name":"Udhum Market"}},
{"type":"Feature","geometry":{"type":"MultiPolygon","coordinates":[[[[27.590588,8.5978612],[27.5908026,8.5971133],[27.5924817,8.5969276],[27.5926694,8.5986038],[27.5909045,8.5987576],[27.590588,8.5978612]]]]},"properties":{"amenity":"marketplace","name":"Malek Alel Market"}},
{"type":"Feature","geometry":{"type":"MultiPolygon","coordinates":[[[[27.6779248,8.6940355],[27.6779757,8.6938685],[27.6781138,8.693342],[27.6779663,8.6930212],[27.6781192,8.692809],[27.6790744,8.6933624],[27.6791545,8.6934772],[27.6791358,8.6935303],[27.678944,8.6938154],[27.6783486,8.6940249],[27.6783244,8.6942264],[27.6785095,8.6943006],[27.6786503,8.6945802],[27.6789668,8.6949646],[27.6785671,8.6953305],[27.6781461,8.6952563],[27.6779341,8.6946889],[27.677969,8.6943999],[27.6779248,8.6940355]]]]},"properties":{"amenity":"marketplace","name":"Wathmuok Market"}},
{"type":"Feature","geometry":{"type":"MultiPolygon","coordinates":[[[[27.7461615,8.7075745],[27.7469045,8.7072298],[27.7485433,8.7074101],[27.7485058,8.7082505],[27.7482527,8.7085671],[27.7478996,8.7090088],[27.7473766,8.7091705],[27.746242,8.7078714],[27.7461615,8.7075745]]]]},"properties":{"amenity":"marketplace","name":"Panthou Market"}},
{"type":"Feature","geometry":{"type":"MultiPolygon","coordinates":[[[[28.3965061,4.5708543],[28.3965326,4.5701728],[28.3984962,4.570521],[28.3984962,4.5706789],[28.3988872,4.5707184],[28.3987635,4.5714486],[28.3984678,4.5717541],[28.3965824,4.5715645],[28.3965061,4.5708543]]]]},"properties":{"addr:city":"Yambio","amenity":"marketplace","name":"Yambio Market"}},
{"type":"Feature","geometry":{"type":"MultiPolygon","coordinates":[[[[28.3965402,4.5700565],[28.3966683,4.5694818],[28.3976452,4.5696632],[28.3975463,4.5702664],[28.3965402,4.5700565]]]]},"properties":{"amenity":"marketplace"}},
{"type":"Feature","geometry":{"type":"MultiPolygon","coordinates":[[[[28.3966434,4.5694249],[28.3967467,4.5690736],[28.3968143,4.569052],[28.3973025,4.5689698],[28.3976645,4.5688876],[28.3976008,4.5695708],[28.3973796,4.5695647],[28.3966434,4.5694249]]]]},"properties":{"amenity":"marketplace"}},
{"type":"Feature","geometry":{"type":"MultiPolygon","coordinates":[[[[33.1300288,6.8029152],[33.1302461,6.8025743],[33.1304178,6.8023239],[33.1304419,6.8017939],[33.1304258,6.8010934],[33.1304982,6.800899],[33.1307733,6.8008473],[33.1311393,6.8008478],[33.131223,6.801419],[33.1315311,6.8014695],[33.1315499,6.8017627],[33.1314485,6.8021772],[33.131324,6.8025069],[33.1311189,6.8026981],[33.1311443,6.8033896],[33.1310105,6.8035064],[33.1307718,6.8035703],[33.1302912,6.8032622],[33.1303386,6.8031178],[33.1300288,6.8029152]]]]},"properties":{"amenity":"marketplace","landuse":"commercial","name":"Pibor market"}},
{"type":"Feature","geometry":{"type":"MultiPolygon","coordinates":[[[[33.0089593,7.0503321],[33.0090693,7.0502283],[33.0093858,7.0501564],[33.0095842,7.0502097],[33.0097717,7.0502312],[33.0098847,7.050577],[33.0099893,7.0508512],[33.0098512,7.0509364],[33.0097479,7.0510003],[33.0096754,7.0509231],[33.009316,7.0504785],[33.0092973,7.0504462],[33.0090988,7.0505318],[33.0089593,7.0503321]]]]},"properties":{"amenity":"marketplace","name":"Lekuangole Market"}},
{"type":"Feature","geometry":{"type":"MultiPolygon","coordinates":[[[[28.3828065,4.5742681],[28.3842399,4.5738144],[28.3842398,4.5751147],[28.3832744,4.5751866],[28.3829726,4.5752013],[28.3828065,4.5742681]]]]},"properties":{"amenity":"marketplace","name":"Masiya Market"}},
{"type":"Feature","geometry":{"type":"MultiPolygon","coordinates":[[[[32.5687538,4.4067267],[32.5692366,4.406573],[32.5693627,4.40693],[32.5696577,4.4078994],[32.5691763,4.4080559],[32.5690609,4.4077323],[32.5688812,4.4071653],[32.5687538,4.4067267]]]]},"properties":{"addr:city":"Torit","amenity":"marketplace","name":"Torit Market"}},
{"type":"Feature","geometry":{"type":"MultiPolygon","coordinates":[[[[33.5980842,4.1353446],[33.5982197,4.1348066],[33.5985746,4.1348974],[33.5984438,4.1354401],[33.5980842,4.1353446]]]]},"properties":{"amenity":"marketplace","name":"Kikilai Trade Post"}},
{"type":"Feature","geometry":{"type":"MultiPolygon","coordinates":[[[[30.6770759,4.0943048],[30.6771142,4.094297],[30.6771445,4.0944447],[30.6771062,4.0944526],[30.6770759,4.0943048]]]]},"properties":{"amenity":"marketplace"}},
{"type":"Feature","geometry":{"type":"MultiPolygon","coordinates":[[[[30.676688,4.094637],[30.6768156,4.0946083],[30.6768266,4.094657],[30.676699,4.0946857],[30.676688,4.094637]]]]},"properties":{"amenity":"marketplace"}},
{"type":"Feature","geometry":{"type":"MultiPolygon","coordinates":[[[[30.6766877,4.0944843],[30.6767146,4.0944795],[30.6767131,4.0944715],[30.6768044,4.0944553],[30.6768297,4.0945987],[30.6767116,4.0946194],[30.6766877,4.0944843]]]]},"properties":{"amenity":"marketplace"}},
{"type":"Feature","geometry":{"type":"MultiPolygon","coordinates":[[[[30.6766581,4.0943179],[30.6767849,4.0943102],[30.6767876,4.0943547],[30.6767322,4.0943581],[30.6767335,4.094379],[30.6767806,4.0943761],[30.6767836,4.0944257],[30.6767547,4.0944275],[30.6767568,4.0944612],[30.6766672,4.0944667],[30.6766581,4.0943179]]]]},"properties":{"amenity":"marketplace"}},
{"type":"Feature","geometry":{"type":"MultiPolygon","coordinates":[[[[30.6766586,4.0942305],[30.6767455,4.0942226],[30.6767528,4.0943021],[30.6766659,4.09431],[30.6766586,4.0942305]]]]},"properties":{"amenity":"marketplace"}},
{"type":"Feature","geometry":{"type":"MultiPolygon","coordinates":[[[[30.6769069,4.094205],[30.6769966,4.0941842],[30.6770133,4.0942714],[30.6769293,4.0942928],[30.6769069,4.094205]]]]},"properties":{"amenity":"marketplace"}},
{"type":"Feature","geometry":{"type":"MultiPolygon","coordinates":[[[[30.6766397,4.0940645],[30.676653,4.0939912],[30.6767895,4.0939689],[30.6768047,4.0940616],[30.6767395,4.0940707],[30.6767464,4.0942068],[30.6766618,4.0942207],[30.6766548,4.0942233],[30.6766397,4.0940645]]]]},"properties":{"amenity":"marketplace"}},
{"type":"Feature","geometry":{"type":"MultiPolygon","coordinates":[[[[30.6768937,4.0940853],[30.6769883,4.0940768],[30.6769974,4.0941778],[30.6769028,4.0941863],[30.6768937,4.0940853]]]]},"properties":{"amenity":"marketplace"}},
{"type":"Feature","geometry":{"type":"MultiPolygon","coordinates":[[[[30.6768155,4.0939556],[30.6769445,4.0939288],[30.676972,4.0940605],[30.676897,4.0940761],[30.6768855,4.0940215],[30.6768316,4.0940327],[30.6768155,4.0939556]]]]},"properties":{"amenity":"marketplace"}},
{"type":"Feature","geometry":{"type":"MultiPolygon","coordinates":[[[[30.6775031,4.0938085],[30.6776502,4.0937735],[30.677667,4.0938439],[30.6775199,4.093879],[30.6775031,4.0938085]]]]},"properties":{"amenity":"marketplace"}},
{"type":"Feature","geometry":{"type":"MultiPolygon","coordinates":[[[[30.6776458,4.0937256],[30.6778311,4.0936774],[30.6778708,4.0938317],[30.6777664,4.0938588],[30.6777548,4.0938144],[30.6776745,4.0938353],[30.6776458,4.0937256]]]]},"properties":{"amenity":"marketplace"}},
{"type":"Feature","geometry":{"type":"MultiPolygon","coordinates":[[[[30.6774046,4.0937892],[30.6774152,4.0937881],[30.6774382,4.0937856],[30.6774927,4.0937798],[30.6775045,4.0938891],[30.6774224,4.0938979],[30.6774137,4.0938178],[30.6774077,4.0938184],[30.6774046,4.0937892]]]]},"properties":{"amenity":"marketplace"}},
{"type":"Feature","geometry":{"type":"MultiPolygon","coordinates":[[[[30.6772774,4.0937766],[30.6773713,4.0937647],[30.6773743,4.0937882],[30.6772805,4.0938001999999999],[30.6772774,4.0937766]]]]},"properties":{"amenity":"marketplace"}},
{"type":"Feature","geometry":{"type":"MultiPolygon","coordinates":[[[[30.6772044,4.0937925],[30.6772723,4.0937841],[30.6772743,4.0937997],[30.6772064,4.0938081],[30.6772044,4.0937925]]]]},"properties":{"amenity":"marketplace"}},
{"type":"Feature","geometry":{"type":"MultiPolygon","coordinates":[[[[30.677151,4.093838],[30.6772301,4.0938329],[30.6772354,4.093914],[30.6771564,4.0939192],[30.677151,4.093838]]]]},"properties":{"amenity":"marketplace"}},
{"type":"Feature","geometry":{"type":"MultiPolygon","coordinates":[[[[30.6770216,4.0938737],[30.6771442,4.0938548],[30.6771548,4.0939236],[30.677143,4.0939254],[30.6771953,4.094262],[30.6770844,4.0942791],[30.6770216,4.0938737]]]]},"properties":{"amenity":"marketplace"}},
{"type":"Feature","geometry":{"type":"MultiPolygon","coordinates":[[[[30.6772355,4.0941673],[30.677344,4.0941578],[30.6773513,4.0942413],[30.6772429,4.0942509],[30.6772355,4.0941673]]]]},"properties":{"amenity":"marketplace"}},
{"type":"Feature","geometry":{"type":"MultiPolygon","coordinates":[[[[30.6771236,4.0943027],[30.6771852,4.0942911],[30.6772116,4.0944313],[30.6771499,4.0944428],[30.6771236,4.0943027]]]]},"properties":{"amenity":"marketplace"}},
{"type":"Feature","geometry":{"type":"MultiPolygon","coordinates":[[[[30.6771868,4.0941833],[30.677231,4.0941795],[30.6772347,4.0942204],[30.6771904,4.0942243],[30.6771868,4.0941833]]]]},"properties":{"amenity":"marketplace"}},
{"type":"Feature","geometry":{"type":"MultiPolygon","coordinates":[[[[30.6768661,4.0956853],[30.6770274,4.0956702],[30.677031,4.0957082],[30.6768697,4.0957233],[30.6768661,4.0956853]]]]},"properties":{"amenity":"marketplace"}},
{"type":"Feature","geometry":{"type":"MultiPolygon","coordinates":[[[[30.6768388,4.0954155],[30.6768624,4.0954133],[30.6768671,4.0954648],[30.6769173,4.0954603],[30.6769215,4.095507],[30.6768478,4.0955136],[30.6768388,4.0954155]]]]},"properties":{"amenity":"marketplace"}},
{"type":"Feature","geometry":{"type":"MultiPolygon","coordinates":[[[[30.6768064,4.0951351],[30.6769147,4.0951283],[30.676917,4.0951654],[30.6768087,4.0951722],[30.6768064,4.0951351]]]]},"properties":{"amenity":"marketplace"}},
{"type":"Feature","geometry":{"type":"MultiPolygon","coordinates":[[[[30.678323,4.0941545],[30.6783779,4.0941512],[30.6783938,4.0944189],[30.678339,4.0944221],[30.678323,4.0941545]]]]},"properties":{"amenity":"marketplace"}},
{"type":"Feature","geometry":{"type":"MultiPolygon","coordinates":[[[[30.678269,4.094],[30.678294,4.0939993],[30.6782924,4.093943],[30.6783163,4.0939424],[30.6783175,4.093985],[30.6783791,4.0939832],[30.6783787,4.0939715],[30.6784119,4.0939706],[30.6784151,4.0940809],[30.6784069,4.0940811],[30.678408,4.0941342],[30.6782779,4.0941368],[30.6782767,4.0940804],[30.6783051,4.0940798],[30.6783046,4.0940603],[30.6782708,4.0940613],[30.678269,4.094]]]]},"properties":{"amenity":"marketplace"}},
{"type":"Feature","geometry":{"type":"MultiPolygon","coordinates":[[[[30.6780821,4.0939048],[30.6781967,4.0938853],[30.6782026,4.0939195],[30.6780879,4.093939],[30.6780821,4.0939048]]]]},"properties":{"amenity":"marketplace"}},
{"type":"Feature","geometry":{"type":"MultiPolygon","coordinates":[[[[30.6781244,4.0937678],[30.678181,4.0937591],[30.6781997,4.0938808],[30.6781431,4.0938895],[30.6781244,4.0937678]]]]},"properties":{"amenity":"marketplace"}},
{"type":"Feature","geometry":{"type":"MultiPolygon","coordinates":[[[[30.6782844,4.094661],[30.6782864,4.0945951],[30.6784066,4.0945989],[30.6784046,4.0946648],[30.6782844,4.094661]]]]},"properties":{"amenity":"marketplace"}},
{"type":"Feature","geometry":{"type":"MultiPolygon","coordinates":[[[[30.6782925,4.0946729],[30.6783968,4.0946701],[30.6783983,4.0947272],[30.678294,4.0947299],[30.6782925,4.0946729]]]]},"properties":{"amenity":"marketplace"}},
{"type":"Feature","geometry":{"type":"MultiPolygon","coordinates":[[[[30.6782482,4.0942597],[30.6782573,4.094145],[30.678314,4.0941495],[30.6783048,4.0942642],[30.6782482,4.0942597]]]]},"properties":{"amenity":"marketplace"}},
{"type":"Feature","geometry":{"type":"MultiPolygon","coordinates":[[[[25.6769184,8.4735716],[25.6771431,8.473071],[25.6778102,8.4732128],[25.677697,8.4737361],[25.6769184,8.4735716]]],[[[25.6771749,8.473008],[25.6774032,8.4724917],[25.6774492,8.4724497],[25.6775006,8.4724374],[25.6779606,8.4725197],[25.6778262,8.4731515],[25.6771749,8.473008]]],[[[25.6777695,8.4737414],[25.6780261,8.4725372],[25.678442,8.4725792],[25.6782332,8.4738166],[25.6777695,8.4737414]]]]},"properties":{"amenity":"marketplace","name":"Raja Market"}},
{"type":"Feature","geometry":{"type":"MultiPolygon","coordinates":[[[[28.6729797,7.2759364],[28.6741901,7.2739072],[28.6761863,7.274497],[28.6752661,7.2768773],[28.6729797,7.2759364]]]]},"properties":{"addr:city":"Tonj","amenity":"marketplace","name":"Tonj Market"}},
{"type":"Feature","geometry":{"type":"MultiPolygon","coordinates":[[[[33.0047729,7.7907947],[33.0048426,7.7904758],[33.004915,7.790319],[33.0060523,7.7903722],[33.0063205,7.7907389],[33.006452,7.7910392],[33.0065324,7.7912411],[33.0066387,7.7915101],[33.0048712,7.7917068],[33.0048104,7.7915468],[33.0047944,7.7913528],[33.004797,7.7910179],[33.0047917,7.7908851],[33.0047729,7.7907947]]]]},"properties":{"addr:city":"Akobo","amenity":"marketplace","name":"Akobo Market"}},
{"type":"Feature","geometry":{"type":"MultiPolygon","coordinates":[[[[32.1104442,9.8875178],[32.111154,9.8867035],[32.1119948,9.8874487],[32.1129827,9.8883579],[32.1122997,9.8890908],[32.1104442,9.8875178]]]]},"properties":{"addr:city":"Kodok","addr:street":"Kodok-Malakal Road","amenity":"marketplace","name":"Kodok Market"}},
{"type":"Feature","geometry":{"type":"MultiPolygon","coordinates":[[[[29.7874107,9.2420197],[29.787696,9.2402128],[29.7919091,9.2408611],[29.7916349,9.2427161],[29.7902767,9.2424922],[29.7874107,9.2420197]]]]},"properties":{"addr:city":"Bentiu","amenity":"marketplace","name":"Bentiu Market"}},
{"type":"Feature","geometry":{"type":"MultiPolygon","coordinates":[[[[31.7510967,5.4476792],[31.7518122,5.4470782],[31.7523285,5.4477521],[31.7516069,5.4483328],[31.7510967,5.4476792]]]]},"properties":{"addr:city":"Terekeka","addr:street":"Juba-Terekeka Road","amenity":"marketplace","name":"Terekeka Market"}},
{"type":"Feature","geometry":{"type":"MultiPolygon","coordinates":[[[[32.2971093,4.1264856],[32.2974921,4.1261333],[32.2978288,4.1258336],[32.2987708,4.1268659],[32.2979839,4.1275365],[32.2971093,4.1264856]]]]},"properties":{"amenity":"marketplace"}},
{"type":"Feature","geometry":{"type":"MultiPolygon","coordinates":[[[[31.5328562,4.8675666],[31.5329055,4.867318],[31.5340917,4.8673087],[31.5345754,4.8665259],[31.5350037,4.8665474],[31.5349513,4.8659979],[31.5361283,4.8658536],[31.536119,4.8675328],[31.5342057,4.8675942],[31.5328562,4.8675666]]]]},"properties":{"addr:street":"Gudele Road","amenity":"marketplace","name":"Gudele Market"}},
{"type":"Feature","geometry":{"type":"MultiPolygon","coordinates":[[[[32.8130904,11.741445],[32.8135438,11.7414488],[32.8135755,11.7408126],[32.815956,11.7408212],[32.8159793,11.7429039],[32.8159723,11.7434685],[32.8131215,11.7435075],[32.8130904,11.741445]]]]},"properties":{"addr:city":"Renk","amenity":"marketplace","name":"Renk Market"}},
{"type":"Feature","geometry":{"type":"MultiPolygon","coordinates":[[[[33.7254591,9.9613588],[33.725855,9.9598723],[33.7263343,9.9599698],[33.7262818,9.9601906],[33.7273364,9.9604694],[33.7281822,9.9605744],[33.7278992,9.9619771],[33.7254591,9.9613588]]]]},"properties":{"amenity":"marketplace","name":"Bunj Market"}},
{"type":"Feature","geometry":{"type":"MultiPolygon","coordinates":[[[[31.650988,9.5268355],[31.6512711,9.5262491],[31.6550331,9.528242],[31.6551988,9.5283298],[31.6548918,9.5289485],[31.6553548,9.5292121],[31.6552733,9.5293596],[31.6552343,9.5294224],[31.6551753,9.5295161],[31.65502,9.5297678],[31.6538537,9.529181],[31.6527113,9.5285389],[31.6520285,9.5282107],[31.6520166,9.528226],[31.6515459,9.52787],[31.6515578,9.5278547],[31.6518409,9.5272718],[31.650988,9.5268355]]]]},"properties":{"addr:city":"Malakal","amenity":"marketplace","name":"Malakal Central Market"}},
{"type":"Feature","geometry":{"type":"MultiPolygon","coordinates":[[[[32.7265483,11.6087118],[32.7274776,11.6086706],[32.72755,11.6096518],[32.7266043,11.6096998],[32.7265483,11.6087118]]]]},"properties":{"addr:city":"Wadakona","amenity":"marketplace","name":"Wadakona Market"}},
{"type":"Feature","geometry":{"type":"MultiPolygon","coordinates":[[[[29.1661763,9.2289732],[29.1704587,9.2297384],[29.1700944,9.2311535],[29.1662277,9.2303099],[29.1661763,9.2289732]]]]},"properties":{"amenity":"marketplace","name":"Mayom Market"}},
{"type":"Feature","geometry":{"type":"MultiPolygon","coordinates":[[[[29.7869363,9.2881284],[29.7872121,9.2867121],[29.7877336,9.2869489],[29.7886421,9.2873466],[29.7894453,9.2876863],[29.7894918,9.287765],[29.7894889,9.2878744],[29.7894263,9.2880495],[29.7891063,9.2880868],[29.7889144,9.2881634],[29.7887166,9.2883361],[29.7885818,9.2886743],[29.7876405,9.2883592],[29.7869363,9.2881284]]]]},"properties":{"amenity":"marketplace","name":"Rubkona Market"}},
{"type":"Feature","geometry":{"type":"MultiPolygon","coordinates":[[[[31.6526663,9.5284914],[31.6529453,9.5279705],[31.6532378,9.5281228],[31.6532123,9.5281705],[31.6532915,9.5282118],[31.6533195,9.5281595],[31.6535253,9.5282666],[31.6532438,9.5287922],[31.6526663,9.5284914]]]]},"properties":{"amenity":"marketplace"}},
{"type":"Feature","geometry":{"type":"MultiPolygon","coordinates":[[[[28.2985986,8.9944954],[28.2987175,8.9939701],[28.2996189,8.9941691],[28.2995,8.9946946],[28.2985986,8.9944954]]]]},"properties":{"amenity":"marketplace","name":"Fish and Vegetables Market of Wunrock"}},
{"type":"Feature","geometry":{"type":"MultiPolygon","coordinates":[[[[30.0887645,10.10558],[30.0888731,10.1039825],[30.0905441,10.104013],[30.0909827,10.1040344],[30.0912639,10.1044935],[30.0913182,10.1051979],[30.0912569,10.1057349],[30.0909332,10.105763],[30.0907681,10.1058824],[30.0907652,10.1064029],[30.0907254,10.106707],[30.0903019,10.1066997],[30.0902169,10.1063557],[30.0898947,10.1057451],[30.0891068,10.1056065],[30.0887645,10.10558]]]]},"properties":{"amenity":"marketplace","name":"Big Market"}}
]}
