{"type":"FeatureCollection","features":[
{"type":"Feature","geometry":{"type":"Point","coordinates":[6.7292229,0.3367312]},"properties":{"check_date":"2024-06-08","name":"Padaria Moderna","shop":"bakery"}},
{"type":"Feature","geometry":{"type":"Point","coordinates":[6.7328047,0.3297897]},"properties":{"shop":"convenience"}},
{"type":"Feature","geometry":{"type":"Point","coordinates":[6.6636515,0.3752763]},"properties":{"amenity":"marketplace"}},
{"type":"Feature","geometry":{"type":"Point","coordinates":[6.7241143,0.3413622]},"properties":{"description":"A small provision shop that sells mostly all small things required and a lot of drinks.","name":"Provision shop","shop":"supermarket"}},
{"type":"Feature","geometry":{"type":"Point","coordinates":[6.7419953,0.2600887]},"properties":{"amenity":"marketplace","name":"Mercado de Cova Água Santana"}},
{"type":"Feature","geometry":{"type":"Point","coordinates":[7.420692,1.6382275]},"properties":{"name":"Mira-Rio","shop":"supermarket"}},
{"type":"Feature","geometry":{"type":"Point","coordinates":[6.7315953,0.3393842]},"properties":{"addr:street":"R. S. António","name":"plecu ceto","shop":"convenience"}},
{"type":"Feature","geometry":{"type":"Point","coordinates":[6.6809799,0.2959854]},"properties":{"amenity":"marketplace","name":"Mercado da Cidade da Trindade"}},
{"type":"Feature","geometry":{"type":"Point","coordinates":[6.7035672,0.3353052]},"properties":{"name":"Padaria Páscoa Santo","operator":"Páscoa Santo","payment:cash":"yes","shop":"bakery"}},
{"type":"Feature","geometry":{"type":"Point","coordinates":[6.7227709,0.3461816]},"properties":{"name:en":"Diogo Vaz","shop":"bakery"}},
{"type":"Feature","geometry":{"type":"Point","coordinates":[6.5473382,0.3566437]},"properties":{"check_date":"2024-06-05","currency:EUR":"yes","currency:STN":"yes","opening_hours":"Mo-Sa 07:00-19:00; Su off","shop":"convenience"}},
{"type":"Feature","geometry":{"type":"Point","coordinates":[6.7287509,0.335571]},"properties":{"check_date":"2024-06-08","name":"Pastelaria Cajù","shop":"bakery"}},
{"type":"Feature","geometry":{"type":"Point","coordinates":[6.7228936,0.3532943]},"properties":{"entrance":"main"}},
{"type":"Feature","geometry":{"type":"Point","coordinates":[7.4179568,1.6364026]},"properties":{"check_date":"2024-09-06","name":"Mini-Mercado Bom Desconto","shop":"supermarket"}},
{"type":"Feature","geometry":{"type":"Point","coordinates":[7.4186551,1.6373709]},"properties":{"amenity":"marketplace","check_date":"2024-09-08","name":"Mercado Regional"}},
{"type":"Feature","geometry":{"type":"Point","coordinates":[7.4132655,1.6649705]},"properties":{"shop":"bakery"}},
{"type":"Feature","geometry":{"type":"LineString","coordinates":[[6.7276761,0.3383122],[6.7283051,0.3383666],[6.7283631,0.3376955],[6.7277341,0.3376411],[6.7276761,0.3383122]]},"properties":{"amenity":"marketplace","building":"yes","name":"Mercado Novo"}},
{"type":"Feature","geometry":{"type":"LineString","coordinates":[[6.729056,0.3382931],[6.7294404,0.3384882],[6.7297981,0.3377658],[6.7297982,0.3377204],[6.7297657,0.337693],[6.7294129,0.33766],[6.7293858,0.3376636],[6.729364,0.3376865],[6.729056,0.3382931]]},"properties":{"amenity":"marketplace","building":"yes","name":"Mercado Velho"}},
{"type":"Feature","geometry":{"type":"LineString","coordinates":[[6.722701,0.3530166],[6.7228936,0.3532943],[6.7229992,0.3534466],[6.7230732,0.3533952],[6.7230899,0.3534193],[6.7232438,0.3533126],[6.7229289,0.3528585],[6.722701,0.3530166]]},"properties":{"building":"yes","name":"Super CKdo","opening_hours":"Mo-Th 09:00-19:00; Fr,Sa 08:30-19:00; Su,PH off","shop":"supermarket"}},
{"type":"Feature","geometry":{"type":"LineString","coordinates":[[6.7354233,0.3366713],[6.7354225,0.3366546],[6.7354179,0.3365582],[6.7354229,0.3365579],[6.7356951,0.3365449],[6.7357005,0.336658],[6.7356139,0.3366622],[6.7356141,0.3366654],[6.7354971,0.336671],[6.7354969,0.3366678],[6.7354233,0.3366713]]},"properties":{"building":"yes","name":"Colombo","shop":"supermarket"}},
{"type":"Feature","geometry":{"type":"LineString","coordinates":[[6.7325645,0.3182409],[6.7325781,0.3181798],[6.7326501,0.3181958],[6.7326365,0.318257],[6.7325645,0.3182409]]},"properties":{"amenity":"marketplace","building":"yes"}},
{"type":"Feature","geometry":{"type":"LineString","coordinates":[[7.4202953,1.640417],[7.4202384,1.6403658],[7.4203086,1.6402863],[7.4203749,1.6403393],[7.4202953,1.640417]]},"properties":{"amenity":"marketplace","name":"Mercado de Peixe"}},
{"type":"Feature","geometry":{"type":"LineString","coordinates":[[6.6492481,0.1333289],[6.6492108,0.1331786],[6.6494225,0.133126],[6.6494598,0.1332764],[6.6492481,0.1333289]]},"properties":{"amenity":"marketplace","building":"yes","source":"Bing"}},
{"type":"Feature","geometry":{"type":"LineString","coordinates":[[6.7311219,0.3387513],[6.7311156,0.3386671],[6.7314145,0.3386444],[6.731426,0.3387975],[6.7313621,0.3388023],[6.7313569,0.3387335],[6.7311219,0.3387513]]},"properties":{"building":"yes","name":"Coconote","shop":"convenience"}},
{"type":"Feature","geometry":{"type":"LineString","coordinates":[[6.7278776,0.338998],[6.7279773,0.3389432],[6.7278598,0.3387294],[6.7277601,0.3387842],[6.7278776,0.338998]]},"properties":{"amenity":"marketplace","name":"Firma Comercial LL Bem Estar Lda."}},
{"type":"Feature","geometry":{"type":"LineString","coordinates":[[6.727921,0.340287],[6.7278817,0.3402235],[6.7280154,0.3401408],[6.7281405,0.3403432],[6.7280783,0.3403817],[6.7279925,0.3402428],[6.727921,0.340287]]},"properties":{"building":"yes","name":"Supermercado Fresco","name:fr":"Supermarché Fresco","shop":"convenience"}},
{"type":"Feature","geometry":{"type":"LineString","coordinates":[[6.7282188,0.3398309],[6.7283387,0.3397442],[6.7281803,0.3395252],[6.7280604,0.3396119],[6.7282188,0.3398309]]},"properties":{"building":"yes","name":"Firma Comercial ADAC","shop":"supermarket"}},
{"type":"Feature","geometry":{"type":"LineString","coordinates":[[6.7312088,0.3382128],[6.7313671,0.3382083],[6.7313649,0.3381308],[6.7312066,0.3381353],[6.7312088,0.3382128]]},"properties":{"building":"yes","name":"Intermar","shop":"convenience"}},
{"type":"Feature","geometry":{"type":"LineString","coordinates":[[6.729927,0.3377312],[6.7299563,0.3376527],[6.7300949,0.3376634],[6.7300842,0.3377959],[6.7300379,0.3377898],[6.730041,0.3377374],[6.729927,0.3377312]]},"properties":{"building":"yes","name":"Economax","shop":"supermarket"}},
{"type":"Feature","geometry":{"type":"LineString","coordinates":[[6.7303488,0.3370456],[6.7303469,0.3368976],[6.7304637,0.3368961],[6.7304649,0.3369886],[6.730392,0.3369896],[6.7303927,0.337045],[6.7303488,0.3370456]]},"properties":{"building":"yes","name":"Loja Vinte","shop":"convenience"}},
{"type":"Feature","geometry":{"type":"LineString","coordinates":[[6.7298802,0.337313],[6.7297829,0.3372099],[6.7298999,0.3370995],[6.7299972,0.3372026],[6.7298802,0.337313]]},"properties":{"building":"yes","name":"Padaria Miquel","name:es":"Panadería Miquel","shop":"bakery"}},
{"type":"Feature","geometry":{"type":"LineString","coordinates":[[6.7275811,0.3391629],[6.7274542,0.3389486],[6.7277267,0.3387872],[6.7278536,0.3390015],[6.7275811,0.3391629]]},"properties":{"building":"yes","shop":"supermarket"}},
{"type":"Feature","geometry":{"type":"LineString","coordinates":[[6.7147368,0.3502785],[6.7149157,0.3501777],[6.7148406,0.3500443],[6.7146617,0.3501451],[6.7147368,0.3502785]]},"properties":{"amenity":"marketplace","building":"yes"}},
{"type":"Feature","geometry":{"type":"LineString","coordinates":[[6.7273806,0.3403701],[6.7275287,0.3402858],[6.7274509,0.3400552],[6.7274925,0.3400243],[6.7274268,0.3398513],[6.7273718,0.3398688],[6.7272954,0.3396394],[6.7270168,0.3397211],[6.7271157,0.3399546],[6.7271505,0.3399532],[6.7272417,0.3401195],[6.7273806,0.3403701]]},"properties":{"building":"yes","check_date":"2024-06-08","construction:shop":"mall","name":"Supermercado Continental","payment:cash":"yes","payment:visa":"yes","shop":"supermarket"}},
{"type":"Feature","geometry":{"type":"LineString","coordinates":[[6.741971,0.2599696],[6.7419094,0.2601627],[6.7420331,0.2602022],[6.7420737,0.2600753],[6.7420948,0.2600091],[6.741971,0.2599696]]},"properties":{"amenity":"marketplace","name":"Mercado de Cova Água Santana"}},
{"type":"Feature","geometry":{"type":"LineString","coordinates":[[6.7051916,0.3250785],[6.70688,0.3243483],[6.7065133,0.3233408],[6.7047593,0.3239931],[6.7047972,0.3244657],[6.7051916,0.3250785]]},"properties":{"amenity":"marketplace","name":"Mercado Bobo Forro"}},
{"type":"Feature","geometry":{"type":"MultiPolygon","coordinates":[[[[6.7276761,0.3383122],[6.7277341,0.3376411],[6.7283631,0.3376955],[6.7283051,0.3383666],[6.7276761,0.3383122]]]]},"properties":{"amenity":"marketplace","building":"yes","name":"Mercado Novo"}},
{"type":"Feature","geometry":{"type":"MultiPolygon","coordinates":[[[[6.729056,0.3382931],[6.729364,0.3376865],[6.7293858,0.3376636],[6.7294129,0.33766],[6.7297657,0.337693],[6.7297982,0.3377204],[6.7297981,0.3377658],[6.7294404,0.3384882],[6.729056,0.3382931]]]]},"properties":{"amenity":"marketplace","building":"yes","name":"Mercado Velho"}},
{"type":"Feature","geometry":{"type":"MultiPolygon","coordinates":[[[[6.722701,0.3530166],[6.7229289,0.3528585],[6.7232438,0.3533126],[6.7230899,0.3534193],[6.7230732,0.3533952],[6.7229992,0.3534466],[6.7228936,0.3532943],[6.722701,0.3530166]]]]},"properties":{"building":"yes","name":"Super CKdo","opening_hours":"Mo-Th 09:00-19:00; Fr,Sa 08:30-19:00; Su,PH off","shop":"supermarket"}},
{"type":"Feature","geometry":{"type":"MultiPolygon","coordinates":[[[[6.7354179,0.3365582],[6.7354229,0.3365579],[6.7356951,0.3365449],[6.7357005,0.336658],[6.7356139,0.3366622],[6.7356141,0.3366654],[6.7354971,0.336671],[6.7354969,0.3366678],[6.7354233,0.3366713],[6.7354225,0.3366546],[6.7354179,0.3365582]]]]},"properties":{"building":"yes","name":"Colombo","shop":"supermarket"}},
{"type":"Feature","geometry":{"type":"MultiPolygon","coordinates":[[[[6.7325645,0.3182409],[6.7325781,0.3181798],[6.7326501,0.3181958],[6.7326365,0.318257],[6.7325645,0.3182409]]]]},"properties":{"amenity":"marketplace","building":"yes"}},
{"type":"Feature","geometry":{"type":"MultiPolygon","coordinates":[[[[7.4202384,1.6403658],[7.4203086,1.6402863],[7.4203749,1.6403393],[7.4202953,1.640417],[7.4202384,1.6403658]]]]},"properties":{"amenity":"marketplace","name":"Mercado de Peixe"}},
{"type":"Feature","geometry":{"type":"MultiPolygon","coordinates":[[[[6.6492108,0.1331786],[6.6494225,0.133126],[6.6494598,0.1332764],[6.6492481,0.1333289],[6.6492108,0.1331786]]]]},"properties":{"amenity":"marketplace","building":"yes","source":"Bing"}},
{"type":"Feature","geometry":{"type":"MultiPolygon","coordinates":[[[[6.7311156,0.3386671],[6.7314145,0.3386444],[6.731426,0.3387975],[6.7313621,0.3388023],[6.7313569,0.3387335],[6.7311219,0.3387513],[6.7311156,0.3386671]]]]},"properties":{"building":"yes","name":"Coconote","shop":"convenience"}},
{"type":"Feature","geometry":{"type":"MultiPolygon","coordinates":[[[[6.7277601,0.3387842],[6.7278598,0.3387294],[6.7279773,0.3389432],[6.7278776,0.338998],[6.7277601,0.3387842]]]]},"properties":{"amenity":"marketplace","name":"Firma Comercial LL Bem Estar Lda."}},
{"type":"Feature","geometry":{"type":"MultiPolygon","coordinates":[[[[6.7278817,0.3402235],[6.7280154,0.3401408],[6.7281405,0.3403432],[6.7280783,0.3403817],[6.7279925,0.3402428],[6.727921,0.340287],[6.7278817,0.3402235]]]]},"properties":{"building":"yes","name":"Supermercado Fresco","name:fr":"Supermarché Fresco","shop":"convenience"}},
{"type":"Feature","geometry":{"type":"MultiPolygon","coordinates":[[[[6.7280604,0.3396119],[6.7281803,0.3395252],[6.7283387,0.3397442],[6.7282188,0.3398309],[6.7280604,0.3396119]]]]},"properties":{"building":"yes","name":"Firma Comercial ADAC","shop":"supermarket"}},
{"type":"Feature","geometry":{"type":"MultiPolygon","coordinates":[[[[6.7312066,0.3381353],[6.7313649,0.3381308],[6.7313671,0.3382083],[6.7312088,0.3382128],[6.7312066,0.3381353]]]]},"properties":{"building":"yes","name":"Intermar","shop":"convenience"}},
{"type":"Feature","geometry":{"type":"MultiPolygon","coordinates":[[[[6.729927,0.3377312],[6.7299563,0.3376527],[6.7300949,0.3376634],[6.7300842,0.3377959],[6.7300379,0.3377898],[6.730041,0.3377374],[6.729927,0.3377312]]]]},"properties":{"building":"yes","name":"Economax","shop":"supermarket"}},
{"type":"Feature","geometry":{"type":"MultiPolygon","coordinates":[[[[6.7303469,0.3368976],[6.7304637,0.3368961],[6.7304649,0.3369886],[6.730392,0.3369896],[6.7303927,0.337045],[6.7303488,0.3370456],[6.7303469,0.3368976]]]]},"properties":{"building":"yes","name":"Loja Vinte","shop":"convenience"}},
{"type":"Feature","geometry":{"type":"MultiPolygon","coordinates":[[[[6.7297829,0.3372099],[6.7298999,0.3370995],[6.7299972,0.3372026],[6.7298802,0.337313],[6.7297829,0.3372099]]]]},"properties":{"building":"yes","name":"Padaria Miquel","name:es":"Panadería Miquel","shop":"bakery"}},
{"type":"Feature","geometry":{"type":"MultiPolygon","coordinates":[[[[6.7274542,0.3389486],[6.7277267,0.3387872],[6.7278536,0.3390015],[6.7275811,0.3391629],[6.7274542,0.3389486]]]]},"properties":{"building":"yes","shop":"supermarket"}},
{"type":"Feature","geometry":{"type":"MultiPolygon","coordinates":[[[[6.7146617,0.3501451],[6.7148406,0.3500443],[6.7149157,0.3501777],[6.7147368,0.3502785],[6.7146617,0.3501451]]]]},"properties":{"amenity":"marketplace","building":"yes"}},
{"type":"Feature","geometry":{"type":"MultiPolygon","coordinates":[[[[6.7270168,0.3397211],[6.7272954,0.3396394],[6.7273718,0.3398688],[6.7274268,0.3398513],[6.7274925,0.3400243],[6.7274509,0.3400552],[6.7275287,0.3402858],[6.7273806,0.3403701],[6.7272417,0.3401195],[6.7271505,0.3399532],[6.7271157,0.3399546],[6.7270168,0.3397211]]]]},"properties":{"building":"yes","check_date":"2024-06-08","construction:shop":"mall","name":"Supermercado Continental","payment:cash":"yes","payment:visa":"yes","shop":"supermarket"}},
{"type":"Feature","geometry":{"type":"MultiPolygon","coordinates":[[[[6.7419094,0.2601627],[6.741971,0.2599696],[6.7420948,0.2600091],[6.7420737,0.2600753],[6.7420331,0.2602022],[6.7419094,0.2601627]]]]},"properties":{"amenity":"marketplace","name":"Mercado de Cova Água Santana"}},
{"type":"Feature","geometry":{"type":"MultiPolygon","coordinates":[[[[6.7047593,0.3239931],[6.7065133,0.3233408],[6.70688,0.3243483],[6.7051916,0.3250785],[6.7047972,0.3244657],[6.7047593,0.3239931]]]]},"properties":{"amenity":"marketplace","name":"Mercado Bobo Forro"}}
]}
