{"type":"FeatureCollection","features":[
{"type":"Feature","geometry":{"type":"Point","coordinates":[31.3060451,-26.5118654]},"properties":{"name":"Ruchi Supermarkey","shop":"convenience"}},
{"type":"Feature","geometry":{"type":"Point","coordinates":[31.3180954,-26.5026153]},"properties":{"name":"Ruyi 1 Supermarket","shop":"supermarket","source:name":"survey"}},
{"type":"Feature","geometry":{"type":"Point","coordinates":[31.3182847,-26.5024536]},"properties":{"name":"Tip-top butchery","shop":"butcher","source:name":"survey"}},
{"type":"Feature","geometry":{"type":"Point","coordinates":[31.3201833,-26.5006189]},"properties":{"name":"Pick n Pay Matsapha","shop":"supermarket"}},
{"type":"Feature","geometry":{"type":"Point","coordinates":[31.1983186,-27.1095816]},"properties":{"amenity":"marketplace","name":"Nhlangano Market"}},
{"type":"Feature","geometry":{"type":"Point","coordinates":[31.1331085,-26.3029107]},"properties":{"shop":"butcher"}},
{"type":"Feature","geometry":{"type":"Point","coordinates":[31.139979,-26.3262536]},"properties":{"brand":"Pick n Pay","brand:wikidata":"Q7190735","brand:wikipedia":"en:Pick n Pay Stores","name":"Pick n Pay","shop":"supermarket"}},
{"type":"Feature","geometry":{"type":"Point","coordinates":[31.9217182,-26.2099722]},"properties":{"brand":"Boxer","brand:wikidata":"Q116586275","check_date":"2013-12-19","name":"Boxer","shop":"supermarket"}},
{"type":"Feature","geometry":{"type":"Point","coordinates":[31.3057399,-26.491878]},"properties":{"name":"Build it - Matsapha Mahhala","shop":"supermarket"}},
{"type":"Feature","geometry":{"type":"Point","coordinates":[31.4023447,-26.4933092]},"properties":{"name":"Spar","shop":"supermarket"}},
{"type":"Feature","geometry":{"type":"Point","coordinates":[31.7549224,-25.9991226]},"properties":{"brand":"Boxer","brand:wikidata":"Q116586275","check_date":"2017-12-25","name":"Boxer","shop":"supermarket"}},
{"type":"Feature","geometry":{"type":"Point","coordinates":[31.3798013,-26.4992899]},"properties":{"internet_access":"wlan","name":"Baker's Delight","opening_hours":"Mo-Fr 06:30-17:00; Sa 06:30-14:00","shop":"bakery"}},
{"type":"Feature","geometry":{"type":"Point","coordinates":[31.1401679,-26.3283342]},"properties":{"name":"SuperSpar","name:en":"SuperSpar","shop":"supermarket"}},
{"type":"Feature","geometry":{"type":"Point","coordinates":[31.1865236,-26.4385462]},"properties":{"name":"Pick'n'pay","name:en":"Pick'n'pay","shop":"supermarket"}},
{"type":"Feature","geometry":{"type":"Point","coordinates":[31.1872379,-26.4411422]},"properties":{"name":"Shoprite","name:en":"Shoprite","shop":"supermarket"}},
{"type":"Feature","geometry":{"type":"Point","coordinates":[31.1428798,-26.3262764]},"properties":{"shop":"butcher"}},
{"type":"Feature","geometry":{"type":"Point","coordinates":[31.1409342,-26.3253843]},"properties":{"name":"Shoprite Usave","name:en":"Shoprite Usave","shop":"supermarket"}},
{"type":"Feature","geometry":{"type":"Point","coordinates":[31.1423346,-26.3281524]},"properties":{"brand":"Shoprite","brand:wikidata":"Q1857639","brand:wikipedia":"en:Shoprite (retailer)","name":"Shoprite","name:en":"Shoprite","shop":"supermarket"}},
{"type":"Feature","geometry":{"type":"Point","coordinates":[31.1427022,-26.3254034]},"properties":{"name":"MultiSave","name:en":"MultiSave","shop":"supermarket"}},
{"type":"Feature","geometry":{"type":"Point","coordinates":[31.1750329,-26.3986469]},"properties":{"shop":"convenience"}},
{"type":"Feature","geometry":{"type":"Point","coordinates":[31.1421027,-26.3276122]},"properties":{"shop":"butcher"}},
{"type":"Feature","geometry":{"type":"Point","coordinates":[31.3415228,-26.488735899999999]},"properties":{"shop":"supermarket"}},
{"type":"Feature","geometry":{"type":"Point","coordinates":[31.888205,-27.3131211]},"properties":{"shop":"convenience"}},
{"type":"Feature","geometry":{"type":"Point","coordinates":[31.2003811,-26.4522624]},"properties":{"name":"Mkbabes","name:en":"Mkbabes","shop":"bakery"}},
{"type":"Feature","geometry":{"type":"Point","coordinates":[31.2001487,-26.4519892]},"properties":{"name":"Lobomba Butcher's","shop":"butcher"}},
{"type":"Feature","geometry":{"type":"Point","coordinates":[31.2255488,-26.4894435]},"properties":{"shop":"butcher"}},
{"type":"Feature","geometry":{"type":"Point","coordinates":[31.2261622,-26.4907947]},"properties":{"name":"Meat Market","name:en":"Meat Market","shop":"butcher"}},
{"type":"Feature","geometry":{"type":"Point","coordinates":[31.226278,-26.4910267]},"properties":{"name":"Save Mor (Spar)","name:en":"Save Mor (Spar)","shop":"supermarket"}},
{"type":"Feature","geometry":{"type":"Point","coordinates":[31.2005095,-26.4525028]},"properties":{"name":"Supermarket","name:en":"Supermarket","shop":"convenience"}},
{"type":"Feature","geometry":{"type":"Point","coordinates":[31.2006893,-26.4526142]},"properties":{"name":"Kamdala General Dealer","name:en":"Kamdala General Dealer","shop":"convenience"}},
{"type":"Feature","geometry":{"type":"Point","coordinates":[31.3795083,-26.4951215]},"properties":{"name":"Shoprite","name:en":"Shoprite","shop":"supermarket"}},
{"type":"Feature","geometry":{"type":"Point","coordinates":[31.3291756,-26.490569]},"properties":{"name":"Multi Hyper","name:en":"Multi Hyper","shop":"convenience"}},
{"type":"Feature","geometry":{"type":"Point","coordinates":[31.3311002,-26.4909315]},"properties":{"name":"Save Mor (Spar)","name:en":"Save Mor (Spar)","shop":"supermarket"}},
{"type":"Feature","geometry":{"type":"Point","coordinates":[31.197501,-27.1123783]},"properties":{"name":"Clicks","name:en":"Clicks","shop":"convenience"}},
{"type":"Feature","geometry":{"type":"Point","coordinates":[31.1977553,-27.1120259]},"properties":{"shop":"supermarket"}},
{"type":"Feature","geometry":{"type":"Point","coordinates":[31.1965886,-27.1136922]},"properties":{"name":"Nhlangano Mall","name:en":"Nhlangano Mall","shop":"supermarket"}},
{"type":"Feature","geometry":{"type":"Point","coordinates":[31.1969157,-27.1118657]},"properties":{"name":"Shoprite","name:en":"Shoprite","shop":"supermarket"}},
{"type":"Feature","geometry":{"type":"Point","coordinates":[31.3050049,-26.4912182]},"properties":{"name":"Pick n Pay","shop":"supermarket"}},
{"type":"Feature","geometry":{"type":"Point","coordinates":[31.3728378,-26.4985424]},"properties":{"name":"Pick n Pay","shop":"supermarket"}},
{"type":"Feature","geometry":{"type":"Point","coordinates":[31.722516,-26.4094704]},"properties":{"name":"Malindza Supermarket","shop":"supermarket"}},
{"type":"Feature","geometry":{"type":"Point","coordinates":[31.9948921,-26.0013225]},"properties":{"name":"Malindi Grocery","shop":"convenience"}},
{"type":"Feature","geometry":{"type":"Point","coordinates":[31.7740075,-26.4134778]},"properties":{"name":"SaveMor","shop":"supermarket"}},
{"type":"Feature","geometry":{"type":"Point","coordinates":[31.9377998,-26.7919792]},"properties":{"brand":"Shoprite","brand:wikidata":"Q1857639","name":"Shoprite","shop":"supermarket"}},
{"type":"Feature","geometry":{"type":"Point","coordinates":[31.2479451,-25.9602616]},"properties":{"name":"Boxer Shop","shop":"convenience"}},
{"type":"Feature","geometry":{"type":"Point","coordinates":[31.835683,-26.4057413]},"properties":{"fixme":"resurvey shop type and exact position","name":"Ncele grocery","shop":"convenience"}},
{"type":"Feature","geometry":{"type":"Point","coordinates":[31.3764051,-26.4994231]},"properties":{"name":"Boxer Shopping Store","shop":"supermarket"}},
{"type":"Feature","geometry":{"type":"Point","coordinates":[31.3855974,-26.4940188]},"properties":{"name":"Spar Store","shop":"supermarket"}},
{"type":"Feature","geometry":{"type":"Point","coordinates":[31.3763373,-26.4999603]},"properties":{"name":"Eswatini butchery (fresh meat)","shop":"butcher"}},
{"type":"Feature","geometry":{"type":"Point","coordinates":[31.1435764,-26.3267781]},"properties":{"amenity":"marketplace","name":"Mbabane Market"}},
{"type":"Feature","geometry":{"type":"Point","coordinates":[31.3071037,-26.4933752]},"properties":{"name":"Spar - Matsapha Mahhala","operator":"Spar","shop":"supermarket"}},
{"type":"Feature","geometry":{"type":"Point","coordinates":[31.1550526,-26.2780624]},"properties":{"shop":"butcher"}},
{"type":"Feature","geometry":{"type":"Point","coordinates":[31.1549789,-26.2780997]},"properties":{"shop":"convenience"}},
{"type":"Feature","geometry":{"type":"Point","coordinates":[31.8888855,-27.3152942]},"properties":{"name":"OK Minimart","shop":"supermarket"}},
{"type":"Feature","geometry":{"type":"Point","coordinates":[31.3758167,-26.4967394]},"properties":{"name":"Pricerite","shop":"supermarket"}},
{"type":"Feature","geometry":{"type":"Point","coordinates":[31.3775239,-26.4957394]},"properties":{"brand":"Spar","brand:wikidata":"Q610492","brand:wikipedia":"en:Spar (retailer)","name":"Spar","shop":"supermarket"}},
{"type":"Feature","geometry":{"type":"Point","coordinates":[31.3760664,-26.4992606]},"properties":{"amenity":"marketplace","name":"Manzini Market"}},
{"type":"Feature","geometry":{"type":"Point","coordinates":[31.9465455,-26.4535244]},"properties":{"addr:street":"Jacaranda St","internet_access":"wlan","name":"Shoprite","shop":"convenience"}},
{"type":"Feature","geometry":{"type":"Point","coordinates":[31.1265849,-26.3226406]},"properties":{"name":"Checkers complex","shop":"supermarket"}},
{"type":"Feature","geometry":{"type":"Point","coordinates":[31.1138446,-26.3313512]},"properties":{"name":"Siyakgula butchery","shop":"butcher"}},
{"type":"Feature","geometry":{"type":"Point","coordinates":[31.1138569,-26.3313454]},"properties":{"name":"Hilltop  Complev","shop":"supermarket"}},
{"type":"Feature","geometry":{"type":"Point","coordinates":[31.1036265,-26.3270024]},"properties":{"name":"Junction supermarket","shop":"supermarket"}},
{"type":"Feature","geometry":{"type":"Point","coordinates":[31.3812811,-26.4979262]},"properties":{"name":"One up","shop":"butcher"}},
{"type":"Feature","geometry":{"type":"Point","coordinates":[31.2467132,-25.9588497]},"properties":{"name":"Ndlaludzaka House Complex","shop":"supermarket"}},
{"type":"Feature","geometry":{"type":"Point","coordinates":[31.1156595,-26.3344084]},"properties":{"name:en":"Hilltop Convinience Quick Spa","shop":"convenience"}},
{"type":"Feature","geometry":{"type":"Point","coordinates":[31.1183879,-26.2930094]},"properties":{"addr:city":"Mbabane","addr:country":"ZA","branch":"Woodlands Convenience Centre","brand":"Quickshop","brand:wikidata":"Q122764368","name":"Quickshop","shop":"convenience"}},
{"type":"Feature","geometry":{"type":"Point","coordinates":[31.1433697,-26.3290643]},"properties":{"addr:city":"Mbabane","addr:country":"ZA","branch":"Gcwalisa Conveniece Centre","brand":"Quickshop","brand:wikidata":"Q122764368","name":"Quickshop","shop":"convenience"}},
{"type":"Feature","geometry":{"type":"Point","coordinates":[31.3072321,-26.4896388]},"properties":{"addr:city":"Matsapha","addr:country":"ZA","branch":"Eteteni Filling Station","brand":"Quickshop","brand:wikidata":"Q122764368","name":"Quickshop","shop":"convenience"}},
{"type":"Feature","geometry":{"type":"Point","coordinates":[31.1205884,-26.3018929]},"properties":{"addr:city":"Mbabane","addr:country":"ZA","branch":"Custom Motors Sidwashini","brand":"Quickshop","brand:wikidata":"Q122764368","name":"Quickshop","shop":"convenience"}},
{"type":"Feature","geometry":{"type":"LineString","coordinates":[[31.3753409,-26.4989178],[31.3763415,-26.4985654],[31.3765606,-26.4990638],[31.37556,-26.4994161],[31.3753409,-26.4989178]]},"properties":{"amenity":"marketplace"}},
{"type":"Feature","geometry":{"type":"LineString","coordinates":[[31.1462921,-26.3249684],[31.1466187,-26.3249316],[31.1467251,-26.325395],[31.1463686,-26.3254368],[31.1463143,-26.3251603],[31.1462921,-26.3249684]]},"properties":{"amenity":"marketplace"}},
{"type":"Feature","geometry":{"type":"LineString","coordinates":[[31.1504367,-26.0569958],[31.1504734,-26.0569668],[31.1505008,-26.0569947],[31.1504641,-26.0570237],[31.1504367,-26.0569958]]},"properties":{"building":"yes","shop":"convenience"}},
{"type":"Feature","geometry":{"type":"LineString","coordinates":[[31.1354574,-26.3224316],[31.1354405,-26.3225164],[31.135496,-26.3225253],[31.1355129,-26.3224405],[31.1354574,-26.3224316]]},"properties":{"building":"yes","name":"Tuck shop","payment:cash":"yes","shop":"convenience"}},
{"type":"Feature","geometry":{"type":"LineString","coordinates":[[31.1891393,-26.5306508],[31.1898148,-26.5310198],[31.1896634,-26.5312239],[31.1893782,-26.5310703],[31.1893123,-26.5311719],[31.1889231,-26.5309908],[31.1891393,-26.5306508]]},"properties":{"brand":"Shoprite","name":"Shoprite Malkerns","opening_hours":"Mo-Fr 08:00-19:00; Sa 08:00-18:00; Su 09:00-17:00; PH unknown","shop":"supermarket","website":"https://www.shoprite.co.za/"}},
{"type":"Feature","geometry":{"type":"LineString","coordinates":[[31.1941546,-26.5234305],[31.1950125,-26.5238238],[31.195152,-26.5235807],[31.1942784,-26.5231886],[31.1941546,-26.5234305]]},"properties":{"brand":"Pick n Pay","name":"Pick n Pay Malkerns","opening_hours":"Mo-Fr 07:00-20:00; Sa 07:00-19:00; Su 08:00-19:00; PH unknown","shop":"supermarket","website":"https://picknpayeswatini.com/"}},
{"type":"Feature","geometry":{"type":"MultiPolygon","coordinates":[[[[31.3753409,-26.4989178],[31.37556,-26.4994161],[31.3765606,-26.4990638],[31.3763415,-26.4985654],[31.3753409,-26.4989178]]]]},"properties":{"amenity":"marketplace"}},
{"type":"Feature","geometry":{"type":"MultiPolygon","coordinates":[[[[31.1462921,-26.3249684],[31.1463143,-26.3251603],[31.1463686,-26.3254368],[31.1467251,-26.325395],[31.1466187,-26.3249316],[31.1462921,-26.3249684]]]]},"properties":{"amenity":"marketplace"}},
{"type":"Feature","geometry":{"type":"MultiPolygon","coordinates":[[[[31.1504367,-26.0569958],[31.1504641,-26.0570237],[31.1505008,-26.0569947],[31.1504734,-26.0569668],[31.1504367,-26.0569958]]]]},"properties":{"building":"yes","shop":"convenience"}},
{"type":"Feature","geometry":{"type":"MultiPolygon","coordinates":[[[[31.1354405,-26.3225164],[31.135496,-26.3225253],[31.1355129,-26.3224405],[31.1354574,-26.3224316],[31.1354405,-26.3225164]]]]},"properties":{"building":"yes","name":"Tuck shop","payment:cash":"yes","shop":"convenience"}},
{"type":"Feature","geometry":{"type":"MultiPolygon","coordinates":[[[[31.1889231,-26.5309908],[31.1893123,-26.5311719],[31.1893782,-26.5310703],[31.1896634,-26.5312239],[31.1898148,-26.5310198],[31.1891393,-26.5306508],[31.1889231,-26.5309908]]]]},"properties":{"brand":"Shoprite","name":"Shoprite Malkerns","opening_hours":"Mo-Fr 08:00-19:00; Sa 08:00-18:00; Su 09:00-17:00; PH unknown","shop":"supermarket","website":"https://www.shoprite.co.za/"}},
{"type":"Feature","geometry":{"type":"MultiPolygon","coordinates":[[[[31.1941546,-26.5234305],[31.1950125,-26.5238238],[31.195152,-26.5235807],[31.1942784,-26.5231886],[31.1941546,-26.5234305]]]]},"properties":{"brand":"Pick n Pay","name":"Pick n Pay Malkerns","opening_hours":"Mo-Fr 07:00-20:00; Sa 07:00-19:00; Su 08:00-19:00; PH unknown","shop":"supermarket","website":"https://picknpayeswatini.com/"}}
]}
