{"type":"FeatureCollection","features":[
{"type":"Feature","geometry":{"type":"Point","coordinates":[55.4172753,-4.6638392]},"properties":{"name":"STC Port Glaud Supermarket","shop":"supermarket"}},
{"type":"Feature","geometry":{"type":"Point","coordinates":[55.6863938,-4.3101064]},"properties":{"name":"Super Value","shop":"supermarket"}},
{"type":"Feature","geometry":{"type":"Point","coordinates":[55.6868412,-4.3128511]},"properties":{"name":"Mas Supermarket","shop":"supermarket"}},
{"type":"Feature","geometry":{"type":"Point","coordinates":[55.4024408,-4.6533369]},"properties":{"shop":"convenience"}},
{"type":"Feature","geometry":{"type":"Point","coordinates":[55.4110783,-4.6608166]},"properties":{"name":"Kot Kani Shop","shop":"convenience"}},
{"type":"Feature","geometry":{"type":"Point","coordinates":[55.4518206,-4.6408975]},"properties":{"name":"Sans Souci Mini Market","shop":"convenience"}},
{"type":"Feature","geometry":{"type":"Point","coordinates":[55.4868079,-4.7613212]},"properties":{"name:en":"Law wah","rooms":"5","shop":"convenience","staff":"1","start_date":"1970"}},
{"type":"Feature","geometry":{"type":"Point","coordinates":[55.4481002,-4.6272339]},"properties":{"name":"Bel Air Store","shop":"convenience"}},
{"type":"Feature","geometry":{"type":"Point","coordinates":[55.4643786,-4.6388314]},"properties":{"name":"Chandran Shop Centre","shop":"convenience"}},
{"type":"Feature","geometry":{"type":"Point","coordinates":[55.4800226,-4.750478]},"properties":{"shop":"convenience"}},
{"type":"Feature","geometry":{"type":"Point","coordinates":[55.4787487,-4.7055725]},"properties":{"name":"Anse Boileau Supermarket","shop":"convenience"}},
{"type":"Feature","geometry":{"type":"Point","coordinates":[55.4302421,-4.6178303]},"properties":{"shop":"convenience"}},
{"type":"Feature","geometry":{"type":"Point","coordinates":[55.6870762,-4.3126064]},"properties":{"name":"Happy Bakery","shop":"bakery"}},
{"type":"Feature","geometry":{"type":"Point","coordinates":[55.4828921,-4.7554571]},"properties":{"name":"Bakery Baie Lazare","shop":"bakery"}},
{"type":"Feature","geometry":{"type":"Point","coordinates":[55.4299545,-4.6179399]},"properties":{"shop":"supermarket"}},
{"type":"Feature","geometry":{"type":"Point","coordinates":[55.4331784,-4.5906562]},"properties":{"name":"Shanu Supermarket","shop":"supermarket"}},
{"type":"Feature","geometry":{"type":"Point","coordinates":[55.5244942,-4.7296998]},"properties":{"name":"Kumar & Kumar","shop":"convenience"}},
{"type":"Feature","geometry":{"type":"Point","coordinates":[55.4767394,-4.7438422]},"properties":{"name":"Swaathi shopping point","shop":"convenience"}},
{"type":"Feature","geometry":{"type":"Point","coordinates":[55.4543377,-4.6783377]},"properties":{"name":"Erad market","shop":"convenience"}},
{"type":"Feature","geometry":{"type":"Point","coordinates":[55.5244604,-4.7268588]},"properties":{"name":"Durais Mini Market","shop":"convenience"}},
{"type":"Feature","geometry":{"type":"Point","coordinates":[55.7006848,-4.3245594]},"properties":{"name":"Tamby Store","shop":"convenience"}},
{"type":"Feature","geometry":{"type":"Point","coordinates":[55.7150654,-4.3266355]},"properties":{"building:condition":"good","name":"Ramajayam Supermarket","opening_hours":"Mo-Su 08:00-20:00","shop":"supermarket"}},
{"type":"Feature","geometry":{"type":"Point","coordinates":[55.7171663,-4.3285994]},"properties":{"name":"District Market","shop":"convenience"}},
{"type":"Feature","geometry":{"type":"Point","coordinates":[55.7199276,-4.3310024]},"properties":{"name":"Gopopalancs Mini Market","shop":"convenience"}},
{"type":"Feature","geometry":{"type":"Point","coordinates":[55.7635639,-4.3478917]},"properties":{"name":"Wines & Liquors","shop":"convenience"}},
{"type":"Feature","geometry":{"type":"Point","coordinates":[55.7590792,-4.344456]},"properties":{"name":"Ajith Raj Convenience","shop":"convenience"}},
{"type":"Feature","geometry":{"type":"Point","coordinates":[55.7598469,-4.3366484]},"properties":{"name":"Ah Yune","shop":"convenience"}},
{"type":"Feature","geometry":{"type":"Point","coordinates":[55.7583583,-4.3400531]},"properties":{"name":"Kannus","shop":"convenience"}},
{"type":"Feature","geometry":{"type":"Point","coordinates":[55.7608447,-4.3348083]},"properties":{"name":"ISPC Fresh Market","shop":"convenience"}},
{"type":"Feature","geometry":{"type":"Point","coordinates":[55.713572,-4.3005157]},"properties":{"name":"Indian Convenience","shop":"convenience"}},
{"type":"Feature","geometry":{"type":"Point","coordinates":[55.744297,-4.3144937]},"properties":{"name":"Anish Family Market","opening_hours":"Mo-Su 08:00-20:00","shop":"convenience"}},
{"type":"Feature","geometry":{"type":"Point","coordinates":[55.4371049,-4.5642213]},"properties":{"name":"Supermarket","shop":"supermarket"}},
{"type":"Feature","geometry":{"type":"Point","coordinates":[55.4334232,-4.5719137]},"properties":{"name":"Supermarket","shop":"supermarket"}},
{"type":"Feature","geometry":{"type":"Point","coordinates":[55.4299903,-4.6170778]},"properties":{"name":"Au Bon Valer","name:en":"Au Bon Valer","opening_hours":"Mo-Su 09:00-20:00","shop":"supermarket"}},
{"type":"Feature","geometry":{"type":"Point","coordinates":[55.4297081,-4.6168593]},"properties":{"name":"ISPC Beau-vallon","name:en":"ISPC Beau-vallon","opening_hours":"Mo-Fr 09:00-19:00; Sa 09:00-18:00","shop":"supermarket"}},
{"type":"Feature","geometry":{"type":"Point","coordinates":[55.5227753,-4.7775052]},"properties":{"name":"Walter Desaubin","shop":"convenience"}},
{"type":"Feature","geometry":{"type":"Point","coordinates":[55.4313109,-4.6192488]},"properties":{"name":"Kannus","shop":"supermarket"}},
{"type":"Feature","geometry":{"type":"Point","coordinates":[55.8295676,-4.3486039]},"properties":{"name":"Glorious Bakery","shop":"bakery"}},
{"type":"Feature","geometry":{"type":"Point","coordinates":[55.8272439,-4.351262]},"properties":{"name":"Supermarket","name:en":"Le Cabanon de Laura","opening_hours":"Mo-Sa 08:00-20:00; Su 08:00-13:00, 14:00-20:00","shop":"supermarket"}},
{"type":"Feature","geometry":{"type":"Point","coordinates":[55.8288946,-4.3566441]},"properties":{"shop":"supermarket"}},
{"type":"Feature","geometry":{"type":"Point","coordinates":[55.8295736,-4.3483324]},"properties":{"description":"wholesale warehouse","name":"STC","name:en":"STC Wholesale","shop":"supermarket"}},
{"type":"Feature","geometry":{"type":"Point","coordinates":[55.4096721,-4.6183668]},"properties":{"name":"Bel Ombre MIni Market","shop":"convenience"}},
{"type":"Feature","geometry":{"type":"Point","coordinates":[55.4467224,-4.5909859]},"properties":{"name":"Ghandi Shopping Convenience","shop":"convenience"}},
{"type":"Feature","geometry":{"type":"Point","coordinates":[55.4553659,-4.6179982]},"properties":{"shop":"supermarket"}},
{"type":"Feature","geometry":{"type":"Point","coordinates":[55.46079,-4.5735697]},"properties":{"name":"North Point Shopping Centre","shop":"supermarket"}},
{"type":"Feature","geometry":{"type":"Point","coordinates":[55.459847,-4.6024478]},"properties":{"name":"Kot Kasi","shop":"supermarket"}},
{"type":"Feature","geometry":{"type":"Point","coordinates":[55.4579149,-4.6082005]},"properties":{"name":"Rajesh Karna Store","shop":"supermarket"}},
{"type":"Feature","geometry":{"type":"Point","coordinates":[55.4883904,-4.6555997]},"properties":{"name":"Centrepoint","name:fr":"Centrepoint","shop":"supermarket"}},
{"type":"Feature","geometry":{"type":"Point","coordinates":[55.5186709,-4.7609939]},"properties":{"name":"Pillay Convinience Store","shop":"convenience"}},
{"type":"Feature","geometry":{"type":"Point","coordinates":[55.5090726,-4.7778238]},"properties":{"name":"Chickas Mini Market","shop":"convenience"}},
{"type":"Feature","geometry":{"type":"Point","coordinates":[55.7100028,-4.2990401]},"properties":{"name":"Shop On Top","opening_hours":"Mo-Sa 10:30-20:00","shop":"supermarket"}},
{"type":"Feature","geometry":{"type":"Point","coordinates":[55.4648048,-4.6327423]},"properties":{"name":"ISPC","shop":"farm"}},
{"type":"Feature","geometry":{"type":"Point","coordinates":[55.5176671,-4.7398737]},"properties":{"name":"M.R.Pillow Supermarket","shop":"convenience"}},
{"type":"Feature","geometry":{"type":"Point","coordinates":[55.5167435,-4.7408087]},"properties":{"name":"Royale Kwality Snacks","shop":"convenience"}},
{"type":"Feature","geometry":{"type":"Point","coordinates":[55.5166931,-4.7407822]},"properties":{"name":"Lilac Trading","shop":"convenience"}},
{"type":"Feature","geometry":{"type":"Point","coordinates":[55.4509408,-4.59063]},"properties":{"name":"seven hills","name:en":"seven hills","shop":"convenience"}},
{"type":"Feature","geometry":{"type":"Point","coordinates":[55.4336155,-4.6208906]},"properties":{"name":"kot bass","name:en":"kot bass","shop":"convenience"}},
{"type":"Feature","geometry":{"type":"Point","coordinates":[55.5040984,-4.7390647]},"properties":{"name":"Sekkar supermarket","name:en":"Sekkar supermarket","shop":"supermarket"}},
{"type":"Feature","geometry":{"type":"Point","coordinates":[55.5095718,-4.7426177]},"properties":{"name":"SPR shopping","name:en":"SPR shopping","shop":"supermarket"}},
{"type":"Feature","geometry":{"type":"Point","coordinates":[55.5067266,-4.7406227]},"properties":{"name":"Sekaar supermarket","name:en":"Sekaar supermarket","shop":"supermarket"}},
{"type":"Feature","geometry":{"type":"Point","coordinates":[55.7040008,-4.3246091]},"properties":{"name":"Sri Sai Supermarket","name:en":"Sri Sai Supermarket","shop":"supermarket"}},
{"type":"Feature","geometry":{"type":"Point","coordinates":[55.7450279,-4.3150391]},"properties":{"name":"A - One Supermarket","opening_hours":"Mo-Sa 09:00-21:00, Su 09:00-12:00","shop":"convenience"}},
{"type":"Feature","geometry":{"type":"Point","coordinates":[55.4419535,-4.6748539]},"properties":{"name":"STC","name:en":"STC","opening_hours":"Mo-Fr 08:30-20:30; Sa 08:00-20:00; Su 08:30-14:00","shop":"supermarket"}},
{"type":"Feature","geometry":{"type":"Point","coordinates":[55.4512522,-4.6218036]},"properties":{"shop":"bakery"}},
{"type":"Feature","geometry":{"type":"Point","coordinates":[55.5113988,-4.7796728]},"properties":{"shop":"supermarket"}},
{"type":"Feature","geometry":{"type":"Point","coordinates":[55.4641806,-4.6685152]},"properties":{"shop":"convenience"}},
{"type":"Feature","geometry":{"type":"Point","coordinates":[55.8272221,-4.3553729]},"properties":{"description":"accept VISA, sells alcohol","name":"STC Supermarket","opening_hours":"Mo-Fr 08:30-17:30; Sa 08:00-14:00; Su 08:00-13:00","operator":"Seychelles Trading Company Ltd.","shop":"supermarket"}},
{"type":"Feature","geometry":{"type":"Point","coordinates":[55.8344342,-4.3571033]},"properties":{"name":"Serafina Store","phone":"+248 2584228;+248 2596789","shop":"convenience"}},
{"type":"Feature","geometry":{"type":"Point","coordinates":[55.7307026,-4.3131293]},"properties":{"name":"Mariella's grocery and boutique","opening_hours":"Tu-Su 10:00-19:30","shop":"convenience"}},
{"type":"Feature","geometry":{"type":"Point","coordinates":[55.4604451,-4.5728798]},"properties":{"shop":"supermarket"}},
{"type":"Feature","geometry":{"type":"Point","coordinates":[55.4804057,-4.7506376]},"properties":{"name":"Navin's Minimarket","name:en":"Navin's Minimarket","opening_hours":"Mo-Su 09:00-18:00","shop":"supermarket"}},
{"type":"Feature","geometry":{"type":"Point","coordinates":[55.489929,-4.7304929]},"properties":{"shop":"convenience"}},
{"type":"Feature","geometry":{"type":"Point","coordinates":[55.4919796,-4.7375821]},"properties":{"name":"MURALI mini market","name:en":"MURALI mini market","opening_hours":"Mo-Su 09:00-22:00","shop":"supermarket"}},
{"type":"Feature","geometry":{"type":"Point","coordinates":[55.4492829,-4.6759601]},"properties":{"name":"Maruthi store","name:en":"Maruthi store","shop":"convenience"}},
{"type":"Feature","geometry":{"type":"Point","coordinates":[55.4495056,-4.6759208]},"properties":{"name":"Williams store","name:en":"Williams store","shop":"convenience"}},
{"type":"Feature","geometry":{"type":"Point","coordinates":[55.4296656,-4.6173406]},"properties":{"name":"SS. Centre","shop":"convenience"}},
{"type":"Feature","geometry":{"type":"Point","coordinates":[55.4039609,-4.6197368]},"properties":{"shop":"supermarket"}},
{"type":"Feature","geometry":{"type":"Point","coordinates":[55.5143634,-4.6721474]},"properties":{"name":"Raha","name:en":"Raha","shop":"supermarket"}},
{"type":"Feature","geometry":{"type":"Point","coordinates":[55.4819741,-4.7163399]},"properties":{"addr:city":"Anse Boileau","name":"Fockyune Retail Shop","shop":"convenience"}},
{"type":"Feature","geometry":{"type":"Point","coordinates":[55.4804861,-4.7074383]},"properties":{"addr:city":"Anse Boileau","name":"Thirumudi","name:fr":"Thirumudi","shop":"convenience"}},
{"type":"Feature","geometry":{"type":"Point","coordinates":[55.4791475,-4.7058906]},"properties":{"addr:city":"Anse Boileau","shop":"convenience"}},
{"type":"Feature","geometry":{"type":"Point","coordinates":[55.4783815,-4.7051907]},"properties":{"addr:city":"Anse Boileau","name":"Mrs A Walter retailer","shop":"convenience"}},
{"type":"Feature","geometry":{"type":"Point","coordinates":[55.4770562,-4.7040612]},"properties":{"addr:city":"Anse Boileau","name":"Sri Poorni Store","shop":"convenience"}},
{"type":"Feature","geometry":{"type":"Point","coordinates":[55.4746275,-4.7034592]},"properties":{"addr:city":"Anse Boileau","name":"Prayaag","name:fr":"Prayaag","shop":"convenience"}},
{"type":"Feature","geometry":{"type":"Point","coordinates":[55.4736551,-4.7029226]},"properties":{"addr:city":"Anse Boileau","name":"Tharun","name:fr":"Tharun","shop":"convenience"}},
{"type":"Feature","geometry":{"type":"Point","coordinates":[55.4819997,-4.7094826]},"properties":{"addr:city":"Anse Boileau","shop":"convenience"}},
{"type":"Feature","geometry":{"type":"Point","coordinates":[55.5083855,-4.7841262]},"properties":{"name":"R.V.K. Mini Market","shop":"convenience"}},
{"type":"Feature","geometry":{"type":"Point","coordinates":[55.5237222,-4.7205358]},"properties":{"name":"Desaubin Mini Market","shop":"convenience"}},
{"type":"Feature","geometry":{"type":"Point","coordinates":[55.5236933,-4.720336]},"properties":{"shop":"convenience"}},
{"type":"Feature","geometry":{"type":"Point","coordinates":[55.7634919,-4.3478416]},"properties":{"name":"Darling Supermarket","shop":"convenience"}},
{"type":"Feature","geometry":{"type":"Point","coordinates":[55.7584467,-4.3432723]},"properties":{"name":"Jenny's Bakery","name:de":"No 1 Baie St Anne","shop":"bakery"}},
{"type":"Feature","geometry":{"type":"Point","coordinates":[55.8288985,-4.3490286]},"properties":{"name":"Souvenirs","shop":"convenience"}},
{"type":"Feature","geometry":{"type":"Point","coordinates":[55.716047,-4.3277132]},"properties":{"name":"Farish Family Market","opening_hours":"Mo-Su 08:00-20:00","shop":"supermarket"}},
{"type":"Feature","geometry":{"type":"Point","coordinates":[55.7165186,-4.3280754]},"properties":{"name":"Ocean's Plaza","shop":"supermarket"}},
{"type":"Feature","geometry":{"type":"Point","coordinates":[55.74671,-4.3162796]},"properties":{"entrance":"yes","name":"K. K. Thirumalai","name:en":"K.K. Thirumalai Market","opening_hours":"Mo-Th 07:00-21:00; Fr-Sa 07:00-22:00; Su 09:00-13:00, 17:00-20:00","shop":"supermarket"}},
{"type":"Feature","geometry":{"type":"Point","coordinates":[55.8260661,-4.3565236]},"properties":{"name":"Anse Reunion Supermarket","shop":"supermarket"}},
{"type":"Feature","geometry":{"type":"Point","coordinates":[55.4300627,-4.6172979]},"properties":{"name":"Beau Vallon Supermarket","shop":"supermarket"}},
{"type":"Feature","geometry":{"type":"Point","coordinates":[55.8289255,-4.3566471]},"properties":{"name":"Elrina's Boutique","shop":"convenience"}},
{"type":"Feature","geometry":{"type":"Point","coordinates":[55.8260554,-4.3566139]},"properties":{"name":"Quick's Boutique","shop":"convenience"}},
{"type":"Feature","geometry":{"type":"Point","coordinates":[55.6866828,-4.3125236]},"properties":{"name":"Sri Hari","shop":"supermarket"}},
{"type":"Feature","geometry":{"type":"Point","coordinates":[55.6866662,-4.3147431]},"properties":{"name":"Vero's butchery","shop":"butcher"}},
{"type":"Feature","geometry":{"type":"Point","coordinates":[55.6859343,-4.3157373]},"properties":{"name":"Farish_family_mart","shop":"supermarket"}},
{"type":"Feature","geometry":{"type":"Point","coordinates":[55.7157604,-4.3277943]},"properties":{"opening_hours":"Mo-Su 09:00-21:00","payment:cash":"yes","shop":"supermarket"}},
{"type":"Feature","geometry":{"type":"Point","coordinates":[55.7067335,-4.3229446]},"properties":{"addr:city":"st. joseph","opening_hours":"Mo-Su 07:30-21:00","operator":"convinience shop","payment:cash":"yes","shop":"supermarket"}},
{"type":"Feature","geometry":{"type":"Point","coordinates":[55.7580704,-4.3234145]},"properties":{"shop":"supermarket"}},
{"type":"Feature","geometry":{"type":"Point","coordinates":[55.5044379,-4.7756915]},"properties":{"name":"Sekaar @ Takamaka-2","shop":"supermarket"}},
{"type":"Feature","geometry":{"type":"Point","coordinates":[55.4569304,-4.6841179]},"properties":{"addr:street":"La Misère Road","name":"Maha","name:fr":"Maha Mart","opening_hours":"Mo-Su 08:00-22:00","shop":"supermarket"}},
{"type":"Feature","geometry":{"type":"Point","coordinates":[55.4286535,-4.6175233]},"properties":{"name":"Guylianne's","shop":"convenience"}},
{"type":"Feature","geometry":{"type":"Point","coordinates":[55.4764631,-4.6400818]},"properties":{"brand":"Spar","brand:fr":"Spar","brand:wikidata":"Q610492","brand:wikipedia":"fr:Spar","name":"Spar","name:fr":"Spar","shop":"convenience"}},
{"type":"Feature","geometry":{"type":"Point","coordinates":[55.4540527,-4.6202393]},"properties":{"name":"Kannu","opening_hours":"Mo-Fr 09:00-18:00","shop":"supermarket"}},
{"type":"Feature","geometry":{"type":"Point","coordinates":[55.4527233,-4.624693]},"properties":{"name":"Chaka bros","opening_hours":"Mo-Fr 09:00-16:30","operator":"chaka","shop":"convenience"}},
{"type":"Feature","geometry":{"type":"Point","coordinates":[55.4800084,-4.7500905]},"properties":{"name":"Law hah","opening_hours":"Mo-Sa 09:00-19:30","operator":"law hah","shop":"convenience"}},
{"type":"Feature","geometry":{"type":"Point","coordinates":[55.4599243,-4.6053111]},"properties":{"name":"Vimal","shop":"supermarket"}},
{"type":"Feature","geometry":{"type":"Point","coordinates":[55.4180682,-4.6159225]},"properties":{"shop":"convenience"}},
{"type":"Feature","geometry":{"type":"Point","coordinates":[55.5105906,-4.7794781]},"properties":{"name":"Island taste","shop":"supermarket"}},
{"type":"Feature","geometry":{"type":"Point","coordinates":[55.8321511,-4.3569374]},"properties":{"name":"Zerof Market","shop":"supermarket"}},
{"type":"Feature","geometry":{"type":"Point","coordinates":[55.4332118,-4.5765697]},"properties":{"addr:street":"North Coast Road","name":"Low Huen Shop","shop":"supermarket"}},
{"type":"Feature","geometry":{"type":"Point","coordinates":[55.43678,-4.564259]},"properties":{"name":"Sairam Shopping Centre","shop":"supermarket"}},
{"type":"Feature","geometry":{"type":"Point","coordinates":[55.424047,-4.6174888]},"properties":{"name":"Vimal supermarket","shop":"supermarket"}},
{"type":"Feature","geometry":{"type":"Point","coordinates":[55.5169999,-4.7408518]},"properties":{"name":"ISPC Supermarket Fresh Anse Royale","opening_hours":"Mo-Fr 09:00-19:00; Sa 09:00-18:00","shop":"supermarket"}},
{"type":"Feature","geometry":{"type":"Point","coordinates":[55.454607,-4.6192396]},"properties":{"name":"STC Supermarket","opening_hours":"Mo-Fr 08:30-18:00; Sa 08:00-14:00; Su 08:00-12:00; PH off","shop":"supermarket"}},
{"type":"Feature","geometry":{"type":"Point","coordinates":[55.7452116,-4.3196108]},"properties":{"name":"Shop","name:ru":"Продуктовый до 8 вечера","opening_hours":"Mo-Su 09:00-18:00","shop":"convenience"}},
{"type":"Feature","geometry":{"type":"Point","coordinates":[55.4323463,-4.6198077]},"properties":{"name":"Northern Mini-Bazar","shop":"convenience"}},
{"type":"Feature","geometry":{"type":"Point","coordinates":[55.4623903,-4.6046802]},"properties":{"name":"Ramajayam","shop":"supermarket"}},
{"type":"Feature","geometry":{"type":"Point","coordinates":[55.4606257,-4.572687]},"properties":{"name":"Fish market","shop":"convenience"}},
{"type":"Feature","geometry":{"type":"Point","coordinates":[55.4335156,-4.580958]},"properties":{"name":"Niran","shop":"supermarket"}},
{"type":"Feature","geometry":{"type":"Point","coordinates":[55.4339423,-4.57785]},"properties":{"name":"Vimal","shop":"supermarket"}},
{"type":"Feature","geometry":{"type":"Point","coordinates":[55.514233,-4.6720889]},"properties":{"addr:postcode":"361","addr:street":"Opp. Airport Cargo Office","name":"Chop Shop","opening_hours":"Mo-Su 08:00-20:00","operator":"GSC","payment:cash":"yes","payment:credit_cards":"yes","payment:debit_cards":"yes","shop":"supermarket"}},
{"type":"Feature","geometry":{"type":"Point","coordinates":[55.5167018,-4.7410004]},"properties":{"addr:postcode":"361","name":"Chop Shop Anse Royale","operator":"GSC","payment:cash":"yes","payment:credit_cards":"yes","payment:debit_cards":"yes","shop":"supermarket"}},
{"type":"Feature","geometry":{"type":"Point","coordinates":[55.4101013,-4.6574781]},"properties":{"name":"Soma Minimarket","shop":"convenience"}},
{"type":"Feature","geometry":{"type":"Point","coordinates":[55.4097419,-4.6570981]},"properties":{"name":"Minimarket Port Claude","shop":"convenience"}},
{"type":"Feature","geometry":{"type":"Point","coordinates":[55.8308064,-4.3495876]},"properties":{"name":"B&M Store","opening_hours":"Mo-Sa 07:30-20:00; Su,PH 07:30-13:00","phone":"+248 2 528 919","shop":"supermarket"}},
{"type":"Feature","geometry":{"type":"Point","coordinates":[55.4319724,-4.6067385]},"properties":{"name":"Ramajayam Beach Store","shop":"convenience"}},
{"type":"Feature","geometry":{"type":"Point","coordinates":[55.4317808,-4.6061247]},"properties":{"name":"Mike‘s Store","shop":"convenience"}},
{"type":"Feature","geometry":{"type":"Point","coordinates":[55.7467445,-4.3162706]},"properties":{"shop":"supermarket"}},
{"type":"Feature","geometry":{"type":"Point","coordinates":[55.7001211,-4.3244463]},"properties":{"name":"Pick&Pack Minimarket","shop":"convenience"}},
{"type":"Feature","geometry":{"type":"Point","coordinates":[55.8289707,-4.3500329]},"properties":{"name":"Farish Family Mart","payment:cash":"yes","payment:credit_cards":"yes","shop":"supermarket"}},
{"type":"Feature","geometry":{"type":"Point","coordinates":[55.8282009,-4.3496946]},"properties":{"name":"Market (fruits and vegetables)","shop":"supermarket"}},
{"type":"Feature","geometry":{"type":"Point","coordinates":[55.8279513,-4.3499118]},"properties":{"name":"Market (fruits and vegetables)","shop":"supermarket"}},
{"type":"Feature","geometry":{"type":"Point","coordinates":[55.4332314,-4.5901874]},"properties":{"addr:street":"North Coast Road","shop":"supermarket"}},
{"type":"Feature","geometry":{"type":"Point","coordinates":[55.4336597,-4.5696147]},"properties":{"addr:street":"North Coast Road","name":"M. R. Pillay Supermarket","shop":"supermarket"}},
{"type":"Feature","geometry":{"type":"Point","coordinates":[55.4335247,-4.5701091]},"properties":{"addr:street":"North Coast Road","shop":"supermarket"}},
{"type":"Feature","geometry":{"type":"Point","coordinates":[55.4332918,-4.575586]},"properties":{"addr:street":"North Coast Road","shop":"supermarket"}},
{"type":"Feature","geometry":{"type":"Point","coordinates":[55.457229,-4.5980916]},"properties":{"name":"Elaveni Supermarket","shop":"supermarket"}},
{"type":"Feature","geometry":{"type":"Point","coordinates":[55.8302358,-4.3628012]},"properties":{"name":"LE PTI SHOP LA DIGUE","opening_hours":"Mo-Fr 07:00-21:00","shop":"convenience"}},
{"type":"Feature","geometry":{"type":"Point","coordinates":[55.8272027,-4.3516259]},"properties":{"shop":"convenience"}},
{"type":"Feature","geometry":{"type":"Point","coordinates":[55.4760281,-4.640536]},"properties":{"level":"0","shop":"convenience"}},
{"type":"Feature","geometry":{"type":"Point","coordinates":[55.4657544,-4.6357511]},"properties":{"shop":"butcher"}},
{"type":"Feature","geometry":{"type":"Point","coordinates":[55.4503316,-4.6210736]},"properties":{"shop":"supermarket"}},
{"type":"Feature","geometry":{"type":"LineString","coordinates":[[55.7573523,-4.3586868],[55.7573317,-4.3585917],[55.757374,-4.3585826],[55.7573946,-4.3586777],[55.7573523,-4.3586868]]},"properties":{"building":"yes","shop":"convenience"}},
{"type":"Feature","geometry":{"type":"LineString","coordinates":[[55.4596059,-4.6276782],[55.4595989,-4.6273207],[55.4598097,-4.6273166],[55.4598166,-4.6276741],[55.4596059,-4.6276782]]},"properties":{"building":"yes","building:levels":"4","building:material":"cement_block","emergency":"assembly_point","roof:material":"corrugated_iron","roof:shape":"gabled","shop":"supermarket"}},
{"type":"Feature","geometry":{"type":"LineString","coordinates":[[55.453183,-4.6767585],[55.4533086,-4.6768217],[55.4532551,-4.6769274],[55.4531295,-4.6768642],[55.453183,-4.6767585]]},"properties":{"building":"yes","name":"Shop rite","shop":"convenience"}},
{"type":"Feature","geometry":{"type":"LineString","coordinates":[[55.5102113,-4.7793732],[55.5103787,-4.7795614],[55.5104793,-4.7794725],[55.5103119,-4.7792843],[55.5102113,-4.7793732]]},"properties":{"building":"yes","name":"Sekaar @ Takamaka Market","shop":"convenience","source":"Bing; knowledge"}},
{"type":"Feature","geometry":{"type":"LineString","coordinates":[[55.5177915,-4.7395383],[55.5178969,-4.739627],[55.5179504,-4.7395639],[55.517845,-4.7394751],[55.5177915,-4.7395383]]},"properties":{"building":"yes","name":"Rasee Supermarket","shop":"convenience"}},
{"type":"Feature","geometry":{"type":"LineString","coordinates":[[55.5166654,-4.741016],[55.5167964,-4.7410205],[55.5167925,-4.7411319],[55.5166615,-4.7411273],[55.5166654,-4.741016]]},"properties":{"building":"yes","name":"Damoo Supermarket","shop":"convenience"}},
{"type":"Feature","geometry":{"type":"LineString","coordinates":[[55.5097475,-4.7436119],[55.50988,-4.7435642],[55.5099383,-4.7437249],[55.5098058,-4.7437726],[55.5097475,-4.7436119]]},"properties":{"building":"yes","name":"Sweet Escott shop","shop":"convenience"}},
{"type":"Feature","geometry":{"type":"LineString","coordinates":[[55.5151637,-4.7488886],[55.5151803,-4.7490838],[55.5152841,-4.749075],[55.5152675,-4.7488799],[55.5151637,-4.7488886]]},"properties":{"building":"yes","building:levels":"2","name":"Alibhaye shop","shop":"convenience"}},
{"type":"Feature","geometry":{"type":"LineString","coordinates":[[55.4632729,-4.6348159],[55.4631656,-4.6348747],[55.4629403,-4.6344296],[55.4630623,-4.6343708],[55.4632729,-4.6348159]]},"properties":{"addr:city":"Mont Fleuri","addr:street":"Mont Fleuri Road","building":"yes","building:condition":"good","building:levels":"2","name":"People's Supermarket MK","shop":"supermarket","smoking":"outside"}},
{"type":"Feature","geometry":{"type":"LineString","coordinates":[[55.4632556,-4.6341754],[55.4633911,-4.6340852],[55.4633059,-4.6339608],[55.4631745,-4.6340477],[55.4632556,-4.6341754]]},"properties":{"addr:city":"Mont Fleuri","building":"commercial","building:condition":"good","building:levels":"2","building:material":"brick","capacity":"30","emergency":"no","name":"Tip Top Supermarket","note":"General items","opening_hours":"8:00-20:00","roof:material":"corrugated iron","roof:shape":"gabled","rooms":"8","shop":"supermarket","staff":"7"}},
{"type":"Feature","geometry":{"type":"LineString","coordinates":[[55.4598445,-4.6290228],[55.4606573,-4.6291334],[55.460777,-4.6291497],[55.4609227,-4.6291695],[55.4608948,-4.6293731],[55.4608798,-4.6294823],[55.4608486,-4.6297105],[55.4606875,-4.6296886],[55.4605678,-4.6296723],[55.4597704,-4.6295639],[55.4598445,-4.6290228]]},"properties":{"building":"yes","name":"Bois de Rose Shopping Complex","shop":"supermarket"}},
{"type":"Feature","geometry":{"type":"LineString","coordinates":[[55.8268283,-4.356048],[55.8269313,-4.3560657],[55.8269044,-4.3562208],[55.8268015,-4.3562031],[55.8268283,-4.356048]]},"properties":{"building":"yes","building:levels":"2","name":"Gregoire's Boutique","opening_hours":"Mo-Sa 07:30-18:00; PH,Su 07:30-13:00","roof:levels":"1","shop":"convenience"}},
{"type":"Feature","geometry":{"type":"LineString","coordinates":[[55.4512234,-4.6211815],[55.4512475,-4.6217301],[55.4516807,-4.6217111],[55.4516711,-4.6214943],[55.4514868,-4.6215024],[55.4514722,-4.6211707],[55.4512234,-4.6211815]]},"properties":{"amenity":"marketplace","name":"Sir Selwyn Selwyn Clarke Market"}},
{"type":"Feature","geometry":{"type":"LineString","coordinates":[[55.5214886,-4.7123585],[55.5216183,-4.712312],[55.5216578,-4.7124214],[55.5215547,-4.7124583],[55.5215402,-4.7124183],[55.5215136,-4.7124278],[55.5214886,-4.7123585]]},"properties":{"addr:street":"Au Cap Main Road","building":"yes","building:condition":"good","building:levels":"2","building:material":"cement_block","building_use":"Commercial","name":"Au Cap Mini Market","roof:material":"metal;wood","shop":"convenience"}},
{"type":"Feature","geometry":{"type":"LineString","coordinates":[[55.4666766,-4.6411641],[55.4664474,-4.6408899],[55.4666269,-4.6407408],[55.4667396,-4.6408757],[55.4666598,-4.640942],[55.4666981,-4.6409878],[55.4668124,-4.6408929],[55.4668906,-4.6409864],[55.4666766,-4.6411641]]},"properties":{"building":"yes","name":"Mohan Shopping Centre","shop":"supermarket"}},
{"type":"Feature","geometry":{"type":"LineString","coordinates":[[55.4658685,-4.6389828],[55.4659356,-4.6389373],[55.4659141,-4.6389052],[55.4659221,-4.6388758],[55.4659516,-4.6388705],[55.4659436,-4.6388143],[55.4659248,-4.6387983],[55.4659221,-4.6386459],[55.4658444,-4.6386513],[55.465839,-4.6387422],[55.4658068,-4.6387502],[55.4657854,-4.6387261],[55.4657129,-4.6387903],[55.4658685,-4.6389828]]},"properties":{"building":"yes","name":"Fresh Cuts","shop":"butcher"}},
{"type":"Feature","geometry":{"type":"LineString","coordinates":[[55.442271,-4.6238681],[55.442160199999999,-4.6238512],[55.4421829,-4.623721],[55.4422908,-4.623738],[55.442271,-4.6238681]]},"properties":{"building":"yes","name":"Kot Dorasammy","shop":"convenience"}},
{"type":"Feature","geometry":{"type":"LineString","coordinates":[[55.4532756,-4.6213088],[55.4532759,-4.6210915],[55.4533434,-4.6210877],[55.453453,-4.6211045],[55.453453,-4.6213131],[55.4534208,-4.6213122],[55.4534215,-4.621336],[55.4532561,-4.6213398],[55.4532569,-4.6213106],[55.4532756,-4.6213088]]},"properties":{"building":"yes","name":"Cold Storage","shop":"butcher"}},
{"type":"Feature","geometry":{"type":"LineString","coordinates":[[55.4493107,-4.6225287],[55.4494004,-4.6225321],[55.4493945,-4.6226846],[55.4493048,-4.6226811],[55.4493107,-4.6225287]]},"properties":{"building":"yes","shop":"bakery"}},
{"type":"Feature","geometry":{"type":"LineString","coordinates":[[55.4537276,-4.6159111],[55.4537888,-4.6159198],[55.4537813,-4.6159919],[55.453739,-4.6159896],[55.453739,-4.6159727],[55.4537179,-4.6159705],[55.4537233,-4.6159175],[55.4537275,-4.6159165],[55.4537276,-4.6159111]]},"properties":{"building":"yes","shop":"convenience"}},
{"type":"Feature","geometry":{"type":"LineString","coordinates":[[55.8343408,-4.3516285],[55.8342475,-4.3516527],[55.8342134,-4.3515265],[55.8342992,-4.3515],[55.8343408,-4.3516285]]},"properties":{"building":"yes","name":"Shop","shop":"convenience"}},
{"type":"Feature","geometry":{"type":"LineString","coordinates":[[55.7551225,-4.3390333],[55.7552312,-4.3390038],[55.7552487,-4.3391005],[55.7551752,-4.3391186],[55.7551695,-4.3391028],[55.7551385,-4.3391089],[55.7551225,-4.3390333]]},"properties":{"building":"yes","name":"Happy Mart","shop":"convenience"}},
{"type":"Feature","geometry":{"type":"LineString","coordinates":[[55.4865801,-4.7605125],[55.4864841,-4.7606042],[55.486417,-4.7605327],[55.4864303,-4.7605198],[55.4864094,-4.7604959],[55.4864171,-4.7604892],[55.486399,-4.76047],[55.4863899,-4.7604494],[55.4864406,-4.7604021],[55.4864244,-4.7603844],[55.4864569,-4.7603553],[55.4864745,-4.7603749],[55.4864855,-4.7603663],[55.4865331,-4.7604148],[55.4865116,-4.7604377],[55.4865801,-4.7605125]]},"properties":{"building":"supermarket","building:condition":"good","building:levels":"2","building:material":"brick","name":"Baie Lazare Super market","roof:material":"corrugated iron","roof:shape":"gabled","rooms":"2","shop":"supermarket","staff":"4"}},
{"type":"Feature","geometry":{"type":"LineString","coordinates":[[55.4877521,-4.7612708],[55.4877874,-4.7613481],[55.4877247,-4.7613817],[55.4877226,-4.7613774],[55.4876989,-4.7613881],[55.4876637,-4.7613126],[55.4877521,-4.7612708]]},"properties":{"building":"retail","building:condition":"good","building:levels":"2","building:material":"brick","name":"Visva Store","roof:material":"corrugated iron","roof:shape":"gabled","rooms":"2","shop":"convenience","staff":"2","start_date":"2000"}},
{"type":"Feature","geometry":{"type":"LineString","coordinates":[[55.4878307,-4.7611938],[55.4878536,-4.7611932],[55.4878573,-4.7612686],[55.4878065,-4.7612706],[55.4878046,-4.7611819],[55.4878307,-4.761182],[55.4878307,-4.7611938]]},"properties":{"building":"retail","building:condition":"good","building:levels":"1","building:material":"brick","name":"Trotters Grocery","roof:material":"corrugated iron","roof:shape":"gabled","shop":"butcher"}},
{"type":"Feature","geometry":{"type":"LineString","coordinates":[[55.4879405,-4.7611815],[55.4879487,-4.7611815],[55.4879481,-4.7611564],[55.4880554,-4.7611459],[55.4880551,-4.7611294],[55.4881206,-4.7611213],[55.4881301,-4.7612193],[55.4880266,-4.7612291],[55.4880263,-4.7612427],[55.4879497,-4.7612469],[55.4879493,-4.7612673],[55.4879314,-4.7612673],[55.4879304,-4.7612468],[55.4879447,-4.7612458],[55.4879405,-4.7611815]]},"properties":{"building":"retail","building:condition":"good","building:levels":"1","building:material":"brick","name":"Aaru","roof:material":"corrugated iron","roof:shape":"gabled","rooms":"4","shop":"convenience","staff":"1"}},
{"type":"Feature","geometry":{"type":"LineString","coordinates":[[55.4864168,-4.7614515],[55.4863153,-4.7615195],[55.4863052,-4.7615039],[55.4862825,-4.7615182],[55.4862742,-4.7615086],[55.4862402,-4.7615247],[55.4862502,-4.7615821],[55.4861941,-4.7615898],[55.4861888,-4.7615838],[55.4861635,-4.7614151],[55.4861689,-4.7614139],[55.4861677,-4.7613995],[55.4861707,-4.7613989],[55.4861659,-4.7613792],[55.4863378,-4.7613269],[55.4864168,-4.7614515]]},"properties":{"building":"retail","building:condition":"good","building:levels":"2","building:material":"brick","name":"Flocy's store","roof:material":"corrugated iron","roof:shape":"gabled","rooms":"18","shop":"convenience","staff":"6"}},
{"type":"Feature","geometry":{"type":"LineString","coordinates":[[55.4867432,-4.7612069],[55.4868341,-4.7612157],[55.4868338,-4.761211],[55.4868563,-4.7612122],[55.4868413,-4.7613643],[55.4867329,-4.7613526],[55.4867329,-4.7613433],[55.486729,-4.7613425],[55.4867432,-4.7612069]]},"properties":{"building":"yes","building:condition":"fair","building:levels":"1","building:material":"brick","name":"Law wah 2","roof:material":"corrugated iron","roof:shape":"gabled","shop":"convenience","start_date":"1970"}},
{"type":"Feature","geometry":{"type":"LineString","coordinates":[[55.516961,-4.74125],[55.5170729,-4.7412419],[55.517078,-4.7413105],[55.516966,-4.7413186],[55.516961,-4.74125]]},"properties":{"amenity":"marketplace","building":"yes","name":"Anse Royale Market","opening_hours":"Mo-Sa 09:00-16:00; Su 07:00-12:30"}},
{"type":"Feature","geometry":{"type":"LineString","coordinates":[[55.4818872,-4.7077669],[55.48208,-4.7077253],[55.4820819,-4.7077296],[55.4820934,-4.7077296],[55.4821118,-4.7078225],[55.4821003,-4.7078244],[55.4821013,-4.7078311],[55.482033,-4.7078472],[55.4820349,-4.7078525],[55.4820053,-4.70786],[55.4820049,-4.7078524],[55.4819968,-4.7078524],[55.4820062,-4.7078897],[55.4819313,-4.7079034],[55.4819233,-4.7078675],[55.4819114,-4.7078704],[55.4818872,-4.7077669]]},"properties":{"building":"retail","building:condition":"fair","building:levels":"1","building:material":"cement_block","name":"Sri Muga supermarket","roof:material":"corrugated_ iron","roof:shape":"gabled","shop":"supermarket"}},
{"type":"Feature","geometry":{"type":"LineString","coordinates":[[55.4039919,-4.61968],[55.403905,-4.6196949],[55.4039204,-4.6197857],[55.4039559,-4.6197796],[55.4039611,-4.6198099],[55.4039285,-4.6198143],[55.4039313,-4.6198415],[55.4039878,-4.619833],[55.4039848,-4.619814],[55.4040164,-4.6198086],[55.4039919,-4.61968]]},"properties":{"beds":"2","building":"yes","building:condition":"good","building:levels":"1","building:material":"brick","capacity":"2","emergency":"none","name":"R.S.K Supermarket","roof:material":"corrugated iron","roof:shape":"flat","rooms":"4","shop":"supermarket","staff":"1"}},
{"type":"Feature","geometry":{"type":"LineString","coordinates":[[55.4825181,-4.709598],[55.4825755,-4.7097958],[55.4823706,-4.7098546],[55.482332,-4.7097231],[55.4823224,-4.7097251],[55.4823109,-4.7097293],[55.482304,-4.709728],[55.4822971,-4.7097051],[55.4822901,-4.7096809],[55.4822956,-4.7096702],[55.482306,-4.7096643],[55.4823181,-4.709665],[55.4823162,-4.7096573],[55.4823184,-4.7096528],[55.4825181,-4.709598]]},"properties":{"building":"yes","building:condition":"good","building:levels":"3","building:material":"cement_block","name":"Ashmitha Supermarket","roof:material":"corrugated_iron","roof:shape":"gabled","shop":"supermarket"}},
{"type":"Feature","geometry":{"type":"LineString","coordinates":[[55.4597153,-4.6272587],[55.459557,-4.62726],[55.4595798,-4.6277386],[55.4598521,-4.6277346],[55.4598454,-4.6272534],[55.4597153,-4.6272587]]},"properties":{"building":"yes","name":"Docklands Supermarket","shop":"supermarket"}},
{"type":"Feature","geometry":{"type":"LineString","coordinates":[[55.5028868,-4.7285424],[55.5029927,-4.728547],[55.502987,-4.7286762],[55.502881,-4.7286715],[55.5028868,-4.7285424]]},"properties":{"building":"yes","name":"Sekaar Mont Plaisir","shop":"convenience"}},
{"type":"Feature","geometry":{"type":"LineString","coordinates":[[55.4859902,-4.7590629],[55.4860902,-4.7589539],[55.4861679,-4.7590248],[55.486068,-4.7591338],[55.4859902,-4.7590629]]},"properties":{"building":"retail","building:condition":"good","building:levels":"2","building:material":"brick","name":"Samy's Shopping Centre","roof:material":"corrugated iron","roof:shape":"gabled","rooms":"11","shop":"convenience","staff":"3","start_date":"2013"}},
{"type":"Feature","geometry":{"type":"LineString","coordinates":[[55.4833996,-4.7574175],[55.4834507,-4.7573585],[55.4835347,-4.7574307],[55.4834836,-4.7574897],[55.4833996,-4.7574175]]},"properties":{"building":"yes","shop":"convenience"}},
{"type":"Feature","geometry":{"type":"LineString","coordinates":[[55.4911181,-4.7269529],[55.4912729,-4.7269264],[55.4912951,-4.7270558],[55.4911403,-4.7270822],[55.4911181,-4.7269529]]},"properties":{"building":"yes","name":"Anse Louis Store","shop":"convenience"}},
{"type":"Feature","geometry":{"type":"LineString","coordinates":[[55.46338,-4.6708476],[55.4632946,-4.6709236],[55.463383,-4.6710223],[55.463468399999999,-4.6709463],[55.46338,-4.6708476]]},"properties":{"building":"yes","name":"Le Panier","opening_hours":"Permanently closed","shop":"supermarket"}},
{"type":"Feature","geometry":{"type":"MultiPolygon","coordinates":[[[[55.7573317,-4.3585917],[55.7573523,-4.3586868],[55.7573946,-4.3586777],[55.757374,-4.3585826],[55.7573317,-4.3585917]]]]},"properties":{"building":"yes","shop":"convenience"}},
{"type":"Feature","geometry":{"type":"MultiPolygon","coordinates":[[[[55.4595989,-4.6273207],[55.4596059,-4.6276782],[55.4598166,-4.6276741],[55.4598097,-4.6273166],[55.4595989,-4.6273207]]]]},"properties":{"building":"yes","building:levels":"4","building:material":"cement_block","emergency":"assembly_point","roof:material":"corrugated_iron","roof:shape":"gabled","shop":"supermarket"}},
{"type":"Feature","geometry":{"type":"MultiPolygon","coordinates":[[[[55.4531295,-4.6768642],[55.4532551,-4.6769274],[55.4533086,-4.6768217],[55.453183,-4.6767585],[55.4531295,-4.6768642]]]]},"properties":{"building":"yes","name":"Shop rite","shop":"convenience"}},
{"type":"Feature","geometry":{"type":"MultiPolygon","coordinates":[[[[55.5102113,-4.7793732],[55.5103787,-4.7795614],[55.5104793,-4.7794725],[55.5103119,-4.7792843],[55.5102113,-4.7793732]]]]},"properties":{"building":"yes","name":"Sekaar @ Takamaka Market","shop":"convenience","source":"Bing; knowledge"}},
{"type":"Feature","geometry":{"type":"MultiPolygon","coordinates":[[[[55.5177915,-4.7395383],[55.5178969,-4.739627],[55.5179504,-4.7395639],[55.517845,-4.7394751],[55.5177915,-4.7395383]]]]},"properties":{"building":"yes","name":"Rasee Supermarket","shop":"convenience"}},
{"type":"Feature","geometry":{"type":"MultiPolygon","coordinates":[[[[55.5166615,-4.7411273],[55.5167925,-4.7411319],[55.5167964,-4.7410205],[55.5166654,-4.741016],[55.5166615,-4.7411273]]]]},"properties":{"building":"yes","name":"Damoo Supermarket","shop":"convenience"}},
{"type":"Feature","geometry":{"type":"MultiPolygon","coordinates":[[[[55.5097475,-4.7436119],[55.5098058,-4.7437726],[55.5099383,-4.7437249],[55.50988,-4.7435642],[55.5097475,-4.7436119]]]]},"properties":{"building":"yes","name":"Sweet Escott shop","shop":"convenience"}},
{"type":"Feature","geometry":{"type":"MultiPolygon","coordinates":[[[[55.5151637,-4.7488886],[55.5151803,-4.7490838],[55.5152841,-4.749075],[55.5152675,-4.7488799],[55.5151637,-4.7488886]]]]},"properties":{"building":"yes","building:levels":"2","name":"Alibhaye shop","shop":"convenience"}},
{"type":"Feature","geometry":{"type":"MultiPolygon","coordinates":[[[[55.4629403,-4.6344296],[55.4631656,-4.6348747],[55.4632729,-4.6348159],[55.4630623,-4.6343708],[55.4629403,-4.6344296]]]]},"properties":{"addr:city":"Mont Fleuri","addr:street":"Mont Fleuri Road","building":"yes","building:condition":"good","building:levels":"2","name":"People's Supermarket MK","shop":"supermarket","smoking":"outside"}},
{"type":"Feature","geometry":{"type":"MultiPolygon","coordinates":[[[[55.4631745,-4.6340477],[55.4632556,-4.6341754],[55.4633911,-4.6340852],[55.4633059,-4.6339608],[55.4631745,-4.6340477]]]]},"properties":{"addr:city":"Mont Fleuri","building":"commercial","building:condition":"good","building:levels":"2","building:material":"brick","capacity":"30","emergency":"no","name":"Tip Top Supermarket","note":"General items","opening_hours":"8:00-20:00","roof:material":"corrugated iron","roof:shape":"gabled","rooms":"8","shop":"supermarket","staff":"7"}},
{"type":"Feature","geometry":{"type":"MultiPolygon","coordinates":[[[[55.4597704,-4.6295639],[55.4605678,-4.6296723],[55.4606875,-4.6296886],[55.4608486,-4.6297105],[55.4608798,-4.6294823],[55.4608948,-4.6293731],[55.4609227,-4.6291695],[55.460777,-4.6291497],[55.4606573,-4.6291334],[55.4598445,-4.6290228],[55.4597704,-4.6295639]]]]},"properties":{"building":"yes","name":"Bois de Rose Shopping Complex","shop":"supermarket"}},
{"type":"Feature","geometry":{"type":"MultiPolygon","coordinates":[[[[55.8268015,-4.3562031],[55.8269044,-4.3562208],[55.8269313,-4.3560657],[55.8268283,-4.356048],[55.8268015,-4.3562031]]]]},"properties":{"building":"yes","building:levels":"2","name":"Gregoire's Boutique","opening_hours":"Mo-Sa 07:30-18:00; PH,Su 07:30-13:00","roof:levels":"1","shop":"convenience"}},
{"type":"Feature","geometry":{"type":"MultiPolygon","coordinates":[[[[55.4512234,-4.6211815],[55.4512475,-4.6217301],[55.4516807,-4.6217111],[55.4516711,-4.6214943],[55.4514868,-4.6215024],[55.4514722,-4.6211707],[55.4512234,-4.6211815]]]]},"properties":{"amenity":"marketplace","name":"Sir Selwyn Selwyn Clarke Market"}},
{"type":"Feature","geometry":{"type":"MultiPolygon","coordinates":[[[[55.5214886,-4.7123585],[55.5215136,-4.7124278],[55.5215402,-4.7124183],[55.5215547,-4.7124583],[55.5216578,-4.7124214],[55.5216183,-4.712312],[55.5214886,-4.7123585]]]]},"properties":{"addr:street":"Au Cap Main Road","building":"yes","building:condition":"good","building:levels":"2","building:material":"cement_block","building_use":"Commercial","name":"Au Cap Mini Market","roof:material":"metal;wood","shop":"convenience"}},
{"type":"Feature","geometry":{"type":"MultiPolygon","coordinates":[[[[55.4664474,-4.6408899],[55.4666766,-4.6411641],[55.4668906,-4.6409864],[55.4668124,-4.6408929],[55.4666981,-4.6409878],[55.4666598,-4.640942],[55.4667396,-4.6408757],[55.4666269,-4.6407408],[55.4664474,-4.6408899]]]]},"properties":{"building":"yes","name":"Mohan Shopping Centre","shop":"supermarket"}},
{"type":"Feature","geometry":{"type":"MultiPolygon","coordinates":[[[[55.4657129,-4.6387903],[55.4658685,-4.6389828],[55.4659356,-4.6389373],[55.4659141,-4.6389052],[55.4659221,-4.6388758],[55.4659516,-4.6388705],[55.4659436,-4.6388143],[55.4659248,-4.6387983],[55.4659221,-4.6386459],[55.4658444,-4.6386513],[55.465839,-4.6387422],[55.4658068,-4.6387502],[55.4657854,-4.6387261],[55.4657129,-4.6387903]]]]},"properties":{"building":"yes","name":"Fresh Cuts","shop":"butcher"}},
{"type":"Feature","geometry":{"type":"MultiPolygon","coordinates":[[[[55.442160199999999,-4.6238512],[55.442271,-4.6238681],[55.4422908,-4.623738],[55.4421829,-4.623721],[55.442160199999999,-4.6238512]]]]},"properties":{"building":"yes","name":"Kot Dorasammy","shop":"convenience"}},
{"type":"Feature","geometry":{"type":"MultiPolygon","coordinates":[[[[55.4532561,-4.6213398],[55.4534215,-4.621336],[55.4534208,-4.6213122],[55.453453,-4.6213131],[55.453453,-4.6211045],[55.4533434,-4.6210877],[55.4532759,-4.6210915],[55.4532756,-4.6213088],[55.4532569,-4.6213106],[55.4532561,-4.6213398]]]]},"properties":{"building":"yes","name":"Cold Storage","shop":"butcher"}},
{"type":"Feature","geometry":{"type":"MultiPolygon","coordinates":[[[[55.4493048,-4.6226811],[55.4493945,-4.6226846],[55.4494004,-4.6225321],[55.4493107,-4.6225287],[55.4493048,-4.6226811]]]]},"properties":{"building":"yes","shop":"bakery"}},
{"type":"Feature","geometry":{"type":"MultiPolygon","coordinates":[[[[55.4537179,-4.6159705],[55.453739,-4.6159727],[55.453739,-4.6159896],[55.4537813,-4.6159919],[55.4537888,-4.6159198],[55.4537276,-4.6159111],[55.4537275,-4.6159165],[55.4537233,-4.6159175],[55.4537179,-4.6159705]]]]},"properties":{"building":"yes","shop":"convenience"}},
{"type":"Feature","geometry":{"type":"MultiPolygon","coordinates":[[[[55.8342134,-4.3515265],[55.8342475,-4.3516527],[55.8343408,-4.3516285],[55.8342992,-4.3515],[55.8342134,-4.3515265]]]]},"properties":{"building":"yes","name":"Shop","shop":"convenience"}},
{"type":"Feature","geometry":{"type":"MultiPolygon","coordinates":[[[[55.7551225,-4.3390333],[55.7551385,-4.3391089],[55.7551695,-4.3391028],[55.7551752,-4.3391186],[55.7552487,-4.3391005],[55.7552312,-4.3390038],[55.7551225,-4.3390333]]]]},"properties":{"building":"yes","name":"Happy Mart","shop":"convenience"}},
{"type":"Feature","geometry":{"type":"MultiPolygon","coordinates":[[[[55.4863899,-4.7604494],[55.486399,-4.76047],[55.4864171,-4.7604892],[55.4864094,-4.7604959],[55.4864303,-4.7605198],[55.486417,-4.7605327],[55.4864841,-4.7606042],[55.4865801,-4.7605125],[55.4865116,-4.7604377],[55.4865331,-4.7604148],[55.4864855,-4.7603663],[55.4864745,-4.7603749],[55.4864569,-4.7603553],[55.4864244,-4.7603844],[55.4864406,-4.7604021],[55.4863899,-4.7604494]]]]},"properties":{"building":"supermarket","building:condition":"good","building:levels":"2","building:material":"brick","name":"Baie Lazare Super market","roof:material":"corrugated iron","roof:shape":"gabled","rooms":"2","shop":"supermarket","staff":"4"}},
{"type":"Feature","geometry":{"type":"MultiPolygon","coordinates":[[[[55.4876637,-4.7613126],[55.4876989,-4.7613881],[55.4877226,-4.7613774],[55.4877247,-4.7613817],[55.4877874,-4.7613481],[55.4877521,-4.7612708],[55.4876637,-4.7613126]]]]},"properties":{"building":"retail","building:condition":"good","building:levels":"2","building:material":"brick","name":"Visva Store","roof:material":"corrugated iron","roof:shape":"gabled","rooms":"2","shop":"convenience","staff":"2","start_date":"2000"}},
{"type":"Feature","geometry":{"type":"MultiPolygon","coordinates":[[[[55.4878046,-4.7611819],[55.4878065,-4.7612706],[55.4878573,-4.7612686],[55.4878536,-4.7611932],[55.4878307,-4.7611938],[55.4878307,-4.761182],[55.4878046,-4.7611819]]]]},"properties":{"building":"retail","building:condition":"good","building:levels":"1","building:material":"brick","name":"Trotters Grocery","roof:material":"corrugated iron","roof:shape":"gabled","shop":"butcher"}},
{"type":"Feature","geometry":{"type":"MultiPolygon","coordinates":[[[[55.4879304,-4.7612468],[55.4879314,-4.7612673],[55.4879493,-4.7612673],[55.4879497,-4.7612469],[55.4880263,-4.7612427],[55.4880266,-4.7612291],[55.4881301,-4.7612193],[55.4881206,-4.7611213],[55.4880551,-4.7611294],[55.4880554,-4.7611459],[55.4879481,-4.7611564],[55.4879487,-4.7611815],[55.4879405,-4.7611815],[55.4879447,-4.7612458],[55.4879304,-4.7612468]]]]},"properties":{"building":"retail","building:condition":"good","building:levels":"1","building:material":"brick","name":"Aaru","roof:material":"corrugated iron","roof:shape":"gabled","rooms":"4","shop":"convenience","staff":"1"}},
{"type":"Feature","geometry":{"type":"MultiPolygon","coordinates":[[[[55.4861635,-4.7614151],[55.4861888,-4.7615838],[55.4861941,-4.7615898],[55.4862502,-4.7615821],[55.4862402,-4.7615247],[55.4862742,-4.7615086],[55.4862825,-4.7615182],[55.4863052,-4.7615039],[55.4863153,-4.7615195],[55.4864168,-4.7614515],[55.4863378,-4.7613269],[55.4861659,-4.7613792],[55.4861707,-4.7613989],[55.4861677,-4.7613995],[55.4861689,-4.7614139],[55.4861635,-4.7614151]]]]},"properties":{"building":"retail","building:condition":"good","building:levels":"2","building:material":"brick","name":"Flocy's store","roof:material":"corrugated iron","roof:shape":"gabled","rooms":"18","shop":"convenience","staff":"6"}},
{"type":"Feature","geometry":{"type":"MultiPolygon","coordinates":[[[[55.486729,-4.7613425],[55.4867329,-4.7613433],[55.4867329,-4.7613526],[55.4868413,-4.7613643],[55.4868563,-4.7612122],[55.4868338,-4.761211],[55.4868341,-4.7612157],[55.4867432,-4.7612069],[55.486729,-4.7613425]]]]},"properties":{"building":"yes","building:condition":"fair","building:levels":"1","building:material":"brick","name":"Law wah 2","roof:material":"corrugated iron","roof:shape":"gabled","shop":"convenience","start_date":"1970"}},
{"type":"Feature","geometry":{"type":"MultiPolygon","coordinates":[[[[55.516961,-4.74125],[55.516966,-4.7413186],[55.517078,-4.7413105],[55.5170729,-4.7412419],[55.516961,-4.74125]]]]},"properties":{"amenity":"marketplace","building":"yes","name":"Anse Royale Market","opening_hours":"Mo-Sa 09:00-16:00; Su 07:00-12:30"}},
{"type":"Feature","geometry":{"type":"MultiPolygon","coordinates":[[[[55.4818872,-4.7077669],[55.4819114,-4.7078704],[55.4819233,-4.7078675],[55.4819313,-4.7079034],[55.4820062,-4.7078897],[55.4819968,-4.7078524],[55.4820049,-4.7078524],[55.4820053,-4.70786],[55.4820349,-4.7078525],[55.482033,-4.7078472],[55.4821013,-4.7078311],[55.4821003,-4.7078244],[55.4821118,-4.7078225],[55.4820934,-4.7077296],[55.4820819,-4.7077296],[55.48208,-4.7077253],[55.4818872,-4.7077669]]]]},"properties":{"building":"retail","building:condition":"fair","building:levels":"1","building:material":"cement_block","name":"Sri Muga supermarket","roof:material":"corrugated_ iron","roof:shape":"gabled","shop":"supermarket"}},
{"type":"Feature","geometry":{"type":"MultiPolygon","coordinates":[[[[55.403905,-4.6196949],[55.4039204,-4.6197857],[55.4039559,-4.6197796],[55.4039611,-4.6198099],[55.4039285,-4.6198143],[55.4039313,-4.6198415],[55.4039878,-4.619833],[55.4039848,-4.619814],[55.4040164,-4.6198086],[55.4039919,-4.61968],[55.403905,-4.6196949]]]]},"properties":{"beds":"2","building":"yes","building:condition":"good","building:levels":"1","building:material":"brick","capacity":"2","emergency":"none","name":"R.S.K Supermarket","roof:material":"corrugated iron","roof:shape":"flat","rooms":"4","shop":"supermarket","staff":"1"}},
{"type":"Feature","geometry":{"type":"MultiPolygon","coordinates":[[[[55.4822901,-4.7096809],[55.4822971,-4.7097051],[55.482304,-4.709728],[55.4823109,-4.7097293],[55.4823224,-4.7097251],[55.482332,-4.7097231],[55.4823706,-4.7098546],[55.4825755,-4.7097958],[55.4825181,-4.709598],[55.4823184,-4.7096528],[55.4823162,-4.7096573],[55.4823181,-4.709665],[55.482306,-4.7096643],[55.4822956,-4.7096702],[55.4822901,-4.7096809]]]]},"properties":{"building":"yes","building:condition":"good","building:levels":"3","building:material":"cement_block","name":"Ashmitha Supermarket","roof:material":"corrugated_iron","roof:shape":"gabled","shop":"supermarket"}},
{"type":"Feature","geometry":{"type":"MultiPolygon","coordinates":[[[[55.459557,-4.62726],[55.4595798,-4.6277386],[55.4598521,-4.6277346],[55.4598454,-4.6272534],[55.4597153,-4.6272587],[55.459557,-4.62726]]]]},"properties":{"building":"yes","name":"Docklands Supermarket","shop":"supermarket"}},
{"type":"Feature","geometry":{"type":"MultiPolygon","coordinates":[[[[55.502881,-4.7286715],[55.502987,-4.7286762],[55.5029927,-4.728547],[55.5028868,-4.7285424],[55.502881,-4.7286715]]]]},"properties":{"building":"yes","name":"Sekaar Mont Plaisir","shop":"convenience"}},
{"type":"Feature","geometry":{"type":"MultiPolygon","coordinates":[[[[55.4859902,-4.7590629],[55.486068,-4.7591338],[55.4861679,-4.7590248],[55.4860902,-4.7589539],[55.4859902,-4.7590629]]]]},"properties":{"building":"retail","building:condition":"good","building:levels":"2","building:material":"brick","name":"Samy's Shopping Centre","roof:material":"corrugated iron","roof:shape":"gabled","rooms":"11","shop":"convenience","staff":"3","start_date":"2013"}},
{"type":"Feature","geometry":{"type":"MultiPolygon","coordinates":[[[[55.4833996,-4.7574175],[55.4834836,-4.7574897],[55.4835347,-4.7574307],[55.4834507,-4.7573585],[55.4833996,-4.7574175]]]]},"properties":{"building":"yes","shop":"convenience"}},
{"type":"Feature","geometry":{"type":"MultiPolygon","coordinates":[[[[55.4911181,-4.7269529],[55.4911403,-4.7270822],[55.4912951,-4.7270558],[55.4912729,-4.7269264],[55.4911181,-4.7269529]]]]},"properties":{"building":"yes","name":"Anse Louis Store","shop":"convenience"}},
{"type":"Feature","geometry":{"type":"MultiPolygon","coordinates":[[[[55.4632946,-4.6709236],[55.463383,-4.6710223],[55.463468399999999,-4.6709463],[55.46338,-4.6708476],[55.4632946,-4.6709236]]]]},"properties":{"building":"yes","name":"Le Panier","opening_hours":"Permanently closed","shop":"supermarket"}}
]}
